Name,Address,City,State
KIDS-N-KAPERS NURSERY,1896 COURTLAND,Lexington,KY
CHARLIE'S SEAFOOD,926 WINCHESTER ROAD,Lexington,KY
2ND FLOOR CLUB KITCHEN,4201 VERSAILLES RD.,Lexington,KY
GRIFFIN GATE MARRIOTT RESORT AND SPA,1800 NEWTOWN PIKE,Lexington,KY
PHILLIP'S GROCERY & DELI,553 SOUTH LIMESTONE,Lexington,KY
WILDCAT CAFE @ UK MEDICAL CENTER,800 ROSE STREET,Lexington,KY
MINGLEWOOD,159 NORTH LIMESTONE,Lexington,KY
A P  SUGGINS,345 ROMANY RD,Lexington,KY
"GRILLFISH LEXINGTON, LLC",265 N LIMESTONE ST,Lexington,KY
AIRPORT FOOD MART,5584 VERSAILLES ROAD,Lexington,KY
AL'S BAR,601 NORTH LIMESTONE,Lexington,KY
DUNKIN DONUTS,316 E NEW CIRCLE RD,Lexington,KY
ARBY'S #1128,540 NEW CIRCLE RD S-4,Lexington,KY
ARBY'S #1339,507 S LIMESTONE ST,Lexington,KY
ARBY'S OF LEXINGTON #1952,2270 ELKHORN DR,Lexington,KY
ARBY'S #1092,2649 RICHMOND RD,Lexington,KY
ARBY'S #784,1228 S BROADWAY,Lexington,KY
ARBY'S #1299,3261 NICHOLASVILLE RD,Lexington,KY
ARBY'S #159,212 SOUTHLAND DR,Lexington,KY
ARBY'S RESTAURANT,3391 TATES CREEK RD,Lexington,KY
ARLINGTON ELEMENTARY SCHOOL,928 N LIMESTONE ST,Lexington,KY
ASHLAND ELEMENTARY SCHOOL,195 N ASHLAND AVE,Lexington,KY
ASHLAND TERRACE,475 S ASHLAND AVE,Lexington,KY
BLUEGRASS CAFE @ BCTC,470 COOPER DRIVE,Lexington,KY
AUSTIN CITY SALOON,2350 WOODHILL DR #100,Lexington,KY
"KETCH, THE",2012 REGENCY RD,Lexington,KY
O'NEILL'S,2051 RICHMOND ROAD,Lexington,KY
THE BAR INC,224 E MAIN ST,Lexington,KY
BASKIN ROBBINS,3383 TATES CREEK RD,Lexington,KY
BURGERFI,391 ROSE ST,Lexington,KY
BEST FRIENDS BAR,500 EUCLID AVENUE,Lexington,KY
BEAUMONT MIDDLE SCHOOL,2080 GEORGIAN WAY,Lexington,KY
BIG BLUE BIRD EARLY CHILDHOOD CTR,1945 EASTLAND PKWY,Lexington,KY
GAY BREWER JR CRS @ PICADOME,469 PARKWAY DR,Lexington,KY
JOELLA'S HOT CHICKEN,101 COCHRAN RD,Lexington,KY
ARAMARK CAFETERIA / BLACKBURN CORR COMPLEX,3111 SPURR ROAD,Lexington,KY
BLUE GRASS CHRISTIAN CAMP,7463 ATHENS-BOONESBORO ROAD,Lexington,KY
"LEARNING CENTER, THE",475 PRICE ROAD,Lexington,KY
TALLEY'S BBQ,1479 BOARDWALK,Lexington,KY
"BOB EVANS RESTAURANT, LLC #53",2560 RICHMOND RD,Lexington,KY
"BOB EVANS RESTAURANT, LLC  #107",2341 BUENA VISTA RD,Lexington,KY
WAFFLE HOUSE # 1099,1000 GEORGETOWN ROAD,Lexington,KY
BOOKER T WASHINGTON ELEMENTARY,707 HOWARD STREET,Lexington,KY
BRECKINRIDGE ELEMENTARY SCHOOL,2101 ST MATILDA DR,Lexington,KY
OFF THE HOOKAH,504 EUCLID AVENUE,Lexington,KY
BRYAN STATION MIDDLE SCHOOL,1865 WICKLAND DR,Lexington,KY
BRYAN STATION HIGH SCHOOL,1866 EDGEWORTH DR,Lexington,KY
MARIA'S KITCHEN,805 N BROADWAY,Lexington,KY
"ROSE BUD, THE",121 NORTH MILL STREET,Lexington,KY
TACO BELL #23279,2917 RICHMOND RD,Lexington,KY
BURGER KING #1007,2217 NICHOLASVILLE RD,Lexington,KY
BURGER KING #1923,451 NEW CIRCLE RD,Lexington,KY
C & P RESTAURANT,1000 MANCHESTER ST,Lexington,KY
"CAMPBELL HOUSE, THE",1375 S BROADWAY,Lexington,KY
CONCESSION #104 PAPA JOHNS #2277,1540 UNIVERSITY DR,Lexington,KY
CONCESSION # 265 @ KROGER FIELD,1540 UNIVERSITY DRIVE,Lexington,KY
CONCESSION # 211 @ KROGER FIELD,1540 UNIVERSTIY DRIVE,Lexington,KY
PAPI'S MEXICAN RESTAURANT & BAR,818 EUCLID AVE,Lexington,KY
CAPTAIN D'S,245 NEW CIRCLE ROAD,Lexington,KY
CAPTAIN D'S,167 EAST REYNOLDS ROAD,Lexington,KY
CAPTAIN D'S,125 NORTH MT TABOR ROAD,Lexington,KY
CARDINAL HILL HOSPITAL,2050 VERSAILLES RD,Lexington,KY
CARDINAL VALLEY ELEM. SCHOOL,218 MANDALEY ROAD,Lexington,KY
LINKBELT,2651 PALUMBO DRIVE,Lexington,KY
CHERISH THE CHILD,102 DENNIS DR,Lexington,KY
CASSIDY ELEMENTARY SCHOOL,1125 TATES CREEK RD,Lexington,KY
LEXINGTON TENNIS CLUB SNACKBAR,410 REDDING ROAD,Lexington,KY
CAFE CENTRAL @ BAPTIST HEALTH HOSPITAL,1740 S LIMESTONE ST,Lexington,KY
CHARLIE BROWN'S,816 EUCLID AVE,Lexington,KY
SAWYER'S BAR & GRILL,325 W MAIN ST,Lexington,KY
RIDGE BEHAVIORAL HEALTH,3050 RIO DOSA DR,Lexington,KY
"RUDDY DUCK GRILLE, THE",131 CHEAPSIDE,Lexington,KY
"MOUSE TRAP, THE",3323 TATES CREEK ROAD,Lexington,KY
CHEVY CHASE INN,833 E. EUCLID AVENUE,Lexington,KY
CHICK-FIL-A  - FAYETTE MALL,3401 NICHOLASVILLE RD STE FC-5A,Lexington,KY
CHILDREN'S HAVEN,736 W MAIN ST,Lexington,KY
ARIRANG GARDEN,109 MT TABOR RD,Lexington,KY
CHRIST THE KING SCHOOL,412 COCHRAN RD,Lexington,KY
CHURCH OF GOD CAMP,3500 VERSAILLES RD,Lexington,KY
CLAYS MILL ELEMENTARY SCHOOL,2319 CLAYS MILL RD,Lexington,KY
COLUMBIA STEAK HOUSE,201 NORTH LIMESTONE,Lexington,KY
COMMUNITY ACTION COUNCIL,913 GEORGETOWN RD,Lexington,KY
CIRCLE K #3214,3469 BUCKHORN DR,Lexington,KY
CIRCLE K #3302,3130 PIMLICO PARKWAY,Lexington,KY
JIMMY JOHN'S,1397 W MAIN STREET,Lexington,KY
COLUMBIA STEAKHOUSE GRILLE,2750 RICHMOND RD,Lexington,KY
COURTYARD LEXINGTON NORTH,775 NEWTOWN CT,Lexington,KY
COWBOY'S,1515 RUSSELL CAVE RD,Lexington,KY
CRACKER BARREL OLD COUNTRY STORE #19,1927 STANTON WAY,Lexington,KY
CRAWFORD MIDDLE SCHOOL,1813 CHARLESTON DR,Lexington,KY
CRESTWOOD CHRISTIAN CHILD CC,1882 BELLEFONTE DR,Lexington,KY
"THE CURB, LLC",2314 PARIS PIKE,Lexington,KY
DAIRY QUEEN,3509 LANSDOWNE DRIVE,Lexington,KY
DEEP SPRINGS SCHOOL,1919 BRYNELL DR,Lexington,KY
"DELI MART, INC., THE",1009 GEORGETOWN ROAD,Lexington,KY
DIXIE ELEMENTARY SCHOOL,1940 EASTLAND PKWY,Lexington,KY
LA UNICA,1429 VILLAGE DR,Lexington,KY
DOMINO'S PIZZA,3101 CLAYS MILL RD,Lexington,KY
EL SABOR DE MEXICO RESTAURANT & TAYUENA,1505 RUSSELL CAVE RD.,Lexington,KY
DOMINO'S PIZZA,801 EUCLID AVE,Lexington,KY
DONUT DAYS,185 SOUTHLAND DRIVE,Lexington,KY
DAIRY QUEEN,2300 PALUMBO DRIVE,Lexington,KY
CHINA HUT,850 LANE ALLEN RD,Lexington,KY
EDUCARE LEARNING CENTER,2832 SNOW ROAD,Lexington,KY
SHAW'S CHILD CARE,2813 SNOW ROAD,Lexington,KY
SHELL-ESTEPP'S FOOD MART DELI,1951 STANTON WAY,Lexington,KY
LEE'S FAM. RECI. CHICKEN #7470,1487 BOARDWALK DRIVE,Lexington,KY
LEE'S FAM. RECI. CHICKEN #7472,3014 RICHMOND ROAD,Lexington,KY
FASIG-TIPTON MAIN DINING,2400 NEWTOWN PIKE,Lexington,KY
TACO BELL #29739,2323 VERSAILLES RD,Lexington,KY
FRISCH'S #148,1927 HARRODSBURG RD,Lexington,KY
FAZOLI'S #1605,2195 -A RICHMOND ROAD,Lexington,KY
CLAMATO'S,2304 VERSAILLES RD,Lexington,KY
"BURLEY STATION, DBA, BURLEY FARMS",4300 WINCHESTER RD,Lexington,KY
GARDEN SPRINGS CHILD DEVELOPMENT CENTER,2033 GARDEN SPRINGS DRIVE,Lexington,KY
GARDEN SPRINGS ELEMENTARY SCHOOL,2151 GARDEN SPRINGS DR,Lexington,KY
IPALAPA'S RESTAURANT,1765 ALEXANDRIA DR,Lexington,KY
GEORGE'S DELI AND GROCERY,161 NORTH LIMESTONE,Lexington,KY
YUMMY YUMMY,1395 WEST MAIN ST,Lexington,KY
BLUEFIRE BAR & GRILL,401 W. HIGH STREET,Lexington,KY
LEXINGTON RESCUE MISSION,444 GLEN ARVIN AVE,Lexington,KY
GLENDOVER ELEMENTARY SCHOOL,710 GLENDOVER RD,Lexington,KY
TARGET STORES T-366,131 WEST REYNOLDS ROAD,Lexington,KY
UK / UK SAMARITAN HOSPITAL,310 S LIMESTONE ST,Lexington,KY
THE SIRE,120 WEST SECOND STREET,Lexington,KY
GREENBRIER COUNTRY CLUB,2179 BAHAMA ROAD,Lexington,KY
MIDWAY FOOD MART,3895 WINCHESTER ROAD,Lexington,KY
"LITTLE TOT'S LEARNING CTR, LLC",3580 CAULDER RD,Lexington,KY
HARDEE'S,2990 RICHMOND RD,Lexington,KY
HARDEE'S,1125 WINCHESTER ROAD,Lexington,KY
QDOBA MEXICAN GRILL #2086,265 EUCLID AVENUE,Lexington,KY
HARDEE'S,202 NEW CIRCLE RD,Lexington,KY
HARRISON ELEMENTARY SCHOOL,161 BRUCE ST,Lexington,KY
PUDDLE JUMPERS LEARNING CENTER,1940 CAMBRIDGE DR.,Lexington,KY
HENRY CLAY HIGH SCHOOL,2100 FONTAINE RD,Lexington,KY
HILTON SUITES LEXINGTON,245 LEXINGTON GREEN CIRCLE,Lexington,KY
CLARION HOTEL,1950 NEWTOWN PIKE,Lexington,KY
HOMESTEAD NURSING HOME,1608 VERSAILLES RD,Lexington,KY
HORSESHOES SALOON & STEAKHOUSE,1987 NORTH BROADWAY,Lexington,KY
ST. JOSEPH EAST-DIETARY DEPT.,150 NORTH EAGLE CREEK,Lexington,KY
HYATT REGENCY/MAIN KITCHEN,401 W  HIGH ST,Lexington,KY
PETE'S WOK,537 A WALLER AVENUE,Lexington,KY
BURGER & SHAKE,219 E NEW CIRCLE RD,Lexington,KY
ARAMARK-BLDG 3/LEXMARK,740 NEW CIRCLE RD,Lexington,KY
IDLE HOUR COUNTRY CLUB,1815 RICHMOND RD,Lexington,KY
IDLE HOUR SNACK BAR,1815 RICHMOND ROAD,Lexington,KY
IMMANUEL BAPTIST CHURCH,3100 TATES CREEK ROAD,Lexington,KY
MINIT MART #672,1949 NORTH BROADWAY,Lexington,KY
IROQUOIS HUNT CLUB,7496 GRIMES MILL ROAD,Lexington,KY
JAMES LANE ALLEN ELEM SCHOOL,1901 APPOMATTOX RD,Lexington,KY
DENNY'S #8766,1880 NEWTOWN PIKE,Lexington,KY
DENNY'S #8770,1949 NICHOLASVILLE RD,Lexington,KY
LEX EXPRESS,176 NEW CIRCLE RD,Lexington,KY
JESSE CLARK MIDDLE SCHOOL,3341 CLAYS MILL RD,Lexington,KY
STEAM ACADEMY,123 E SIXTH ST,Lexington,KY
JULIUS MARKS ELEMENTARY SCHOOL,3277 PEPPERHILL RD,Lexington,KY
STAND 213,4201 VERSAILLES RD,Lexington,KY
SAKURA JAPANESE RESTAURANT,1015 WINCHESTER ROAD,Lexington,KY
KENTUCKY FRIED CHICKEN,1494 BOARDWALK,Lexington,KY
KINDER CARE LEARNING CTR #963,3199 CUSTER DRIVE,Lexington,KY
KINDER CARE LEARNING CTR #936,2611 WILHITE DR,Lexington,KY
KINDERCARE NURSERY,628 WELLINGTON WAY,Lexington,KY
MUMBAI MASALA LLC,102 WEST HIGH STREET,Lexington,KY
KROGER L-784,704 EUCLID AVE,Lexington,KY
KROGER L-352,2335 NICHOLASVILLE RD,Lexington,KY
KROGER L-347,4014 TATES CREEK RD,Lexington,KY
KROGER L-361,1808 ALEXANDRIA DR,Lexington,KY
KENTUCKY FRIED CHICKEN,2401 NICHOLASVILLE ROAD,Lexington,KY
KENTUCKY FRIED CHICKEN,3030 RICHMOND ROAD,Lexington,KY
PALMER'S FRESH GRILL,161 LEXINGTON GREEN CIRCLE #C8,Lexington,KY
IPALAPA'S,102 W VINE ST,Lexington,KY
LAFAYETTE AT COUNTRY PLACE,690 MASON HEADLEY ROAD,Lexington,KY
LAFAYETTE CHILD CARE,1836 CLAYS MILL ROAD,Lexington,KY
DUPREE CATERING & EVENTS,201 E MAIN ST 15TH FL,Lexington,KY
LAFAYETTE HIGH SCHOOL,400 REED LN,Lexington,KY
LAKESIDE GOLF COURSE SNACK BAR,3725 RICHMOND ROAD,Lexington,KY
LANSDOWNE ELEMENTARY SCHOOL,336 REDDING RD,Lexington,KY
LEE'S FAM. RECI. CHICKEN #7474,1318 VERSAILLES ROAD,Lexington,KY
LEESTOWN MIDDLE SCHOOL,2010 LEESTOWN RD,Lexington,KY
FUSION @ ERICKSON HALL,135 GRAHAM AVE,Lexington,KY
"BLUEGRASS FOODS, INC.",825 LANE ALLEN,Lexington,KY
LEXINGTON CATHOLIC SR HIGH,2250 CLAYS MILL RD,Lexington,KY
BLUE CONCOURSE NO. 4,430 WEST VINE STREET,Lexington,KY
KENTUCKY CATTLEMEN,430 W VINE STREET,Lexington,KY
MAIN EXPOSITION (EAST),430 W. VINE STREET,Lexington,KY
LEX CNTR CORP - MAIN COMMISSARY,430 W VINE ST,Lexington,KY
GOLD STAR CHILI,430 W. VINE ST.,Lexington,KY
LEXINGTON COUNTRY CLUB,2550 PARIS PIKE,Lexington,KY
LEXINGTON COUNTRY PLACE,700 MASON HEADLEY ROAD,Lexington,KY
LEXINGTON ICE CENTER,560 EUREKA SPRINGS DRIVE,Lexington,KY
"LEXINGTON SCHOOL, THE",1050 LANE ALLEN RD,Lexington,KY
THE TULIP BISTRO & BAR,355 ROMANY RD,Lexington,KY
LEXINGTON TRADITIONAL MAGNET SCHOOL,350 N LIMESTONE ST,Lexington,KY
HANNA'S ON LIME,214 SOUTH LIMESTONE STREET,Lexington,KY
LINLEE,2420 SPURR ROAD,Lexington,KY
FITZ'S SPORTS BAR,209 OLD GEORGETOWN STREET,Lexington,KY
ROSE & JIM'S,2461 GEORGETOWN RD,Lexington,KY
LONG JOHN SILVER'S #12,2197 VERSAILLES ROAD,Lexington,KY
NOODLES AND COMPANY,2468 NICHOLASVILLE ROAD,Lexington,KY
A&W RESTAURANT,652 E MAIN STREET,Lexington,KY
LORADALE MARKET,6888 RUSSELL CAVE RD.,Lexington,KY
LOUDON SQUARE BUFFET,801 NORTH BROADWAY,Lexington,KY
LYNAGH'S,384 WOODLAND AVENUE,Lexington,KY
"OLD SAN JUAN, CUBAN CUISINE",247 SURFSIDE DR.,Lexington,KY
MALABU PUB AND GRILLE,239 SURFSIDE DR,Lexington,KY
MARINO'S DAY CARE CENTER,130 WEST FIFTH STREET,Lexington,KY
MARY TODD ELEMENTARY SCHOOL,551 PARKSIDE DR,Lexington,KY
MAXWELL ELEMENTARY SCHOOL,333 WOODLAND AVE,Lexington,KY
WEE CARE DAYCARE,455 E MAXWELL ST,Lexington,KY
MAYFAIR MANOR,3300 TATES CREEK ROAD,Lexington,KY
MAYFAIR VILLAGE,3310 TATES CREEK ROAD,Lexington,KY
HARVEY'S,200 W MAIN ST,Lexington,KY
MCDONALD'S,357 SOUTH LIMESTONE,Lexington,KY
MCDONALD'S RESTAURANT #989,2321 VERSAILLES RD,Lexington,KY
MCDONALD'S RESTAURANT #1231,2483 NICHOLASVILLE ROAD,Lexington,KY
MCDONALD'S,1499 RUSSELL CAVE RD.,Lexington,KY
MCDONALD'S,2271 ELKHORN DRIVE,Lexington,KY
MCDONALD'S #6111,1114 E NEW CIRCLE RD,Lexington,KY
MCDONALD'S,4131 TATES CREEK CTR,Lexington,KY
CAMBRIDGE PLACE,2020 CAMBRIDGE DRIVE,Lexington,KY
MEADOWTHORPE ELEM SCHOOL,1710 FORBES RD,Lexington,KY
TRINITY HILLS FOOD SERVICE,3600 TATES CREEK RD,Lexington,KY
MEALS ON WHEELS,460 EAST MAIN STREET,Lexington,KY
MERRICK INN,1074 MERRICK DRIVE,Lexington,KY
MILLCREEK ELEMENTARY SCHOOL,3660 APPIAN WAY,Lexington,KY
CITGO FOOD MART,705 LOUDON AVENUE,Lexington,KY
G MART,2353 PARIS PIKE,Lexington,KY
BLUEGRASS MART,464 SQUIRES CIRCLE,Lexington,KY
ATHENS FOOD MART,5522 ATHENS-BOONESBORO ROAD,Lexington,KY
MORTON MIDDLE SCHOOL,1225 TATES CREEK RD,Lexington,KY
MIMI'S SOUTHERN STYLE COOKING,126 E NEW CIRCLE ROAD,Lexington,KY
DURANGO'S MEXICAN RESTAURANT,"2121 RICHMOND ROAD, SUITE 150",Lexington,KY
NORTHERN ELEMENTARY SCHOOL,340 ROOKWOOD PKWY,Lexington,KY
O'CHARLEY'S #209,2895 RICHMOND ROAD,Lexington,KY
O'CHARLEY'S #212,2270 NICHOLASVILLE ROAD,Lexington,KY
OFFICE LOUNGE,1533 EASTLAND PARKWAY,Lexington,KY
OLEIKA SHRINE TEMPLE,326 SOUTHLAND DRIVE,Lexington,KY
COMEDY OFF BROADWAY,161 LEXINGTON GRN CIRCLE #C-4,Lexington,KY
ORIGINAL GREAT AMERICAN COOKIES,3401 NICHOLASVILLE ROAD #134,Lexington,KY
PAISANO'S RESTAURANT,2417 NICHOLASVILLE ROAD,Lexington,KY
PARKETTE,1230 NEW CIRCLE RD NE,Lexington,KY
PEPPERHILL PRE-SCHOOL,2104 EASTWAY DRIVE,Lexington,KY
PICADOME ELEMENTARY SCHOOL,1642 HARRODSBURG RD,Lexington,KY
SUBWAY,386 WOODLAND AVENUE,Lexington,KY
THE WEST INDIES FRIED CHICKEN,2213 VERSAILLES ROAD,Lexington,KY
"CENTRO, LOLA II LLC DBA",113 CHEAPSIDE PARK,Lexington,KY
HILTON LEXINGTON DOWNTOWN,369 W. VINE STREET,Lexington,KY
RAFSKELLER @ TRANSYLVANIA UNIVERSITY,300 N BROADWAY,Lexington,KY
RED LOBSTER #0188,2550 NICHOLASVILLE RD,Lexington,KY
RED MILE - WAGERS,1101 WINBAK WAY,Lexington,KY
BAYOU BLUEGRASS CATERING@,861 S BROADWAY,Lexington,KY
SPEARMINT RHINO,5539 ATHENS-BOONESBORO ROAD,Lexington,KY
RICHMOND PLACE,3051 RIO DOSA DRIVE,Lexington,KY
BAD WOLF BURGERS,350 FOREMAN AVE,Lexington,KY
ROSE MANOR,3057 N. CLEVELAND ROAD,Lexington,KY
JAX,161 LEXINGTON GREEN CIRCLE,Lexington,KY
RUSSELL CAVE ELEMENTARY,3375 RUSSELL CAVE RD,Lexington,KY
TRANSYLVANIA UNIVERSITY CAFE,300 NORTH BROADWAY,Lexington,KY
SAYRE HEALTHCARE CENTER,3775 BELLEAU WOOD DR.,Lexington,KY
SAYRE SCHOOL CAFETERIA,194 N LIMESTONE ST,Lexington,KY
SAYRE CHRISTIAN VILLAGE,3816 CAMELOT DR,Lexington,KY
CHUCK E CHEESE,1555 NEW CIRCLE RD,Lexington,KY
SIGEE'S,2143 NORTH BROADWAY,Lexington,KY
SIR PIZZA,131 EAST REYNOLDS ROAD,Lexington,KY
MARIKKA'S RESTAURANT,411 SOUTHLAND DRIVE,Lexington,KY
PIZZA HUT #2966,393 WALLER AVE,Lexington,KY
SIR PIZZA COMMISSARY,2604 RICHMOND ROAD,Lexington,KY
BANGKOK HOUSE,275 AVENUE OF CHAMPIONS - BASEMENT,Lexington,KY
JOSIE'S GRAB N GO,821 CHEVY CHASE PLACE,Lexington,KY
SOUTHERN ELEMENTARY SCHOOL,340 WILSON DOWNING RD,Lexington,KY
SOUTHERN MIDDLE SCHOOL,400 WILSON DOWNING RD,Lexington,KY
300 GRILL SOUTHLAND,205 SOUTHLAND DRIVE,Lexington,KY
SPEEDWAY #9394,1001 GEORGETOWN RD,Lexington,KY
SPINDLETOP RESTAURANT,3414 IRON WORKS PIKE,Lexington,KY
SPRING VALLEY GOLF CLUB,2300 SANDERSVILLE ROAD,Lexington,KY
SPUDS TAVERN,"3130 PIMLICO PARKWAY, STE. 101",Lexington,KY
R & R ENTERTAINMENT DBA SQUIRES TAVERN,3429 BUCKHORN DR #3,Lexington,KY
ST. JOSEPH HOSPITAL,1 ST. JOSEPH DRIVE,Lexington,KY
ST. PETER AND PAUL SCHOOL,133 BARR ST,Lexington,KY
COOKOUT,855 S BROADWAY,Lexington,KY
STELLA'S KY DELI,143 JEFFERSON STREET,Lexington,KY
STONEWALL ELEMENTARY SCHOOL,3251 CORNWALL DR,Lexington,KY
BEAR AND THE BUTCHER,815 EUCLID AVE,Lexington,KY
SURVIVORS,161 E. REYNOLDS ROAD,Lexington,KY
"RED STATE BARBECUE, RED PHOENIX LLC, DBA",4020 GEORGETOWN RD,Lexington,KY
SPEEDWAY #9658,900 WINCHESTER RD,Lexington,KY
SPEEDWAY #9667,716 NORTH BROADWAY,Lexington,KY
SPEEDWAY #9675,819 S LIMESTONE ST,Lexington,KY
SPEEDWAY #9591,2301 VERSAILLES RD,Lexington,KY
SPEEDWAY #9704,447 NEW CIRCLE ROAD,Lexington,KY
SPEEDWAY #9621,2490 NICHOLASVILLE RD,Lexington,KY
SPEEDWAY #9593,2900 RICHMOND RD,Lexington,KY
SPEEDWAY #9512,515 EUCLID AVE,Lexington,KY
SPEEDWAY #9677,1401 LEESTOWN RD,Lexington,KY
PAPA JOHN'S PIZZA #88,2467 NICHOLASVILLE RD.,Lexington,KY
BASKIN ROBBINS ICE CREAM,115 NORTH LOCUST HILL  # 101,Lexington,KY
TACHIBANA  RESTAURANT,785 NEWTOWN COURT,Lexington,KY
TACO TICO,1483 BOARDWALK,Lexington,KY
TACO BELL #32414,320 NW NEW CIRCLE RD,Lexington,KY
TATES CREEK ELEMENTARY SCHOOL,1300 CENTRE PKWY,Lexington,KY
TATES CREEK GOLF CLUB,1400 GAINESWAY DRIVE,Lexington,KY
TATES CREEK HIGH SCHOOL,1301 CENTRE PKWY,Lexington,KY
BLUEGRASS CARE AND REHABILITATION CENTER,3576 PIMLICO PARKWAY,Lexington,KY
THORNTON'S FOOD STOP #48,1311 VERSAILLES ROAD,Lexington,KY
THORNTON FOOD STOP #52,1040 GEORGETOWN RD,Lexington,KY
THORNTON FOOD STOP #51,2300 WOODHILL DRIVE,Lexington,KY
THORNTON FOOD STOP #53,2291 ELKHORN ROAD,Lexington,KY
THORNTON FOOD STOP #38,802 N BROADWAY ST,Lexington,KY
THOROUGHBRED RESTAURANT,1483 LEESTOWN RD,Lexington,KY
SHERATON FOUR POINTS CAFE,1938 STANTON WAY,Lexington,KY
TOT 'N' TODDLERS,445 ASBURY LANE,Lexington,KY
TRINITY BAPTIST CHURCH,1675 STRADER DR,Lexington,KY
DONG YANG MARKET,"3101 CLAYS MILL RD., STE 102",Lexington,KY
TWO KEYS TAVERN,333 S. LIMESTONE,Lexington,KY
HILARY J. BOONE FACULTY CLUB,500 ROSE ST,Lexington,KY
GREAT BAGEL,396 WOODLAND AVENUE,Lexington,KY
VFW POST - 680,1494 LEESTOWN ROAD,Lexington,KY
MIRACLES & WONDERS PLAY & LEARN CNTR,1183 DEVONPORT DRIVE,Lexington,KY
PATCHEN PUB,153 PATCHEN DR #29,Lexington,KY
WAFFLE HOUSE #107,2340 BUENA VISTA RD,Lexington,KY
WAFFLE HOUSE #654,2203 NORTH BROADWAY,Lexington,KY
WENDY'S,1792 ALEXANDRIA,Lexington,KY
WENDY'S,2575 NICHOLASVILLE ROAD,Lexington,KY
WENDY'S,1499 BOARDWALK,Lexington,KY
WENDY'S,3010 RICHMOND ROAD,Lexington,KY
CARAMANDA'S BAKE SHOPPE,2901 RICHMOND RD #110,Lexington,KY
WHEELER'S PHARMACY,336 ROMANY RD,Lexington,KY
WHITE CASTLE #21,307 EAST NEW CIRCLE RD,Lexington,KY
WHITE CASTLE #22,179 EAST REYNOLDS RD.,Lexington,KY
WINBURN MIDDLE SCHOOL,1060 WINBURN DR,Lexington,KY
WINDY CORNER MARKET,4595 BRYAN STATION ROAD,Lexington,KY
YATES ELEMENTARY SCHOOL,703 E NEW CIRCLE RD,Lexington,KY
NEFERTITI,"1301 WINCHESTER RD, SUITE 81",Lexington,KY
LYNAGH'S SHAMROCK BAR & GRILL,154 PATCHEN DRIVE #87A,Lexington,KY
"GREY GOOSE, THE",170 JEFFERSON ST,Lexington,KY
MARATHON MART,300 N. MARTIN LUTHER KING BLVD,Lexington,KY
HANNEH'S GROCERY & DELI,561 BRECKINRIDGE,Lexington,KY
MINIT MART #674,435 W NEW CIRCLE ROAD,Lexington,KY
"COFFEE TIMES, INC",2571 REGENCY RD,Lexington,KY
WILDCAT MARKET,552  COLUMBIA AVENUE,Lexington,KY
H & M MARKET,1220 N LIMESTONE ST,Lexington,KY
SABOR LATINO PUPUSAS,1205 VERSAILLES ROAD,Lexington,KY
KENTUCKY FRIED CHICKEN,4141 TATES CREEK ROAD,Lexington,KY
LUNDY'S OF LEXINGTON,1389 PRIDEMORE COURT,Lexington,KY
GROWING TOGETHER PRE-SCHOOL,599 LIMA DRIVE,Lexington,KY
KROGER L-407,3101 RICHMOND ROAD,Lexington,KY
SAVE A LOT - SOUTHLAND,398 SOUTHLAND DR,Lexington,KY
PANDA EXPRESS #2625,2399 RICHMOND RD,Lexington,KY
JOT EM DOWN,3299 RUSSELL CAVE RD.,Lexington,KY
TASTE OF THAI,101 - 105 WEST MAIN ST.,Lexington,KY
SELMA'S CATERING,720 HENRY CLAY BLVD.,Lexington,KY
"WILSON'S GROCERY, MEAT & PROD.",1010 CRAMER AVENUE,Lexington,KY
SWIFT VENTURES,1875 AUGUSTA DR,Lexington,KY
MINIT MART #679,2300 VERSAILLES RD,Lexington,KY
SPEEDWAY #9393,2290 ELKHORN ROAD,Lexington,KY
SPEEDWAY #9596,246 SOUTHLAND DR,Lexington,KY
"NO BAKED LOUISVILLE, LLC",3735 PALOMAR CENTRE DR. STE 220,Lexington,KY
PDQ DELI AND GROCERY,460 E NEW CIRCLE RD,Lexington,KY
OLIVE GARDEN ITAL. REST. #1320,3385 NICHOLASVILLE ROAD,Lexington,KY
CAFE SOUTH @ BAPTIST HEALTH HOSPITAL,1740 NICHOLASVILLE RD,Lexington,KY
CHINOE PUB,1050 -C  E CHINOE RD,Lexington,KY
EFS SOUTH BROADWAY,1201 SOUTH BROADWAY,Lexington,KY
F & D MARKET,573 ELM TREE LANE,Lexington,KY
MINIT MART #662,1998 HARRODSBURG ROAD,Lexington,KY
TACO BELL #22283,2275 NICHOLASVILLE RD,Lexington,KY
SANDRA'S CAFE AND DELI,6421 ATHENS-BOONESBORO ROAD,Lexington,KY
SQUIRES ELEMENTARY SCHOOL,3337 SQUIRES OAK DR,Lexington,KY
ARAMARK-BUILDING 32-35/LEXMARK,740 NEW CIRCLE RD  BLDGS 32-35,Lexington,KY
PORTOFINO,"249 E MAIN ST, STE 102",Lexington,KY
BIT N BRIDLE CLUBHOUSE,4089 IRON WORKS PIKE,Lexington,KY
SUBWAY  #2819,409 WALLER AVENUE,Lexington,KY
CRUMZZ BAR AND GRILL,"395 SOUTH LIMESTONE, STE. 110",Lexington,KY
INSOMNIA COOKIES,433 JERSEY ST,Lexington,KY
NORTH LIME COFFEE & DONUTS,3101 CLAYS MILL ROAD 300A,Lexington,KY
RALLY'S #23,2975 RICHMOND ROAD,Lexington,KY
"HONEY BAKED HAM COMPANY, THE",2600 NICHOLASVILLE RD,Lexington,KY
CROSSINGS/BANG,117 N LIMESTONE ST,Lexington,KY
DOUBLE TREE GUEST SUITES,2601 RICHMOND ROAD,Lexington,KY
NORTHPOINT HEALTHCARE CENTER,1500 TRENT BLVD.,Lexington,KY
ATHENIAN GRILL,313 S ASHLAND AVE,Lexington,KY
OWL HOOT SHOP,650 KENNEDY RD,Lexington,KY
CRACKER BARREL OLD COUNTRY STORE #77,2220 ELKHORN RD,Lexington,KY
HAPPY DRAGON,1510 NEWTOWN PIKE,Lexington,KY
YESTERDAYS,410 W VINE ST,Lexington,KY
INDI'S FAST FOOD,670 NORTH BROADWAY,Lexington,KY
JOE BOLOGNA RESTAURANT,120 W MAXWELL ST,Lexington,KY
"TANBARK, THE",1121 TANBARK ROAD,Lexington,KY
CINCO DE MAYO,122 W. MAXWELL ST.,Lexington,KY
WENDY'S RESTAURANT,2296 THUNDERSTICK DRIVE,Lexington,KY
TEXAS ROADHOUSE RESTAURANT,3029 RICHMOND ROAD,Lexington,KY
MINIT MART #681,2297 THUNDERSTICK DRIVE,Lexington,KY
KROGER L-371,3650 BOSTON ROAD,Lexington,KY
TACO BELL #31595,1962 HARRODSBURG RD,Lexington,KY
KEARNEY HILLS GOLF CONCESSION STAND,3403 KEARNEY ROAD,Lexington,KY
NATIONAL ACADEMY,3500 ARBOR DR,Lexington,KY
SPEEDWAY #9699,803 SOUTH BROADWAY,Lexington,KY
"MARATHON, SPEAKS",1900 NEWTOWN PIKE,Lexington,KY
BANNERS,3650 BOSTON RD STE A,Lexington,KY
NAZ THREE BP,781 E NEW CIRCLE RD,Lexington,KY
PANERA BREAD #825,2573 RICHMOND RD STE 100,Lexington,KY
PORTER MEMORIAL BAPTIST CHURCH,4300 NICHOLASVILLE ROAD,Lexington,KY
OUTBACK STEAKHOUSE #1812,"127 W. TIVERTON DR., STE 184",Lexington,KY
THORNTON'S #90,1120 WINCHESTER RD,Lexington,KY
MINIT MART #671,3790 PALOMAR CENTRE DRIVE,Lexington,KY
WOODLAND EARLY LEARNING CENTER,575 WOODLAND AVENUE,Lexington,KY
GOLD STAR CHILI, FAYETTE MALL,Lexington,KY
"TOT'S LANDING LEARNING CTR,INC",3501 BEAVER PLACE RD,Lexington,KY
RALLY'S # 25,410 GEORGETOWN ROAD,Lexington,KY
P L DUNBAR HIGH SCHOOL,1600 MAN-O-WAR BLVD,Lexington,KY
CRITCHFIELD MEATS,2220 NICHOLASVILLE RD STE. 166,Lexington,KY
MCDONALD'S RESTAURANT,3765 PALOMAR CENTRE,Lexington,KY
FAITH LUTHERAN CHILD CARE MINISTRIES,1000 TATES CREEK RD,Lexington,KY
PINE MEADOWS HEALTH CARE,1608 HILL RISE DRIVE,Lexington,KY
MOE'S SOUTHWEST GRILL,"3401 NICHOLASVILLE RD, FC-6",Lexington,KY
WALMART #4607,3735 PALOMAR CENTER,Lexington,KY
ASIAN TOO EXPRESS,3401 NICHOLASVILLE RD FC-10,Lexington,KY
SUBWAY,3401 NICHOLASVILLE ROAD FC-9,Lexington,KY
SARKU JAPAN,"3401 NICHOLASVILLE RD, SP#FC-5",Lexington,KY
"A&W BURGERS, CHICKEN, FLOATS",3401 NICHOLASVILLE RD STE FL-07,Lexington,KY
STEIN'S,450 SOUTHLAND DRIVE STE B,Lexington,KY
FAZOLI'S - #1607,3775 HARRODSBURG ROAD,Lexington,KY
MAXWELL ST. PRESBYTERIAN CHUR.,180 E. MAXWELL STREET,Lexington,KY
PAPA JOHN'S PIZZA #54,3735 HARRODSBURG RD #240,Lexington,KY
LIMESTONE PIZZA,543 SOUTH LIMESTONE,Lexington,KY
UK BASEBALL CONCESSION STAND,HAGAN BASEBALL STADIUM,Lexington,KY
RESIDENCE INN,1080 NEWTOWN PIKE,Lexington,KY
SUBLEX 1 LLC,2312 PALUMBO DR #110,Lexington,KY
"MIYAKO, LLC",2547 RICHMOND ROAD,Lexington,KY
CHENGS RESTAURANT,3101 CLAYS MILL RD #302,Lexington,KY
SUBWAY,1423 - A LEESTOWN ROAD,Lexington,KY
KROGER L-721,4750 HARTLAND PARKWAY,Lexington,KY
NEIGHBORHOOD GROCERY,215 E. SEVENTH STREET,Lexington,KY
GIUSEPPE'S,4456 NICHOLASVILLE ROAD,Lexington,KY
PIZZA HUT #2970,3630 BOSTON ROAD,Lexington,KY
THE OTHER BAR,319 -A S LIMESTONE,Lexington,KY
SOUTHERN HILLS UNITED METH.,2356 HARRODSBURG ROAD,Lexington,KY
SAM'S CLUB #8188,1063 NEW CIRCLE RD,Lexington,KY
WINCHELL'S REST. & SPORTS BAR,348 SOUTHLAND DRIVE,Lexington,KY
HOOTER'S,3101 RICHMOND ROAD STE 15,Lexington,KY
CONSOLIDATED BAPTIST CHURCH,1625 RUSSELL CAVE RD.,Lexington,KY
FRIENDSHIP TOWERS @ SAYRE CHRISTIAN VILLAGE,580 GREENFIELD,Lexington,KY
TACO BELL #4653,1063 NEW CIRCLE RD  NE,Lexington,KY
LUCKY HIBACHI BUFFET,180 EAST NEW CIRCLE RD,Lexington,KY
CHRYSALIS HOUSE/FAMILY PROGRAM,120 CHRYSALIS CT,Lexington,KY
MI PEQUENA HACIENDA,3501 LANSDOWNE DR,Lexington,KY
PAPA JOHN'S PIZZA #40,2937 RICHMOND RD,Lexington,KY
SUBWAY,690 E. NEW CIRCLE RD,Lexington,KY
FAZOLI'S #1624,2200 NICHOLASVILLE RD.,Lexington,KY
SUBWAY #7507,"4218 SARON DR., SUITE 2",Lexington,KY
CHRYSALIS HOUSE,251 E MAXWELL ST,Lexington,KY
SPEEDWAY #9651,5360 ATHENS-BOONESBORO ROAD,Lexington,KY
MINIT MART #677,1975 NICHOLASVILLE RD,Lexington,KY
SUBWAY,115 N LOCUST HILL DR  STE #103,Lexington,KY
COMMON GROUNDS COFFEE HOUSE & CAFE',343 EAST HIGH STREET,Lexington,KY
GEORGETOWN CAFE,891 GEORGETOWN ST.,Lexington,KY
CATHEDRAL KITCHEN- CHRIST THE KING,299 COLONY BLVD,Lexington,KY
DOMINO'S PIZZA,828 LANE ALLEN RD,Lexington,KY
THORNTON'S FOOD MART #89,441 REDDING ROAD,Lexington,KY
VIRGINIA PLACE DAY CARE,1156 HORSEMAN'S LANE,Lexington,KY
RAMSEY'S TC,4053 S #35 TATES CREEK ROAD,Lexington,KY
FAYETTE CO. CO-OP EXT. SERVICE,1140 RED MILE PLACE,Lexington,KY
CAMPUS KIDS,1165 CENTRE PARKWAY #225,Lexington,KY
CENTENARY UNITED METHODIST,2800 TATES CREEK RD,Lexington,KY
GOLDEN WOK,3101 RICHMOND ROAD  # 302,Lexington,KY
RAISING CANE'S CHICKEN FINGERS,2555 NICHOLASVILLE ROAD,Lexington,KY
SPEEDWAY #9728,3660 BOSTON RD,Lexington,KY
STEAK EXPRESS,125 SOUTHLAND DRIVE,Lexington,KY
ARBY'S,410 W. VINE ST.,Lexington,KY
GIOVANNI'S PIZZA,4214 SARON DR,Lexington,KY
NEW GREAT WALL,393 WALLER AVE. #14,Lexington,KY
KID'S PLACE SNACK SHACK,3992 W. TIVERTON COURT,Lexington,KY
UNIVERSITY CLUB OF KY,4850 LEESTOWN RD,Lexington,KY
MINIT MART #678,4201 SARON DRIVE,Lexington,KY
LITTLE CAESAR'S PIZZA,2003 VERSAILLES ROAD,Lexington,KY
LUCKYS MARKET,"1030 S BROADWAY, STE B",Lexington,KY
SIR PIZZA,1064 S BROADWAY PLACE,Lexington,KY
FOLIAGE CHINESE RESTAURANT,3650 BOSTON RD  STE H,Lexington,KY
PARKHILL SUBWAY,3120 PIMLICO PKWY    # 144,Lexington,KY
LE MATIN BAKERY & ZUNI CAFE,890 E HIGH ST,Lexington,KY
ARBY'S - PALOMAR,3745 HARRODSBURG RD,Lexington,KY
OASIS MEDITERRANIAN  CAFE,868 -B E HIGH ST,Lexington,KY
DISMAS CHARITIES LEXINGTON,909 GEORGETOWN ROAD,Lexington,KY
INTERMEZZO CAFE,120 PATTERSON DRIVE,Lexington,KY
CLARKS PUMP & SHOP #36/CHEVRON,1971 N BROADWAY,Lexington,KY
O'SHIMI SUSHI,"1093 S BROADWAY, STE 1150",Lexington,KY
PENN STATION,2121 RICHMOND RD STE. 100 - IDLE HR CTR,Lexington,KY
PAPA JOHN'S PIZZA #32,1650 BRYAN STATION RD #105,Lexington,KY
RALLY'S #27,125 NEW CIRCLE RD NE,Lexington,KY
SHAMROCK BAR & GRILL,4750 HARTLAND PARKWAY #128,Lexington,KY
CHUY'S LEXINGTON,3841 NICHOLASVILLE CENTER ROAD,Lexington,KY
KROGER L-359,1650 BRYAN STATION RD,Lexington,KY
BURGER KING #8249,4200 SARON DR,Lexington,KY
WAH MEI,"4750 HARTLAND PKWY, STE 110",Lexington,KY
ASIAN WIND RESTAURANT,"3735 PALOMAR CTR. DR., STE 40",Lexington,KY
MAGEE'S BAKERY,724 -726 E MAIN ST,Lexington,KY
MINIT MART #668,3110 RICHMOND ROAD,Lexington,KY
FAZOLI'S #1658,4204 SARON DR.,Lexington,KY
WESTERN LITTLE LEAGUE @ CARDINAL RUN & WOLF RUN PA,PO BOX 4622,Lexington,KY
MINIT MART #670,1070 NEWTOWN PIKE,Lexington,KY
SUNSET STRIPS,410 W. VINE STREET,Lexington,KY
LEXINGTON FAST PITCH SOFTBALL, CONSTITUTION PARK,Lexington,KY
SOUTHEASTERN  BABE RUTH(13-15), VETERANS PARK - SARON DR,Lexington,KY
CHOP HOUSE,2640 RICHMOND RD,Lexington,KY
SOUTH LEXINGTON YOUTH BASEBALL (4-12),3500 SHILLITO PARK DRIVE,Lexington,KY
SPEEDWAY #9332,911 BEAUMONT CENTRE PRKY,Lexington,KY
MILK AND HONEY PRESCHOOL,2700 TODDS ROAD,Lexington,KY
SPEEDWAY #9334,2910 TATES CREEK RD,Lexington,KY
FAYETTE COUNTY PRESCHOOL,465 SPRINGHILL DRIVE,Lexington,KY
BURGER KING #8725,3348 CLAYS MILL RD,Lexington,KY
CIRCLE K #3212,1396 LEESTOWN ROAD,Lexington,KY
KING OF FOOD,"208 LEGENDS LANE, STE 105",Lexington,KY
TACO BELL #16531,4121 TATES CREEK ROAD,Lexington,KY
CHINA KING,1497 ALEXANDRIA DR.,Lexington,KY
RAMEN YA,1030 S BROADWAY  STE #2,Lexington,KY
CHILDREN'S TREEHOUSE OF KNOWLEDGE,309 OHIO STREET,Lexington,KY
SOUTHLAND PARK AQUATIC FAC., HILL-N-DALE DR,Lexington,KY
WOODLAND SWIMMING POOL, PARK AVENUE,Lexington,KY
CHRIST CHURCH CATHEDRAL,166 MARKET ST,Lexington,KY
TOT'S LANDING,2245 GULFSTREAM DRIVE,Lexington,KY
PREFERIDA SUPERMARKET,1801 ALEXANDRIA DR. # 172,Lexington,KY
DONATO'S,728 E. MAIN STREET,Lexington,KY
WAFFLE HOUSE #1055,3040 LAKECREST CIRCLE,Lexington,KY
FIRST CHOICE CHILD CARE CENTER,505 KINGSTON RD,Lexington,KY
PLATINUM PLUS,1101 EAST NEW CIRCLE ROAD,Lexington,KY
CURRY HOUSE,2220 NICHOLASVILLE RD,Lexington,KY
THE PRETZEL TWISTER,3401 NICHOLASVILLE RD K-2,Lexington,KY
KS BAR AND GRILLE,"1030 S BROADWAY, STE 1",Lexington,KY
CHINA KING,1650 BRYAN STATION RD #132,Lexington,KY
STANDING ROOM ONLY,123 W. SIXTH ST.,Lexington,KY
SONIC 3209,1026 S BROADWAY,Lexington,KY
COLES 735 MAIN,735 EAST MAIN ST,Lexington,KY
JALAPENO'S RESTAURANT,"1030 S. BROADWAY, SUITE 200",Lexington,KY
AG NORTH DELI,1100 S LIMESTONE ST.,Lexington,KY
LIQUOR BARN @ CORNER DELI,921 BEAUMONT CENTRE PKWY,Lexington,KY
AMC CLASSIC LEXINGTON 10,3151 MAPLELEAF DR.,Lexington,KY
SUBWAY,210 OLD MT. TABOR RD.,Lexington,KY
MCCARTHY'S IRISH BAR,117 S UPPER ST,Lexington,KY
CHEDDAR'S #2125,3604 WALDEN DRIVE,Lexington,KY
JY KITCHEN,1006 DELAWARE AVE,Lexington,KY
"CAFE ESTELLE, DBA, ESTELLE'S HEART",900 N BROADWAY,Lexington,KY
NORTHERN CAL RIPKIN,612 BRYANWOOD PKWY,Lexington,KY
SOUTHEASTERN CAL RIPKIN (-12) @VETERAN PARK,650 SOUTHPOINT DR,Lexington,KY
SUTTON'S RESTAURANT,110 N. LOCUST HILL,Lexington,KY
GYROZ MEDITERRANEAN,393 WALLER AVE #16,Lexington,KY
JASMINE RICE THAI RESTAURANT,911 WINCHESTER RD,Lexington,KY
DONATO'S PIZZA - BEAUMONT CTR.,3070 LAKECREST CIRCLE,Lexington,KY
BELLA NOTTE ITALIAN TRATTORIA,3715 NICHOLASVILLE RD,Lexington,KY
TOT'S LANDING,140 PROSPEROUS PLACE,Lexington,KY
MARIA'S KITCHEN #2,895 N.  BROADWAY,Lexington,KY
CHURCH OF THE GOOD SHEPHERD,533 E MAIN ST,Lexington,KY
KIDS 'R' KIDS,131 N. EAGLE CREEK,Lexington,KY
SUBWAY #18997,3061 FIELDSTONE WAY,Lexington,KY
MASALA INDIAN CUISINE,"3061 FIELDSTONE WAY, SUITE 600",Lexington,KY
BRU BURGER BAR,3010 LAKECREST CIRCLE,Lexington,KY
MCDONALD'S,1950 STANTON WAY,Lexington,KY
RONALD MCDONALD HOUSE,550 COOPER DRIVE,Lexington,KY
"SAGE RABBIT, THE",438 S ASHLAND AVE,Lexington,KY
SPEEDWAY #9395,2301 PARIS PIKE,Lexington,KY
SPEEDWAY #9398,3393 TATES CREEK RD,Lexington,KY
PENN STATION,"1080 S. BROADWAY, SUITE 101",Lexington,KY
MARY QUEEN HOLY ROSARY SCHOOL,605 HILL N DALE,Lexington,KY
QUINN CHAPEL CHILD CARE CENTER,744 CHARLES AVENUE,Lexington,KY
MANCINO'S,1590 -A LEESTOWN RD,Lexington,KY
BUFFALO WILD WINGS #15,1080 S BROADWAY,Lexington,KY
CLARK'S PUMP N SHOP #44,313 NW NEW CIRCLE RD,Lexington,KY
ROSA PARKS ELEMENTARY,1251 BEAUMONT CTR LN,Lexington,KY
LEXINGTON JUNIOR ACADEMY,968 LANE ALLEN RD,Lexington,KY
MARATHON FOOD MART,1840 BRYAN STATION ROAD,Lexington,KY
VETERANS PARK ELEMENTARY SCHOOL,4351 CLEARWATER WAY,Lexington,KY
TARGET STORE 1094,1940 PAVILLION WAY,Lexington,KY
"BEER TRAPPE, THE",811 EUCLID AVENUE,Lexington,KY
FIVE GUYS,2467 NICHOLASVILLE RD STE 120,Lexington,KY
JET'S PIZZA,4222 SARON DRIVE,Lexington,KY
KOREANA RESTAURANT,2360 WOODHILL DR  #120,Lexington,KY
FAZOLI'S #1785,1840 ALYSHEBA WAY,Lexington,KY
GOLDEN BUFFET,2907 RICHMOND RD,Lexington,KY
SPEEDWAY #9402,3151 TODDS RD,Lexington,KY
MINIT MART #663,4560 IRON WORKS PIKE,Lexington,KY
PENN STATION,2220 NICHOLASVILLE ROAD,Lexington,KY
LA GUADALUPANA,1533 EASTLAND PKWY. #8,Lexington,KY
MALONE'S - DRAKE'S,3347 TATES CREEK RD,Lexington,KY
PAPA JOHN'S #29,4250 SARON DR,Lexington,KY
TRADER JOE'S - STORE 627,2326 NICHOLASVILLE RD.,Lexington,KY
CHILI'S SOUTHWEST GRILL & BAR,2851 RICHMOND RD,Lexington,KY
MINIT MART #653,5521 ATHENS-BOONESBORO ROAD,Lexington,KY
WILLIAMS-SONOMA #310,FAYETTE MALL,Lexington,KY
T.G.I. FRIDAYS,1916 PAVILION WAY,Lexington,KY
OUR HOUSE @ THE PINNACLE CHILDCARE,4269 SARON DR.,Lexington,KY
WENDY'S,1907 PLAUDIT PLACE - #20,Lexington,KY
ATHENS SOFTBALL COMPLEX,5789 RICHMOND RD,Lexington,KY
MEIJER GREAT LAKES LP #161,2155 SIR BARTON WAY,Lexington,KY
MEIJER GREAT LAKES #161 - GAS,2145 SIR BARTON WAY,Lexington,KY
SCHLOTZSKY'S DELI,117 W TIVERTON WAY,Lexington,KY
FARM MARKET,1079 E NEW CIRCLE RD,Lexington,KY
STEAK 'N SHAKE,1832 ALYSHEBA WAY,Lexington,KY
AVON MART,5693 BRIAR HILL ROAD,Lexington,KY
MCDONALD'S,1921 PLAUDIT PLACE,Lexington,KY
RED LOBSTER #6379,1848 ALYSHEBA WAY,Lexington,KY
DONATO'S,3120 MAPLELEAF DRIVE,Lexington,KY
ORANGE LEAF (BRIGHTON),3090 HELMSDALE PL,Lexington,KY
RAMSEY'S,3090 HELMSDALE PLACE,Lexington,KY
BARNES & NOBLE BOOKSELLERS,1932 PAVILLION WAY,Lexington,KY
LONGHORN STEAK HOUSE #5187,2217 HARRODSBURG RD,Lexington,KY
THE BRECKINRIDGE,2109 CORNERSTONE DR,Lexington,KY
WALMART #2628,4051 NICHOLASVILLE RD,Lexington,KY
SUBWAY,2160 SIR BARTON WAY,Lexington,KY
KIDS R KIDS,3271 BEAUMONT CENTRE CIRCLE,Lexington,KY
OLD CHICAGO,1924 PAVILLION WAY,Lexington,KY
BEAUMONT BAR & GRILL,3070 LAKECREST CIRCLE # 625,Lexington,KY
COURTYARD LEXINGTON SOUTH/HAMBURG PL,1951 PLEASANT RIDGE DRIVE,Lexington,KY
DEPOT DELICATESSEN,"5751 BRIAR HILL ROAD, BLD 226",Lexington,KY
WAFFLE HOUSE # 2299,1134 WINCHESTER ROAD,Lexington,KY
HILTON GARDEN INN,1973 PLAUDIT PLACE,Lexington,KY
MINIT MART #676,905 S LIMESTONE ST,Lexington,KY
EMBASSY SUITES LEXINGTON,1801 NEWTOWN PIKE,Lexington,KY
AFTON COMMUNITY DAY,"3743 RED RIVER DRIVE, STE 1",Lexington,KY
DONATO'S PIZZA,265 NEW CIRCLE ROAD,Lexington,KY
SUPER MERCADA AQUASCALIENTES 1,1424 ALEXANDRIA,Lexington,KY
CIRCLE K #3211,3470 RICHMOND ROAD,Lexington,KY
"KIDS KARE, INC.",2094 HARRODSBURG ROAD,Lexington,KY
MCDONALD'S RESTAURANT #23458,1620 LEESTOWN ROAD,Lexington,KY
O'CHARLEY'S # 289,2099 HARRODSBURG ROAD,Lexington,KY
CHAO CAJUN #F-22,3473 NICHOLASVILLE RD,Lexington,KY
MINIT MART #667,4096 NICHOLS PARK DR,Lexington,KY
WAFFLE HOUSE # 1408,2740 RICHMOND RD,Lexington,KY
TACO BELL #20363,1935 PLAUDIT PLACE,Lexington,KY
ECO CAFE,975 E NEW CIRCLE ROAD,Lexington,KY
CHILI'S #600,108 MARKETPLACE DR,Lexington,KY
"LEXINGTON ROOSTERS, LLC",124 MARKETPLACE DRIVE,Lexington,KY
WAFFLE HOUSE #1334,1912 PLAUDIT PLACE,Lexington,KY
ZEN SUSHI,3070 LAKECREST CIRCLE #500,Lexington,KY
ARBY'S #6911,1949 PLAUDIT PLACE,Lexington,KY
GOOD FOODS MARKET & CAFE,455 D  SOUTHLAND DRIVE,Lexington,KY
PAPA JOHNS  # 18,265 AVENUE OF CHAMPIONS,Lexington,KY
LEXHANWOORI RESTAURANT,371 S. LIMESTONE,Lexington,KY
KENTUCKY INDOOR SOCCER & SPORTS,404 SPORTING CT,Lexington,KY
PAPA JOHN'S PIZZA #1449,"1610 LEESTOWN ROAD, SUITE 11",Lexington,KY
MINIT MART #673,2420 RICHMOND ROAD,Lexington,KY
DOMINO'S,3090 HELMSDALE #300,Lexington,KY
RAFFERTY'S,1865 ALYSHEBA WAY,Lexington,KY
THE KITCHEN @ A. S. EATS,"312 S ASHLAND AVE, STE 100",Lexington,KY
LITTLE CAESAR'S PIZZA,3601 B WALDEN DRIVE,Lexington,KY
WAFFLE HOUSE # 1375,3601 -A WALDEN DRIVE,Lexington,KY
SEASON'S CATERING & SPECIAL OCCASIONS,333 N ASHLAND AVE,Lexington,KY
RAMSEY'S,4391 OLD HARRODSBURG RD,Lexington,KY
LOGAN'S ROADHOUSE,1908 PAVILLION WAY,Lexington,KY
ST. PETER & PAUL SCHOOL,423 W  SHORT ST,Lexington,KY
LEXINGTON BEERWORKS,213 NORTH LIMESTONE,Lexington,KY
LA CABANA,1414 BRYAN AVE,Lexington,KY
LIBERTY RIDGE SENIOR LIVING,701 LIBERTY RIDGE LN,Lexington,KY
MEIJER #184,351 WEST REYNOLDS RD,Lexington,KY
CP FOOD MART,1161 CENTRE PARKWAY,Lexington,KY
DAIRY QUEEN #309,350 VIRGINIA AVE,Lexington,KY
C & J FOOD BAR,1230 EASTLAND PARKWAY,Lexington,KY
HAMBURG PAVILION STADIUM 16,1949 STARSHOOT ROAD,Lexington,KY
SANTE FE,2350 WOODHILL DR. #172,Lexington,KY
MCDONALD'S,100 MARKET PLACE  DR.,Lexington,KY
MEIJER GAS STATION #184,391 WEST REYNOLDS RD,Lexington,KY
SUBWAY 52863,4101 TATES CREEK CENTER DR. #160,Lexington,KY
WALMART #2783,500 NW NEW CIRCLE RD,Lexington,KY
MARTIN LUTHER KING ACADEMY,2200 LIBERTY RD,Lexington,KY
THE BRIDGE,342 ROMANY ROAD,Lexington,KY
DAIRY QUEEN,464 W NEW CIRCLE RD,Lexington,KY
TORTILLERIA RAMIREZ,1429 ALEXANDRIA DRIVE,Lexington,KY
PAZZO'S,385 S LIMESTONE,Lexington,KY
ARLINGTON CHRISTIAN CHURCH,1206 N  LIMESTONE ST,Lexington,KY
GREENTREE RESTAURANT,521 W  SHORT ST,Lexington,KY
"TIN ROOF, THE",303 SOUTH LIMESTONE,Lexington,KY
SAUL GOOD RESTAURANT & PUB,1808 ALYSHEBA WAY,Lexington,KY
DOMINO'S PIZZA  #180,524 WEST NEW CIRCLE RD,Lexington,KY
CHARLEY'S PHILLY STEAK,3401 NICHOLASVILLE ROAD  FC-1,Lexington,KY
GIOVANNI'S OF NEW CIRCLE,128 E. NEW CIRCLE RD,Lexington,KY
SIR PIZZA,463 WEST NEW CIRCLE ROAD,Lexington,KY
EL TORO RESTAURANT,1917 NICHOLASVILLE ROAD,Lexington,KY
HARTLAND HILLS,1005 TANBARK ROAD,Lexington,KY
HIGH STREET NEIGHBORHOOD CENTER,228 S LIMESTONE,Lexington,KY
MALONE'S,1920 PLEASANT RIDGE DR,Lexington,KY
MINIT MART #680,930 SOUTH BROADWAY,Lexington,KY
MCDONALD'S,768 WINCHESTER ROAD-SUITE 100,Lexington,KY
GATTI TOWN,2524 NICHOLASVILLE RD,Lexington,KY
GREEN'S CAFE,630 E NEW CIRCLE RD,Lexington,KY
KID'S CAFE, SHILOH BAPTIST CHURCH,Lexington,KY
SONIC 4301,234 E. NEW CIRCLE ROAD,Lexington,KY
REDI-MART/MARATHON,1970 PLEASANT RIDGE,Lexington,KY
KENTUCKY BASKETBALL ACADEMY,273 RUCCIO WAY,Lexington,KY
JIMMY JOHN'S,3130 MAPLELEAF DRIVE,Lexington,KY
BUFFALO WILD WINGS GRILL & BAR #49,3094 OLD TODDS RD.,Lexington,KY
PENN STATION,"3090 TODDS ROAD, SUITE 305",Lexington,KY
PEPE'S MEXICAN RESTAURANT,3280 EAGLE VIEW LANE,Lexington,KY
NORTH STAR ACADEMY,1816 BRYAN STATION ROAD,Lexington,KY
HALLIS SCHOOL,915 MURRAY DR. SUITE 342-351,Lexington,KY
CALVARY BAPTIST CHURCH,130 E. HIGH STREET,Lexington,KY
A CUP OF COMMON WEALTH,105 EASTERN AVE,Lexington,KY
"SAHARA MEDITERRANEAN GROUP, INC","3061 FIELDSTONE WAY, STE. 1200",Lexington,KY
SCAPA AT LAFAYETTE,400 LAFAYETTE AVE,Lexington,KY
GOLD STAR,1900 PLAUDIT PLACE,Lexington,KY
HOPE CENTER FOR WOMEN,1524 VERSAILLES ROAD,Lexington,KY
KENTUCKY ALE TAP ROOM,207 LEGENDS LANE,Lexington,KY
LOUIE'S  WINE DIVE/CHEVY CHASE KITCHEN,854 E HIGH STREET,Lexington,KY
TATES CREEK SOFTBALL BOOSTERS,1111 CENTRE PKWY,Lexington,KY
CATERING BY DONNA,1054 W HIGH ST,Lexington,KY
DUNBAR BASEBALL CONCESSION,1600 MAN-0-WAR,Lexington,KY
RAMSEY'S COMMISSARY,938 WINCHESTER ROAD,Lexington,KY
TOMO'S RESTAURANT,848 E. HIGH STREET,Lexington,KY
MEGAMINDS EDUCARE,679 LIMA DRIVE,Lexington,KY
DONATO'S PIZZA,"3851 KENESAW DRIVE, STE. A",Lexington,KY
QDOBA MEXICAN GRILL #2080,2630 RICHMOND ROAD,Lexington,KY
PENN STATION,1719 NORTH BROADWAY,Lexington,KY
COCKTAILS BAR & GRILL,3090 TODDS RD #150,Lexington,KY
SIDEBAR GRILL,147 NORTH LIMESTONE STREET,Lexington,KY
DOMINO'S PIZZA  #  1406,130 TIVERTON WAY-WEST,Lexington,KY
GOLDEN CORRAL,185 E NEW CIRCLE RD,Lexington,KY
OUTBACK STEAKHOUSE #1895,1957 BRYANT ROAD,Lexington,KY
"VILLAGE IDIOT, THE",307 W SHORT STREET,Lexington,KY
ST. JOSEPH HOSPITAL JAVA JOE'S,1 ST. JOSEPH DR.,Lexington,KY
"BAPTIST HEALTH LEXINGTON, EDUCATION CENTER",1720 NICHOLASVILLE,Lexington,KY
SUBWAY,175 E MAIN ST  STE #100,Lexington,KY
WEST COAST GOURMET PIZZA,2473 FORTUNE DR STE 100,Lexington,KY
KY FRIED CHICKEN-PIZZA HUT,1907 PLAUDIT PLACE #30,Lexington,KY
ALFALFA RESTAURANT,141 E. MAIN ST,Lexington,KY
CHICK-FIL-A @ TURFLAND MALL,2025 HARRODSBURG ROAD,Lexington,KY
J. RENDER'S SOUTHERN TABLE & BAR,3191 BEAUMONT CTR CIR STE 110,Lexington,KY
THE CAFE,800 ROSE ST RM 130,Lexington,KY
TATES CREEK HIGH SCHOOL (FTBALL),1111 CENTRE PARKWAY,Lexington,KY
CARRABBA'S ITALIAN GRILL #6802,1881 PLAUDIT PLACE,Lexington,KY
DUNBAR FOOTBALL CONCESSION,1600 MAN O'WAR BLVD.,Lexington,KY
CHRYSALIS COMMUNITY CENTER,1589 HILL  RISE DRIVE,Lexington,KY
#1 CHINA BUFFET,"125 E. REYNOLDS ROAD, STE. 120",Lexington,KY
SUBWAY STORE #27479,3851 KENESAW DRIVE-SUITE 120,Lexington,KY
BLUEGRASS COMMUNITY ACTION PARTNERSHIP,650 TOWER PLAZA,Lexington,KY
PIZZA HUT # 2969,"3094 RICHMOND ROAD, SUITE D-1",Lexington,KY
BLUEGRASS GIRLS FASTPITCH,2000 PARKERS MILL RD,Lexington,KY
EL MILAGRO DOS,1545 ALEXANDRIA DRIVE # 1,Lexington,KY
TEMPLE ADATH ISRAEL,124 N ASHLAND AVE,Lexington,KY
STARBUCKS COFFEE # 2608,325 W. MAIN STREET #130,Lexington,KY
BACKSTRETCH BAR & GRILL,1784 BRYAN STATION RD,Lexington,KY
EL HUARACHE,1316 RUSSELL CAVE RD.,Lexington,KY
KROGER L-737,1051 CHINOE RD,Lexington,KY
WAFFLE HOUSE # 1565,859 SOUTH BROADWAY,Lexington,KY
KIDS EMPOWERMENT LEARNING ACADEMY,1527 N LIMESTONE ST,Lexington,KY
GUMBO YA YA,1080 SOUTH BROADWAY # 107,Lexington,KY
PEKING CAFE,3181 BEAUMONT CTR.CIR. #104,Lexington,KY
ROMA PIZZERIA,"3377 BEAUMONT CENETRE CIRCLE, #160",Lexington,KY
NEW SUSHI EXPRESS,455-D SOUTHLAND DR.,Lexington,KY
BLUE REEF - SUSHI & GRILL,1080 S BROADWAY #201,Lexington,KY
HOMEWOOD SUITES-FOOD,249 RUCCIO WAY,Lexington,KY
GOURMET CAFE & CATERING,300 WEST VINE STREET # 200,Lexington,KY
QUEST COMMUNITY CHURCH COFFEE SHOP,410 SPORTING CT.,Lexington,KY
"DEVOTION ENTERPRISES, LLC",4085 HARRODSBURG ROAD,Lexington,KY
DUNBAR HIGH SCHOOL SOFTBALL,1600 MAN-O-WAR BLVD.,Lexington,KY
PIZZA HUT #2972,4240 SARON DR. #B,Lexington,KY
PHO BC,171 WEST LOWRY LANE STE 176,Lexington,KY
BOURBON N'  TOULOUSE,829 EUCLID AVENUE,Lexington,KY
CARINO'S #901,2333 SIR BARTON WAY,Lexington,KY
RESTAURANT AGUASCALIENTES,1400 ALEXANDRIA DRIVE # A,Lexington,KY
STARBUCKS #2687,808 E HIGH ST,Lexington,KY
TOTAL WINE,161 LEXINGTON GREEN CIRCLE  #A-2,Lexington,KY
SAL'S ITALIAN CHOPHOUSE,3373 TATES CREEK ROAD,Lexington,KY
FIRST UNITED METHODIST CHURCH,200 WEST HIGH STREET,Lexington,KY
WEST COAST GOURMET PIZZA,325 W MAIN ST. #140,Lexington,KY
JIN JIN CHINESE RESTAURANT,1060 CHINOE RD PLAZA #148,Lexington,KY
LE DEAUVILLE,199 NORTH LIMESTONE,Lexington,KY
DOODLES,262 NORTH LIMESTONE,Lexington,KY
COMMONWEALTH BAPTIST COLLEGE,3440 VERSAILLES ROAD,Lexington,KY
LEXINGTON DINER,124 NORTH UPPER,Lexington,KY
EDYTHE J HAYES MIDDLE SCHOOL,260 RICHARDSON PLACE,Lexington,KY
SECOND PRESBYTERIAN CHURCH,460 E. MAIN STREET,Lexington,KY
MARRIOTT RESIDENCE INN -FOOD,2688 PINK PIGEON WAY,Lexington,KY
"AFRICA & CARIBBEAN IMPORTS, LLC",1315 WINCHESTER RD STE 349 / 337 STORAGE,Lexington,KY
AFC SUSHI @ KROGER #347,4101 TATES CREEK RD,Lexington,KY
SILVER CUE BILLIARDS BAR/GRILL,694 NEW CIRCLE ROAD NE # 1,Lexington,KY
EL RANCHO TAPATIO TAQUERIA &,144 BURT ROAD,Lexington,KY
COUNTRY COOKIN' BY GEORGE,1801 ALEXANDRIA DR #192,Lexington,KY
DIVA'S,1318 RUSSELL CAVE RD.,Lexington,KY
TED'S MONTANA GRILL,2304 SIR BARTON WAY STE #170,Lexington,KY
CHICK-FIL-A,1863 PLAUDIT PLACE,Lexington,KY
MELLOW MUSHROOM,503 SOUTH UPPER STREET,Lexington,KY
AFC SUSHI @ KROGER #784,704 EUCLID,Lexington,KY
SOUL FRIED,"602 NORTH LIMESTONE, STE A",Lexington,KY
SOUTHERN ACRES CHRISTIAN,301 HARVARD DRIVE,Lexington,KY
THE AMERICAN LEGION POST # 8,1230 MAN-0-WAR PLACE,Lexington,KY
SUBWAY SOUTHLAND,360 SOUTHLAND DRIVE,Lexington,KY
TRINITY HILL CHILD CARE CENTER,210 E. REYNOLDS ROAD,Lexington,KY
CHIPOTLE MEXICAN GRILL OF CO,345 SOUTH LIMESTONE,Lexington,KY
CHINA STAR,196 N. MARTIN LUTHER KING,Lexington,KY
CENTER FOR CLINICAL & TRANSLATIONAL SCIENCE,800 ROSE ST. ROOM C-300,Lexington,KY
CHIPOTLE MEXICAN GRILL #572,2905 RICHMOND ROAD,Lexington,KY
SUBWAY,1070 CHINOE RD STE 140,Lexington,KY
GORDON FOOD SERVICE STORE,1856 PLAUDIT PLACE,Lexington,KY
"LA REINA MICHOACANA, LLC","185 PASADENA DRIVE, SUITE 150",Lexington,KY
MR KABAB,2901 RICHMOND RD #150,Lexington,KY
ALI BABA GROCERY STORE,412 SOUTHLAND DR,Lexington,KY
AUNTIE ANNE'S  PRETZELS,3401 NICHOLASVILLE ROAD  PK 55,Lexington,KY
ARCHITECTURAL KITCHENS & BATHS,345 LAFAYETTE AVE,Lexington,KY
SUBWAY,3320 PARTNER PLACE #108,Lexington,KY
CHINA KITCHEN,"3094 RICHMOND ROAD, SUITE 180",Lexington,KY
NUTRIMAX SMOOTHIES,3001 BLAKE JAMES DR.,Lexington,KY
COMFORT INN,5531 ATHENS-BOONESBORO ROAD,Lexington,KY
CHIPOTLE MEXICAN GRILL OF CO,1869 PLAUDIT PLACE #140,Lexington,KY
THIRD STREET STUFF COFFEE,257 N LIMESTONE ST,Lexington,KY
HAMPTON INN - LEXINGTON,3060 LAKECREST CIRCLE,Lexington,KY
STARBUCKS COFFEE #8734,1869 PLAUDIT PLACE STE 110,Lexington,KY
APPLEBEE'S NEIGHBORHOOD GRILL & BAR,1761 SHARKEY WAY,Lexington,KY
HYATT PREP KITCHEN,410 W VINE ST.,Lexington,KY
SHARKY'S,616 CARVER ROAD,Lexington,KY
STARBUCKS COFFEE #7931,2703 RICHMOND RD,Lexington,KY
TEKKA GRILL & SUSHI,2300 SIR BARTON WAY  #110,Lexington,KY
COMFORT SUITES,3060 FIELDSTONE WAY,Lexington,KY
LEXINGTON FAIRFIELD INN & SUITES,3050 LAKECREST CIRCLE,Lexington,KY
MINIT MART #664,109 TOWN CENTER DRIVE,Lexington,KY
SOLID ROC CAFE,3100 TATES CREEK RD.,Lexington,KY
PUCCINI'S PIZZA,833 CHEVY CHASE PLACE,Lexington,KY
STARBUCKS @ KY CLINIC,745 ROSE ST,Lexington,KY
DOUBLE H BBQ,1244 VERSAILLES RD,Lexington,KY
TALON WINERY PAVILLION,7086 TATES CREEK ROAD,Lexington,KY
"NEW SHANGHAI BISTRO, THE",4101 TATES CREEK CTRE #118,Lexington,KY
SUBWAY #17552 @ WAL-MART,500 W. NEW CIRCLE RD,Lexington,KY
BONEFISH GRILL #7851,2341 SIR BARTON WAY,Lexington,KY
TAJ INDIA INDIAN RESTAURANT,154 PATCHEN DR #68,Lexington,KY
AZUR,3070 LAKECREST CIR STE #550,Lexington,KY
EMERSON CENTER,2050 GARDEN SPRINGS DR,Lexington,KY
LIQUOR BARN,1837 PLAUDIT PLACE,Lexington,KY
SPRINGHILL SUITES LEXINGTON NEAR THE UNIVERSITY,863 S BROADWAY ST,Lexington,KY
SUBWAY #34835,630 E MAIN ST,Lexington,KY
CHRYSALIS HOUSE FAMILY PROGRAM,1588 HILL RISE DR,Lexington,KY
COLD STONE CREAMERY #1869,2337 SIR BARTON WAY,Lexington,KY
RANADA'S BISTRO & BAR,400 OLD VINE ST #108,Lexington,KY
SUBWAY #36137 @WAL-MART,4051 NICHOLASVILLE RD. STE 125,Lexington,KY
EL REY DE-LOS POLLOS & EL REY DE MARISCOS,1485-1 ALEXANDRIA DR.,Lexington,KY
CENTRAL BAPTIST CHURCH,110 WILSON DOWNING RD.,Lexington,KY
IRON CHEF,"3090 OLD TODDS ROAD, STE. #130",Lexington,KY
LITTLE CAESAR'S PIZZA,135 E NEW CIRCLE RD  #110,Lexington,KY
"CINEMARK USA, INC. (FAYETTE MALL)",3800 MALL ROAD,Lexington,KY
THAI STREET FOOD KITCHEN,"3340 CLAYS MILL RD., STE. 110",Lexington,KY
STARBUCKS COFFEE #10075,3809 DYLAN PLACE,Lexington,KY
SPEEDWAY #9397,1281 E NEW CIRCLE RD,Lexington,KY
HOMEWOOD SUITES,2033 BRYANT RD,Lexington,KY
JET'S PIZZA KY 10,"1030 S BROADWAY, #8",Lexington,KY
GRAND TAKO,340 E. NEW CIRCLE ROAD STE.100,Lexington,KY
WENDY'S,1760 SHARKEY WAY,Lexington,KY
COUNTRY INN & SUITES,2297 EXECUTIVE DRIVE,Lexington,KY
JUMP START ENRICHMENT PROGRAM,435 RACE STREET,Lexington,KY
LOGAN'S ROADHOUSE RESTAURANT,140 ROJAY DRIVE,Lexington,KY
"ORIGINAL BROOKLYN PIZZA, THE","3330 PARTNER PL., STE. 124",Lexington,KY
MANDARIN,"2220 NICHOLASVILLE, STE. 120",Lexington,KY
TACK HOUSE PUB,4401 OLD HARRODSBURG ROAD,Lexington,KY
STARBUCKS #9983,870 S. BROADWAY,Lexington,KY
FAYETTE REG. JUV. DET. CTR.,3475 SPURR ROAD,Lexington,KY
EDIBLE ARRANGEMENTS,"3101 RICHMOND ROAD, STE. 304",Lexington,KY
SUPER 8 MOTEL,2351 BUENA VISTA ROAD,Lexington,KY
"CELLAR BAR & GRILL, THE",3256 LANSDOWNE DR #50,Lexington,KY
GOODFELLA'S PIZZA,110 N MILL STREET,Lexington,KY
"ABC 123 LEARNING CENTER, LLC",285 E. SIXTH STREET,Lexington,KY
RICHIE'S RESTAURANT,325 ROOSEVELT BLVD.,Lexington,KY
WENDY'S,5365 ATHENS-BOONESBORO ROAD,Lexington,KY
LA TAQUISA,"130 W. TIVERTON WAY, #190",Lexington,KY
"LOCAL TACO, THE",315 S LIMESTONE,Lexington,KY
SIGNATURE GRILLE,3256 LANSDOWNE DRIVE,Lexington,KY
VIP EARLY LEARNING CENTER,"1392 TRENT BLVD., STE. 3 & 4",Lexington,KY
STARBUCKS COFFEE #10374,2700 WILHITE DRIVE,Lexington,KY
SUPER MERCADO AGUASCALIENTES #5,2220 NICHOLASVILLE RD. STE 156,Lexington,KY
CULVER'S RESTAURANT,360 MEIJER WAY,Lexington,KY
CULVER'S RESTAURANT,2161 PAUL JONES WAY,Lexington,KY
AYAME JAPANESE & GOURMET MARKET,"115 CODELL DRIVE, STE 120",Lexington,KY
SPALDINGS BAKERY,760 WINCHESTER ROAD,Lexington,KY
JEAN FARRIS WINERY,6825 OLD RICHMOND ROAD,Lexington,KY
DARAE & FRIENDS,"3459 BUCKHORN DR., #140",Lexington,KY
TACO BELL #23156,1768 SHARKEY WAY,Lexington,KY
P.F. CHANG'S CHINA BISTRO,3405 NICHOLASVILLE ROAD,Lexington,KY
LEE'S GARDEN,"680 LIMA DRIVE, #110",Lexington,KY
PANDA CUISINE,2358 NICHOLASVILLE ROAD #115,Lexington,KY
IHOP RESTAURANT,1505 E NEW CIRCLE ROAD,Lexington,KY
SUBWAY DELI,2358 NICHOLASVILLE ROAD,Lexington,KY
ONE WORLD ICE CREAM,399 WALLER AVENUE STE. 130,Lexington,KY
B.D.'S MONGOLIAN GRILL,2309 SIR BARTON WAY,Lexington,KY
STARBUCKS #10829,"3401 NICHOLASVILLE RD., PK11",Lexington,KY
"LEARNING EXPERIENCE, THE",2501 SANDERSVILLE ROAD,Lexington,KY
STARBUCKS COFFEE COMPANY #10689,"2320 VERSAILLES RD., STE. 100",Lexington,KY
STARBUCKS @ WT YOUNG LIBRARY,401 HILLTOP AVE,Lexington,KY
EL ESPALON MEXICAN RESTAUANT,"191 JEFFERSON STREET, 1ST FLOOR",Lexington,KY
SAM'S HOT DOGS STAND,105 N. LIMESTONE,Lexington,KY
KARE BEARS,"3155 CUSTER DRIVE, SUITE A",Lexington,KY
CHAMPS SKATE CENTER,297 RUCCIO WAY,Lexington,KY
ATHENS-CHILESBURG ELEMENTARY,900 CHILESBURG ROAD,Lexington,KY
PANERA BREAD #1176,3705 PALOMAR CENTRE DRIVE,Lexington,KY
BRACKTOWN BAPTIST CHURCH,3016 BRACKTOWN ROAD,Lexington,KY
BLUEGRASS TAVERN,115 CHEAPSIDE,Lexington,KY
ARBOR YOUTH SERVICES,536 W. THIRD STREET,Lexington,KY
MOE'S SOUTHWESTERN GRILL,"141 ROJAY DRIVE, STE. 120",Lexington,KY
"FRESH MARKET, THE",3387 TATES CREEK ROAD,Lexington,KY
COFFEA,383 ROSE STREET,Lexington,KY
WALMART MARKET #4413,4230 SARON DRIVE,Lexington,KY
EL CHARRO AUTHENTIC MEXICAN CUISINE,4371 OLD HARRODSBURG RD STE 180/190,Lexington,KY
SUPER MERCADA AQUASCALIENTES-4,2341 WOODHILL DRIVE,Lexington,KY
SMASHING TOMATO RESTAURANT,3801 MALL ROAD,Lexington,KY
MARCO'S PIZZA #1226,2348 NICHOLASVILLE RD STE. 120,Lexington,KY
RED BANG BANG SUSHI,"3801 MALL ROAD, STE. 135",Lexington,KY
WALMART  #3894,2350 GREY LAG WAY,Lexington,KY
SKY 22/AUNTIE ANN'S,"2350 GREY LAG WAY, #160",Lexington,KY
CARAMANDA'S BAKE SHOP,332 SOUTHLAND DRIVE,Lexington,KY
HOP CAT,410 W SHORT STREET,Lexington,KY
AFC SUSHI @ KROGER L-361,1808 ALEXANDRIA DRIVE,Lexington,KY
LEXINGTON SEAFOOD MARKET,867 E. HIGH STREET,Lexington,KY
CHICK-FIL-A AT RICHMOND RD & NEW CIRCLE,2299 RICHMOND ROAD,Lexington,KY
KIDZ KONNECTION CHILD CARE,"1020 INDUSTRY RD., STE. 26",Lexington,KY
YUMMI SUSHI,3387 TATES CREEK RD.,Lexington,KY
SAM SUSHI,"3090 HELMSDALE PLACE, STE. 265",Lexington,KY
JAMBA JUICE,"535 S. UPPER ST., STE. 125",Lexington,KY
PROUD MARY,9079 OLD RICHMOND ROAD,Lexington,KY
SAV'S GRILL,304 S LIMESTONE,Lexington,KY
"CREATIVE KIDS CHILD CARE, INC.",2385 HUGUENARD DRIVE,Lexington,KY
HAPPY CHINA,1301 WINCHESTER RD. #109,Lexington,KY
ZAXBY'S,1772 SHARKEY WAY,Lexington,KY
HOPE CENTER,250 LOUDON AVENUE,Lexington,KY
SONIC 5852,2633 RICHMOND ROAD,Lexington,KY
PRINCE HOOKAH,555 S LIMESTONE,Lexington,KY
RAISING CANE'S CHICKEN FINGERS,544 S. UPPER STREET,Lexington,KY
SUPER MERCADO AGUASCALIENTES,459 W. NEW CIRCLE RD,Lexington,KY
RAISING CANE'S CHICKEN FINGERS,2201 WAR ADMIRAL WAY,Lexington,KY
MOD SUPERFAST PIZZA,2217 WAR ADMIRAL WAY,Lexington,KY
"MESSNER HOME RESIDENTIAL CARE HOME,",708 HILL RISE COURT,Lexington,KY
CHEDDAR'S #2137,3094 HELMSDALE PL,Lexington,KY
STARBUCKS #14259,2320 ELKHORN ROAD,Lexington,KY
PEPPERS MEXICAN GRILL,4000 TERMINAL DR,Lexington,KY
SUSHI BLUE,"185 PASADENA DRIVE, #130",Lexington,KY
KROGER L-768,1600 LEESTOWN RD.  SUITE 150,Lexington,KY
AFC SUSHI @ KROGER #768,"1600 LEESTOWN ROAD, STE 150",Lexington,KY
HOLIDAY INN EXPRESS,1000 EXPORT ST.,Lexington,KY
FEED THE HUNGRY,811 BRYAN AVENUE,Lexington,KY
CREATIVE BEGINNINGS,2050 VERSAILLES RD. PEDS BLDG.,Lexington,KY
NEW BEGINNINGS EARLY LEARNING CENTER,585 W. MAIN ST.,Lexington,KY
SAUL GOOD RESTAURANT AND PUB,"3801 MALL ROAD, SUITE 120",Lexington,KY
THE BACKDOOR,6270 ATHENS WALNUT HILL RD.,Lexington,KY
MOLLY BROOKES IRISH BAR,109 N LIMESTONE ST,Lexington,KY
BAYMONT INN AND SUITES,2221 ELKHORN,Lexington,KY
PANADERIA TORREON,1930 OXFORD CIRCLE,Lexington,KY
KIDS UNLIMITED,1365 DEVONPORT DRIVE,Lexington,KY
ASHLAND AVE. BAPTIST CHURCH,483 W. REYNOLDS RD.,Lexington,KY
LITTLE CAESAR'S PIZZA,3805 DYLAN PLACE #110,Lexington,KY
LA CASA DE MAMA,1424 VERSAILLES RD,Lexington,KY
COMMON GROUNDS,4772 HARTLAND PARKWAY #128,Lexington,KY
"SMASHING TOMATO 2, LLC",2200 WAR ADMIRAL WAY,Lexington,KY
VINAIGRETTE SALAD KITCHEN,"2200 WAR ADMIRAL WAY, STE 195",Lexington,KY
LYLES BBQ COMPANY,3101 CLAYS MILL RD STE 301,Lexington,KY
CHICK-FIL-A,2514 NICHOLASVILLE RD,Lexington,KY
MALONE'S,3735 PALOMAR CENTRE DRIVE,Lexington,KY
EMBRACE UNITED METHODIST CHURCH,1015 N LIMESTONE ST.,Lexington,KY
HOLIDAY INN EXPRESS,1780 SHARKEY WAY,Lexington,KY
QDOBA MEXICAN GRILL #2524,3735 PALOMAR DR #65,Lexington,KY
SHANGHAI BISTRO,"2200 WAR ADMIRAL WAY, STE #170",Lexington,KY
PUCCINI'S,3801 DYLAN PL. STE 150,Lexington,KY
EL MARIACHI MEXICAN RESTAURANT,125 TOWNE CENTER DR STE 115,Lexington,KY
WILLIAM W BROWN ELEMENTARY,555 E. 5TH STREET,Lexington,KY
SANDERSVILLE ELEMENTARY SCHOOL,3025 SANDERSVILLE RD,Lexington,KY
WINE & MARKET,486 W. 2ND ST.,Lexington,KY
LIBERTY ELEMENTARY SCHOOL,2585 LIBERTY ROAD,Lexington,KY
COCINA EL SABOR JAROCHO,1414 VILLAGE DR.,Lexington,KY
ARCHANINE THAI KITCHEN,"162 TODDS ROAD, SUITE 110",Lexington,KY
NEWTOWN PIKE FOODMART,771 NEWTOWN PIKE,Lexington,KY
ZAXBY'S,531 W NEW CIRCLE RD,Lexington,KY
PRO SHAKES NUTRITION,340 E. NEW CIRCLE RD #130,Lexington,KY
ST. LUKE UNITED METHODIST CHURCH,2351 ALUMNI DRIVE,Lexington,KY
AFC SUSHI @ KROGER #767,3175 BEAUMONT CNTR CIRCLE,Lexington,KY
KROGER L-767,3175 BEAUMONT CENTRE CIRCLE,Lexington,KY
ZAXBY'S,104 SAND LAKE DR,Lexington,KY
SOUNDBAR,208 S LIMESTONE ST.,Lexington,KY
PARADIES SHOPS #9370,"4000 TERMINAL DR., STE 122",Lexington,KY
"S.E.C., THE",4379 OLD HARRODSBURG RD #110,Lexington,KY
FAIRFIELD INN & SUITES,2100 HACKNEY PLACE,Lexington,KY
LAS PRINCESAS,STATE MOBILE,Lexington,KY
CHILDCARE NETWORK #256,3650 BOSTON RD SUITE L-1,Lexington,KY
KIDS HOUSE CHILDCARE,1891 AUGUSTA DR,Lexington,KY
SKYBAR - LEXINGTON,269 W MAIN ST.,Lexington,KY
BURGER KING #17304,2548 RICHMOND ROAD,Lexington,KY
TINKER'S CAKE SHOP,317 WEST MAXWELL STREET,Lexington,KY
DUDLEY'S RESTAURANT,259 W SHORT ST,Lexington,KY
MONKEY JOE'S,1850 BRYANT ROAD,Lexington,KY
CENTRO AMERICANO,1426 VILLAGE DR,Lexington,KY
GIGI'S CUPCAKES,2703 RICHMOND RD STE 120,Lexington,KY
BIG CITY PIZZA,1060 CHINOE RD #128,Lexington,KY
LEXUS DEALERSHOP,1264 E. NEW CIRCLE RD,Lexington,KY
VINAIGRETTE SALAD KITCHEN,3735 PALOMAR CENTRE DR STE 180,Lexington,KY
MICROTEL INN,2240 BUENA VISTA DR,Lexington,KY
"SOUP KITCHEN, THE",376 SOUTHLAND DRIVE,Lexington,KY
APOTHECARY CAFE,789 S LIMESTONE,Lexington,KY
PAQUITOS ICE CREAM,1388 ALEXANDERIA DR STE 5,Lexington,KY
MR. GYROS (STATE MOBILE),442 RETRAC ROAD,Lexington,KY
BODEGA BY LEXINGTON PASTA,227 NORTH LIMESTONE,Lexington,KY
"PRESS JUICE BAR & CAFE, THE",191 KENTUCKY AVE.,Lexington,KY
COFFEE HOUSE DBA MINTON'S CAFE,760 N. LIMESTONE,Lexington,KY
MOVEABLE FEAST,474 SILVER MAPLE WAY,Lexington,KY
LEXINGTON RESIDENCE INN,3110 WALL STREET,Lexington,KY
"SWEET STOP, THE",3401 NICHOLASVILLE RD,Lexington,KY
"GIFT BOX &  TEA ROOM, THE",3330 PARTNER PLACE,Lexington,KY
MARCO'S PIZZA #1172,115 N LOCUST HILL DR. #117,Lexington,KY
WING ZONE,351 SOUTHLAND DR.,Lexington,KY
CHILDCARE NETWORK #258,1748 ALYSHEBA WAY,Lexington,KY
ORANGE LEAF - SELF SERVE FROZE,"152 WEST TIVERTON WAY, STE 170",Lexington,KY
EL GRAN TAKO #2,1801 ALEXANDRIA DR. # 156,Lexington,KY
SULLIVAN UNIVERSITY-LEX CAMPUS,2355 HARRODSBURG RD,Lexington,KY
DAD'S FAVORITES,"820 LANE ALLEN, STE 148",Lexington,KY
MAD MUSHROOM OF CLAYS MILL INC,3340 CLAYS MILL RD,Lexington,KY
MAIN STREET DELI,380 WEST MAIN,Lexington,KY
WING ZONE,580 EUREKA SPRINGS DR. #A,Lexington,KY
UNCLE'S SEVENS,628 DELZAN,Lexington,KY
DEJA VU,"485 NEW CIRCLE RD, NW",Lexington,KY
CREAUX,310 W SHORT ST,Lexington,KY
NICK RYAN'S,157 JEFFERSON STREET,Lexington,KY
HAPPY PANDA,117 TOWN CENTER DR,Lexington,KY
PANDA EXPRESS #2113,2433 NICHOLASVILLE RD,Lexington,KY
JIMMY JOHN'S,3735 PALOMAR CTR DR #20,Lexington,KY
TROPICAL SMOOTHIE CAFE',3181 BEAUMONT CTR. STE 112,Lexington,KY
CHOCOLATE HOLLER,"400 OLD VINE STREET, SUITE 104",Lexington,KY
FIRST PRESBYTERIAN CHURCH,171 MARKET ST,Lexington,KY
NAT'S,111 S UPPER ST,Lexington,KY
EXPRESS 34,430 W VINE ST.,Lexington,KY
OLE' HOOKERS BAR,205 S LIMESTONE ST.,Lexington,KY
SCHOOL RESTAURANT,163 W SHORT STREET,Lexington,KY
CASUAL PINT,233 E MAIN STREET,Lexington,KY
KITCHEN ON HIGH,1226 VERSAILLES RD,Lexington,KY
LA PRINCESA SUPER MARCADO,1430 VILLAGE DR,Lexington,KY
AFC SUSHI @ KROGER #737,1060 CHINOE RD.,Lexington,KY
TOLLY HO RESTAURANT,606 S BROADWAY,Lexington,KY
WONG WONG RESTAURANT,458 SOUTHLAND DR,Lexington,KY
"CRUST, SMASHING TOMATO 3, LLC, DBA",2573 RICHMOND RD STE 170,Lexington,KY
JET'S PIZZA,"3901 HARRODSBURG RD., STE 120",Lexington,KY
MINI MOVERS LEARNING CENTER,338 BLACKBURN AVE.,Lexington,KY
HAMPTON INN,2251 ELKHORN RD.,Lexington,KY
GUESTHOUSE INN & SUITES,2261 ELKHORN ROAD,Lexington,KY
"WILD THYME, LLC",1060 CHINOE RD. SUITE 108,Lexington,KY
WELLINGTON ELEMENTARY SCHOOL,3280 KEITHSHIRE DRIVE,Lexington,KY
AFC SUSHI @ KROGER L-359,1650 BRYAN STATION ROAD,Lexington,KY
PARLAY SOCIAL,249 W SHORT ST. #101,Lexington,KY
FIREHOUSE SUBS,1781 SHARKEY WAY,Lexington,KY
ATHENIAN GRILL,"115 N. LOCUST HILL DR, SUITE 109",Lexington,KY
VINAIGRETTE SALAD KITCHEN,1781 SHARKEY WAY #130,Lexington,KY
"COUNTRY BOY BREWING, LLC",436 CHAIR AVE,Lexington,KY
JIMMY JOHN'S,2535 NICHOLASVILLE STE #130,Lexington,KY
SAV'S CHILL,289 S LIMESTONE ST,Lexington,KY
BABYCAKES CUPCAKES,1616 LIBERTY ROAD,Lexington,KY
MORNING POINTE OF LEXINGTON,233 RUCCIO WAY,Lexington,KY
APIARY CATERING & EVENTS,218 W JEFFERSON ST,Lexington,KY
RICHMOND PLACE REHABILITATION  AND HEALTH,2770 PALUMBO DRIVE,Lexington,KY
"CHEN OSAKA , INC","3805 DYLAN PLACE, STE 130",Lexington,KY
THOROUGHBRED CLUB OF AMERICA,3555 RICE ROAD,Lexington,KY
BLUE DOOR SMOKEHOUSE,226 WALTON AVE,Lexington,KY
MC ALISTER'S DELI,836 EUCLID AVE #105,Lexington,KY
GRAETER'S ICE CREAM,836 EUCLID AVE,Lexington,KY
BRYAN STATION BASEBALL BOOSTER CONCESSION,201 EASTIN DR,Lexington,KY
WEST SIXTH COMPANY,"501 W SIXTH STREET, STE 100",Lexington,KY
FIVE GUYS BURGERS & FRIES,3090 HELMSDALE PLACE STE. 370,Lexington,KY
LEXINGTON COURTYARD,3100 WALL STREET,Lexington,KY
PAPA MURPHY'S,1890 STAR SHOOT PKWY,Lexington,KY
KENTUCKY ALE TAP ROOM,4000 TERMINAL DR.,Lexington,KY
"WEEKLY JUICERY, THE",436 OLD VINE STREET,Lexington,KY
SHAKESPEARE AND CO DOWNTOWN LEX LLC,367 W SHORT ST,Lexington,KY
LAFAYETTE HS SOFTBALL CONCESSION,401 REED LANE,Lexington,KY
JACOBS CAFETERIA (HOPE CENTER),299 W LOUDON AVE,Lexington,KY
HENRY CLAYS PUBLIC HOUSE,112 N UPPER ST.,Lexington,KY
DRAGON BALL ICE CREAM,3401 NICHOLASVILLE RD. SUITE 311,Lexington,KY
SWEET TOOTH FAIRY STATE MOBILE,634 EDEN ROAD,Lexington,KY
FAMILY CARE CENTER (LFUCG),1135 HARRY SYKES WAY,Lexington,KY
CITY BBQ,3292 RICHMOND RD.,Lexington,KY
BRYAN STATION FOOTBALL CONCESSION,201 EASTIN RD.,Lexington,KY
TEXAS ROADHOUSE,3030 LAKECREST CIRCLE,Lexington,KY
BLUE DEVILS FOOTBALL BOOSTERS,2100 FONTAINE RD.,Lexington,KY
CHILD DEVELOPMENT CENTER OF THE BLUEGRASS,290 ALUMNI DR.,Lexington,KY
FIRST WATCH,3071 RICHMOND RD.,Lexington,KY
NORTH LIME COFFEE AND DONUTS,575 N LIMESTONE,Lexington,KY
"WILLOWS AT HAMBURG, THE",2531 OLD ROSE BUD RD.,Lexington,KY
ARCADIUM,574 N LIMESTONE,Lexington,KY
"BLUE HERON, THE",185 JEFFERSON ST.,Lexington,KY
BASKIN ROBBINS,3061 FIELDSTONE WAY #1400,Lexington,KY
MEMORIAL COLISEUM WEST,201 AVENUE OF CHAMPIONS,Lexington,KY
"CHILL SPOT LOUNGE, THE","680 LIMA DR, STE 150-160",Lexington,KY
BURGERFI,"141 ROJAY DR, STE 110",Lexington,KY
GUCKENHEIMER TEMPURPEDIC,1000 TEMPUR WAY,Lexington,KY
BRICK OVEN PIZZERIA,4371 OLD HARRODSBURG RD #160,Lexington,KY
NAPA PRIME,319 CEDAR ST,Lexington,KY
COWBOY BRAZILIAN STEAK HOUSE,2041 RICHMOND RD,Lexington,KY
SLEEP INN,1920 PLAUDIT PLACE,Lexington,KY
LOCO TACO,1764 COSTIGAN DR,Lexington,KY
HEAVENLY HAM,"171 W LOWRY LANE, SUITE 180",Lexington,KY
"WILLOWS AT HAMBURG, THE (LEGACY)",2531 OLD ROSEBUD RD.,Lexington,KY
COUNTY CLUB,555 JEFFERSON ST.,Lexington,KY
GRAETER'S ICE CREAM,1925 JUSTICE DR. SUITE 180,Lexington,KY
MI MEXICO RESTAURANT,818 E NEW CIRCLE RD.,Lexington,KY
KY HORSE PARK ALLTECH #5,4089 IRONWORKS PIKE,Lexington,KY
CAFE PADDOCK / KY HORSE PARK,4089 IRONWORKS PKWY,Lexington,KY
GRAZE,207 S LIMESTONE,Lexington,KY
CLAWDADDY'S,128 N BROADWAY,Lexington,KY
TASTE OF INDIA,2467 NICHOLASVILLE RD,Lexington,KY
MORNING POINTE,150 SHORE SIDE DR,Lexington,KY
GOLD STAR CHILI,3735 PALOMAR CENTER DR STE 10,Lexington,KY
THE BAR @ BLUE STALLION,610 W THIRD ST,Lexington,KY
LATIN LEX LOUNGE,1439 ALEXANDRIA DR,Lexington,KY
SMITHTOWN SEAFOOD,501 W SIXTH ST SUITE 110,Lexington,KY
LYLES BBQ COMPANY,3401 NICHOLASVILLE RD. FC-03,Lexington,KY
SMART BEEZ LEARNING CENTER,435 SOUTHLAND,Lexington,KY
FIRST WATCH SIMPSON CENTER,"1080 S BROADWAY, STE 301",Lexington,KY
SAUL GOOD RESTAURANT / PUB #3,123 N BROADWAY,Lexington,KY
GINGER WASABI SUSHI & GRILL,103 W MAXWELL ST,Lexington,KY
"NEW CREATION CHILDCARE, LLC",1037 INDUSTRY ROAD,Lexington,KY
EDUCATE CAFE,251 SCOTT STREET,Lexington,KY
CENTRAL KY RECOVERY CNTR -  #2,1366 BULL LEA LANE,Lexington,KY
CENTRAL KY RECOVERY CNTR BLDG #1,1358 BULL LEA LANE,Lexington,KY
EASTERN STATE HOSPITAL - KITCHEN,1350 BULL LEA LANE,Lexington,KY
J. RENDER'S BBQ STATE MOBILE,1141 HAVERFORD WAY,Lexington,KY
JIMMY JOHN'S, EUCLID AVE. 6,Lexington,KY
KARE BEARS,1697 PEABODY WAY,Lexington,KY
LEXMARK CENTER FOR CHILDREN,500 PARK PLACE,Lexington,KY
COSTCO WHOLESALE #1156,1500 FITZGERALD CT.,Lexington,KY
"GRASSROOTS PHARMACY, PLLC",2304 SIR BARTON WAY SUITE 195,Lexington,KY
MISSY'S PIE SHOP,502 EAST HIGH ST,Lexington,KY
BELLE'S BAR,156 MARKET STREET,Lexington,KY
"LANTERN AT MORNING POINTE OF LEXINGTON, THE",225 RUCCIO WAY,Lexington,KY
CENTERED CAFE,309 N ASHLAND AVE SUITE 180,Lexington,KY
FRISCH'S RESTAURANT,1849 ALYSHEBA WAY,Lexington,KY
"NEST, THE",530 NORTH LIMESTONE,Lexington,KY
CHERRY SEED COFFEE HOUSE,472 SOUTHLAND DR,Lexington,KY
"SWEET SPOT, THE",126 N BROADWAY,Lexington,KY
JALAPENO'S,3130 MAPLE LEAF DR SUITE 160,Lexington,KY
BAPTIST HEALTH LEXINGTON CHILD DEVELOPMENT CENTER,110 SOUTHLAND DR,Lexington,KY
RAMSEY'S RESTAURANT,151 W ZANDALE DR STE 100,Lexington,KY
ROLLING OVEN STATEWIDE MOBILE UNIT,944 TURKEY FOOT RD,Lexington,KY
WILD EGGS,3537 PALOMAR CENTRE DR,Lexington,KY
BLUE SKILLET,213 E SEVENTH ST,Lexington,KY
OUR MAGIC YEARS CHILDCARE,1016-1020 N LIMESTONE ST,Lexington,KY
GLUTEN FREE MIRACLES,145 BURT RD #20,Lexington,KY
JET'S PIZZA,101 SAND LAKE DR STE 110,Lexington,KY
VIBURNUM VALLEY FARM CONFECTIONS,2150 GEORGETOWN RD,Lexington,KY
HIBACHI EXPRESS,565 S LIMESTONE,Lexington,KY
WILLOWS AT CITATION,1376 SILVER SPRINGS DR,Lexington,KY
FIRST WATCH RESTAURANT,2251 WAR ADMIRAL WAY STE 130,Lexington,KY
PHO SAIGON,1555 E NEW CIRCLE RD #162,Lexington,KY
TINCAN COFFEE ROASTERS, STATE WIDE MOBILE,Lexington,KY
"A&W BURGERS, CHICKEN & FLOATS",2251 WAR ADMIRAL WAY STE 110,Lexington,KY
HORSEPARK BP,4538 GEORGETOWN RD,Lexington,KY
PLEASANT MEADOW ASSISTED LIVING,2141 EXECUTIVE DR,Lexington,KY
PINOT'S PALETTE,3851 MALL RD #110,Lexington,KY
EIFFEL PIZZA,3449 BUCKHORN DR STE B,Lexington,KY
SALSARITA'S LEXINGTON,"2380 NORMAN LANE, STE K10",Lexington,KY
DICKEY'S BBQ PIT,"1315 WINCHESTER RD., SUITE 325",Lexington,KY
KAEDE MARKET,"4371 OLD HARRODSBURG RD, STE 105",Lexington,KY
FIREHOUSE SUBS,"101 SAND LAKE DR, SUITE 150",Lexington,KY
SUBWAY - SOUTH PAVILION,"3851 MALL RD, STE 140",Lexington,KY
CHINO'S DADA,2396 WOODHILL DR,Lexington,KY
CONFUSED CONFECTIONS,113 CLAY AVE,Lexington,KY
MCDONALD'S RESTAURANT #36629,2359 RICHMOND RD,Lexington,KY
CHASE TAP ROOM,266 JEFFERSON ST,Lexington,KY
"KIDZ CLUB, THE",2200 REGENCY RD,Lexington,KY
"NATHANIEL MISSIONARY SOCIETY,INC",1109 VERSAILLES ROAD,Lexington,KY
SUPER MARIO'S ICE CREAM,340 E NEW CIRCLE RD #180,Lexington,KY
KENTUCKY NATIVE CAFE,417 E MAXWELL STREET,Lexington,KY
"CHEESECAKE FACTORY, THE",3545 NICHOLASVILLE RD,Lexington,KY
PUCCINI'S,"3090 HELMSDALE PLACE, STE 260",Lexington,KY
RISING ROLL,506 ADMINISTRATION DR,Lexington,KY
KLAIR II,318 HILLTOP AVENUE,Lexington,KY
EINSTEIN'S BAGELS,505 ROSE ST,Lexington,KY
SUBWAY - MI KING,179 FUNKHOUSER DR,Lexington,KY
EMPYREAL ARTISAN ALES,1224 MANCHESTER ST,Lexington,KY
MCDONALD'S,2012 HARRODSBURG RD,Lexington,KY
KLAIR II COMMISSARY,318 HILLTOP AVE,Lexington,KY
ASIAN BISTRO,4224 SARON DR,Lexington,KY
GREEK ORTHODOX CHURCH,3001 TATES CREEK RD,Lexington,KY
NEWK'S EATERY,"2369 RICHMOND RD, #110",Lexington,KY
MAD MUSHROOM OF UK,561 S BROADWAY STE 135,Lexington,KY
CITY BARBEQUE,2187 HARRODSBURG RD,Lexington,KY
A&W BURGERS-CHICKEN-FLOATS,114 TOWNE CENTER DR,Lexington,KY
COMFORT INN & SUITES,2400 BUENA VISTA RD,Lexington,KY
ACTIVE DAY OF LEXINGTON,191 W LOWRY LANE,Lexington,KY
DOMINO'S PIZZA #1405,3120 PIMLICO PARKWAY #116,Lexington,KY
CHIPOTLE MEXICAN GRILL #2429,"3565 NICHOLASVILLE RD, STE 935",Lexington,KY
PIES AND PINTS,401 W MAIN ST. SUITE 106,Lexington,KY
WINBURN CAFE,1100 WINBURN DR,Lexington,KY
"BREAK ROOM, THE",1178 MANCHESTER STREET,Lexington,KY
BURGER KING #20867,730 LANE ALLEN RD.,Lexington,KY
WILD EGGS,1925 JUSTICE DR,Lexington,KY
UK - EARLY CHILDHOOD LABORATORY,621 SOUTH LIMESTONE,Lexington,KY
LITTLE BEGINNERS CHILD DEVELOPMENT CENTER,474 STONE RD,Lexington,KY
"CINCO DE MAYO OF LEXINGTON 2, INC","3031 RICHMOND RD., STE 120",Lexington,KY
STAYBRIDGE SUITES LEXINGTON,125 LOUIE PLACE,Lexington,KY
LITTLE CAESAR'S,3031 RICHMOND RD #110,Lexington,KY
EL ANTOJITO,565 E NEW CIRCLE RD. STE #5,Lexington,KY
EL SABROSO,1445 VILLAGE DR,Lexington,KY
"HIGH ON ART & COFFEE, LLC",523 E. HIGH ST,Lexington,KY
TONY'S STEAKS AND SEAFOOD OF LEXINGTON,401 WEST MAIN ST. #102,Lexington,KY
BRUSTER'S REAL ICE CREAM,220 RUCCIO WAY SUITE 190,Lexington,KY
HOME 2 SUITES,126 EAST LOWRY LANE,Lexington,KY
LAQUINTA INN & SUITES,100 CANEBRAKE DRIVE,Lexington,KY
STAGGER INN,269 W MAIN ST,Lexington,KY
BAR LOUIE,"3565 NICHOLASVILLE RD, SUITE 932",Lexington,KY
TOWNE PLACE SUITES BY MARRIOTT LEXINGTON,1790 VENDOR WAY,Lexington,KY
ATHENIAN GRILL - KROGER AT EUCLID,704 E EUCLID,Lexington,KY
EASTLAND PARK CHURCH OF THE NAZARENE,1605 JENNIFER RD,Lexington,KY
"ROASTERY, THE",529 W MAIN ST.,Lexington,KY
LA MICHOACANA DE LEXINGTON,1801 ALEXANDRIA DR STE 164,Lexington,KY
VINAIGRETTE SALAD KITCHEN,113 N BROADWAY,Lexington,KY
GIRLSGIRLSGIRLS BURRITOS,395 S LIMESTONE,Lexington,KY
RICK'S COMMISSARY STATE MOBILE,355 GAWAINE DR,Lexington,KY
JIMMY JOHN'S,130 W TIVERTON ST #115,Lexington,KY
HOLIDAY INN EXPRESS & SUITES,2255 BUENA VISTA RD,Lexington,KY
GRAND RESERVE,903 MANCHESTER ST #190,Lexington,KY
CRANK & BOOM ICE CREAM LOUNGE,1210 MANCHESTER ST.,Lexington,KY
"COURTYARD DELI, THE",351 CHURCH ST,Lexington,KY
PANADERIA AGUASCALIENTES (BAKERY),1400 ALEXANDRIA DR,Lexington,KY
EL MANGO NIEVERIA & SNACKS,1414 VILLAGE DR,Lexington,KY
MIDDLE FORK KITCHEN BAR,1224 MANCHESTER ST SUITE 110,Lexington,KY
PASTA GARAGE,962 DELAWARE AVE,Lexington,KY
BUDDHA LOUNGE,109 N MILL ST. #150,Lexington,KY
MISTER SOFTEE STATE MOBILE,1063 REDWOOD DRIVE,Lexington,KY
PANERA BREAD #7015,"120 E MAIN STREET, SUITE 105",Lexington,KY
FAILTE IRISH IMPORTS,113 S UPPER ST,Lexington,KY
BROOMWAGON,800/802 N LIMESTONE,Lexington,KY
"CHRYSALIS HOUSE, INC",1374 BULL LEA LANE,Lexington,KY
LOCALS,701 NATIONAL AVE.,Lexington,KY
NEPMART GROCERY,2350 WOODHILL DR STE  168,Lexington,KY
WILD FIG BOOKS & COFFEE,726 N LIMESTONE,Lexington,KY
ZAXBY'S,435 REDDING RD,Lexington,KY
TACO BELL,400 HILLTOP,Lexington,KY
FRESH FOOD COMPANY,400 HILLTOP AVE,Lexington,KY
CORTO LIMA,101 W SHORT ST.,Lexington,KY
PIE FIVE,3401 NICHOLASVILLE RD STE F-616,Lexington,KY
SORELLA GELATERIA,219 N LIMESTONE,Lexington,KY
HEALTHY WAY LEX,460 SOUTHLAND DR,Lexington,KY
PROVIDENCE MONTESSORI SCHOOL,1209 TEXACO ROAD,Lexington,KY
HONNAH-LEE BUBBLE TEA,1983 HARRODSBURG,Lexington,KY
THE LOGE,1540 UNIVERSITY AVE,Lexington,KY
BLUEGRASS CATERING,"903 MANCHESTER ST., SUITE110",Lexington,KY
PAPA MURPHY'S,"3165 BEAUMONT CENTER CIRLE, SUITE 160",Lexington,KY
PANERA BREAD #1018,2230 NICHOLASVILLE RD,Lexington,KY
QUALITY INN,2381 BUENA VISTA RD,Lexington,KY
POPEYES LOUISIANA KITCHEN,115 E NEW CIRCLE RD,Lexington,KY
21C LEXINGTON MASTER TENANT,167 W MAIN STREET,Lexington,KY
BEAUMONT FOODMART,961 MIDNIGHT PASS,Lexington,KY
JERSEY MIKES SUBS,"867 S BROADWAY, SUITE 120",Lexington,KY
D'S CAFE,1818 BRYAN STATION RD,Lexington,KY
NICE N PAN,547 SOUTH LIMESTONE,Lexington,KY
TANDOOR EXPRESS LLC,630 EUCLID AVE STE 150,Lexington,KY
ROCK HOUSE BREWING,119 LUIGART CT,Lexington,KY
PIE FIVE,867 SOUTH BROADWAY STE 130,Lexington,KY
Z MARKET #1,1150 VERSAILLES RD,Lexington,KY
CABELA'S,1510 CONSERVATION WAY,Lexington,KY
"LIGHTHOUSE MINISTRIES, THE",190 SPRUCE ST,Lexington,KY
STIR KRAZY,"373 VIRGINIA AVE., #130",Lexington,KY
"LEMON TREE, THE",135 GRAHAM AVENUE,Lexington,KY
HAMPTON INN,1953 NICHOLASVILLE ROAD,Lexington,KY
"COMMUNITY MONTESSORI SCHOOL, INC.",725 STONE ROAD,Lexington,KY
COLD STONE CREAMERY,3801 MALL RD SUITE 110,Lexington,KY
TAZIKIS MEDITERRANEAN CAFE,117 SOUTHLAND DR,Lexington,KY
KENTUCKY BLENDED NUTRITION,128 BURT RD,Lexington,KY
WEST SIXTH BREWING,109 W MAIN ST,Lexington,KY
RICK & SON HOT DOGS (ST PUSHCART),171 WOODLAND AVE,Lexington,KY
RAISING CANE'S,2030 HARRODSBURG RD,Lexington,KY
PANCHITOS ICE CREAM #2,481 W NEW CIRCLE RD STE 155,Lexington,KY
TUK TUK SRI LANKAN BITES COMMISSARY,C/O WILD THYME,Lexington,KY
"WINERY OF CM, THE","3401 NICHOLASVILLE RD, STE 303",Lexington,KY
MAGNOLIA SPRINGS LEXINGTON,2701 MAGNOLIA SPRINGS DRIVE,Lexington,KY
UK HEALTHCARE FACILITY KITCHEN,1000 SOUTH LIMESTONE,Lexington,KY
UK HEALTHCARE FACILITY CAFETERIA,1000 S LIMESTONE,Lexington,KY
JIMMY JOHN'S,397 WALLER AVE.,Lexington,KY
BJ'S RESTAURANT & BREWHOUSE,3297 NICHOLASVILLE RD,Lexington,KY
DV8,"867 S BROADWAY, SUITE #140",Lexington,KY
STARBUCKS COFFEE #27458,685 WILSON DOWNING RD,Lexington,KY
GO GO BURGER (STATE MOBILE),3805 BROOKDALE CIRCLE,Lexington,KY
TAQUERIA EL BUEN SABOR STATE MOBILE,909 SUMMERVILLE DR,Lexington,KY
SHILLITO POOL CONCESSION STAND,300 E. REYNOLDS RD,Lexington,KY
PIVOT BREWING COMPANY,1400 DELAWARE AVE,Lexington,KY
"NORTH SIDE COFFEE AND DOUGHNUTS, LLC",104 W SIXTH ST,Lexington,KY
TAQUERIA PEDRO Y VIKI MOBILE,56 QUEEN AVE,Lexington,KY
THE BURL,375 THOMPSON RD,Lexington,KY
BRIOCHE DOREE,550 S. LIMESTONE,Lexington,KY
STEAK N SHAKE,111 AVE OF CHAMPIONS,Lexington,KY
FRESHII,680 ROSE ST,Lexington,KY
GARRETT MORGAN ELEMENTARY,1150 PASSAGE MOUND WAY,Lexington,KY
COVENTRY OAK ELEMENTARY,2441 HUNTLY,Lexington,KY
HAPPY SUSHI,130 W TIVERTON WAY #175,Lexington,KY
"WEEKLY JUICERY, THE",3735 PALOMAR CENTRE DR STE 230,Lexington,KY
MAI THAI RESTAURANT,304 SOUTHLAND DR,Lexington,KY
MIRROR TWIN BREWING CO,725 NATIONAL AVE,Lexington,KY
LUNA STATE MOBILE,1884 BOWEN CT,Lexington,KY
LEXINGTON SENIOR CITIZENS CENTER,795 LIFE LANE,Lexington,KY
SUPERMERCADO LAS NORTENAS,158 E NEW CIRCLE RD,Lexington,KY
"SKYLINE BP, LLC",1065 NEWTOWN PIKE,Lexington,KY
SHAKESPEARE AND CO.,1908 BRYANT RD,Lexington,KY
MIYAKO POKE BOWL,867 S BROADWAY STE 110,Lexington,KY
CREATION KINGDOM,2935 TRAILWOOD LANE,Lexington,KY
RODEWAY INN,750 NEWTOWN CT.,Lexington,KY
EL MALECON RESTAURANT,481 W NEW CIRCLE RD STE 170,Lexington,KY
NOTHING BUNDT CAKES,2358 NICHOLASVILLE RD STE 145,Lexington,KY
MR. ED'S DELI,937 WINCHESTER RD,Lexington,KY
MR. KRABS & BEAN'S B.B.Q.,417 GEORGETOWN ST. STE 130,Lexington,KY
GOODFELLAS PIZZERIA,1228 MANCHESTER STREET #110,Lexington,KY
J2C ASIAN BISTRO,561 S BROADWAY SUITE #140,Lexington,KY
ZAXBY'S,1115 SOUTH BROADWAY,Lexington,KY
GRILLIN'  MD INC.     (STATE MOBILE),1116 WELDON CT.,Lexington,KY
CARSON'S FOOD & DRINK,362 E MAIN STREET,Lexington,KY
"RED LIGHT, THE",780 N LIMESTONE STREET,Lexington,KY
TACOS JUQUILITA STATE MOBILE,1043 CROSS KEYS DR #3,Lexington,KY
TANDOOR INDIAN,"3146 MAPLE LEAF DR, STE 110",Lexington,KY
MEADOWTHORPE ASSISTED LIVING,171 LEESTOWN CENTER WAY,Lexington,KY
METROPOLITAN DONUTS & COFFEE,3070 LAKECREST CIRCLE #600,Lexington,KY
"WILLOWS, THE @ FRITZ FARM",2710 MAN O WAR BLVD,Lexington,KY
DOODLES BREAKFAST AND LUNCH STATE MOBILE,262 N LIMESTONE,Lexington,KY
FREDDY'S FROZEN CUSTARD,2500 POLO CLUB BLVD,Lexington,KY
J. ALEXANDERS @ LEXINGTON,4081 FINN WAY,Lexington,KY
BAR ONA,108 CHURCH ST,Lexington,KY
LA PETITE DELICAT,722 NATIONAL AVENUE,Lexington,KY
DOMINO'S 1359,"125 TOWNE CENTER DR, STE 127",Lexington,KY
BARREL HOUSE DISTILLING CO,1200 MANCHESTER ST,Lexington,KY
STARBUCKS,4049 FINN WAY,Lexington,KY
VALVOLINE - AVI,3499 BLAZER PARKWAY,Lexington,KY
HOGFATHERS BBQ (STATE MOBILE),556 DUCHESS CT,Lexington,KY
SHAKE SHACK,115 SUMMIT @ FRITZ FARM SUITE 110,Lexington,KY
HIGHGROVE AT TATES CREEK,4251 SARON DR,Lexington,KY
RISE UP! PIZZA,175 E. LOUDON AVE #2,Lexington,KY
"WEST MAIN CRAFTING CO. LUCKY DOG ENTERTAINMENT,DBA","135 W MAIN STREET, SUITE 100",Lexington,KY
HONEYWOOD RESTAURANT,"110 SUMMIT @ FRITZ FARM AVE, SUITE 140",Lexington,KY
EDLEY'S BBQ,114 SUMMIT @ FRITZ FARM SUITE 110,Lexington,KY
PROVISION LIVING AT BEAUMONT CENTRE,1165 MONARCH STREET,Lexington,KY
ANTHONY VINCE NAIL SPA,"122 MARION, SUITE 120",Lexington,KY
BLAZE PIZZA,4049 FINN WAY #110,Lexington,KY
SELTZER,119 W MAIN STREET,Lexington,KY
IHOP #3596,2380 NORMON LANE SUITE 110,Lexington,KY
TED'S MONTANA GRILL,120 SUMMIT AT FRITZ FARMS STE 180,Lexington,KY
"SIMPLE GREEK, THE",4101 TATES CREEK CENTER DR #136,Lexington,KY
LUSSI BROWN COFFEE BAR,114 CHURCH STREET,Lexington,KY
CATHOLIC ACTION CENTER,1055 INDUSTRY RD,Lexington,KY
WORLD OF BEER,"122 MARION ST, STE 150",Lexington,KY
STEEL CITY POPS,"111 SUMMIT AT FRITZ FARM, STE 110",Lexington,KY
TEXAS DE BRAZIL,"151 LARUE, STE 150",Lexington,KY
GRIMALDI'S PIZZERIA,"118 MARION, STE 110",Lexington,KY
WHOLE FOOD MARKET,4055 FINN WAY,Lexington,KY
NATHANIEL MISSIONARY SOCIETY KITCHEN,550 W 6TH ST,Lexington,KY
CORELIFE EATERY,"4040 FINN WAY, STE 110",Lexington,KY
MOD PIZZA,"4101 TATES CREEK CENTRE , STE 140",Lexington,KY
REPICCI'S ITALIAN ICE OF THE BLUEGRASS ST MOBILE,222 WILSON DOWNING RD,Lexington,KY
MIMI'S SOUTHERN STYLE COOKING STATE MOBILE,126 E NEW CIRCLE RD,Lexington,KY
NATHANS FOODS,427 FAIRDALE DR,Lexington,KY
TAZIKIS MEDITERRANEAN CAFE,1916 JUSTICE DRIVE,Lexington,KY
GRINGO'S,537 CLAYMONT DR,Lexington,KY
"LEXINGTON BLUE SUSHI,  LLC",105 SUMMIT AT FRITZ PARK STE 130,Lexington,KY
TACO LOCO,135 LOCUST AVE,Lexington,KY
GALLOPS INC,5355 ATHENS BOONESBORO RD,Lexington,KY
CRU A WINE BAR AND RESTAURANT,107 SUMMIT AT FRITZ FARMS #120,Lexington,KY
PORTER HOUSE BBQ,4135 WINNEPEG CT,Lexington,KY
FREDERICK DOUGLASS HIGH SCHOOL,2800 WINCHESTER RD,Lexington,KY
THE GINGKO TREE,1305 FINCASTLE RD,Lexington,KY
LEWIS HALL CAFE,1120 UNIVERSITY DRIVE #U-138,Lexington,KY
DOUBLE DOGS,"1916 JUSTICE DRIVE, STE 130",Lexington,KY
ATOMIC RAMEN,119 MARION SUITE 195,Lexington,KY
CRANK & BOOM,119 MARION SUITE 150,Lexington,KY
SMITHTOWN SEAFOOD AT THE SUMMIT,119 MARION SUITE 160,Lexington,KY
JIMMY JOHN'S,427 REDDING RD,Lexington,KY
PASTURE BY MARKSBURY FARM,"119 MARION, STE 180",Lexington,KY
WHISKEY BEAR,"119 MARION, STE 170",Lexington,KY
LEGACY RESERVE AT FRITZ FARM,2700 MAN O WAR BLVD,Lexington,KY
HAYDEN'S STOCKYARD EATERY,4561 IRON WORKS PIKE,Lexington,KY
EL GRINGOS,2151 CHRISTIAN RD,Lexington,KY
FOOD CHAIN INC,501 W 6TH ST,Lexington,KY
JERSEY MIKE'S SUBS,2200 WAR ADMIRAL WAY SUITE 175,Lexington,KY
ATHENIAN GRILL AT FRITZ FARM LLC,119 MARION SUITE 110 & 120,Lexington,KY
HONNAH-LEE BUBBLE TEA,812 EUCLID AVE,Lexington,KY
PIZZA HUT #2967,1650 BRYAN STATION RD #118,Lexington,KY
CLARK'S PUMP-N-SHOP,1419 VERSAILLES RD,Lexington,KY
BABALU TAPAS AND TACOS,4040 FINN WAY SUITE 150,Lexington,KY
MR. BREWS TAPHOUSE,220 RUCCIO WAY SUITE 110,Lexington,KY
JASON'S DELI,134 MALABU DR,Lexington,KY
MARTINE'S PASTRIES,400 E. THIRD ST,Lexington,KY
KYLE'S KITCHEN,3030 LEXINGTON RD #45,Lexington,KY
THE MILL BAKERY,341 SOUTHLAND DR,Lexington,KY
"THAILAND EXPRESS, THE",556 COLUMBIA AVE,Lexington,KY
ADELINE'S CAKE ARTISTRY,720 BRYAN AVE,Lexington,KY
BLVD GRILL,844 HAYS BLVD,Lexington,KY
KENTUCKY BLENDED NUTRITION EAST,170 N EAGLE CREEK,Lexington,KY
MCDONALD'S,3100 PIMLICO PKWY,Lexington,KY
THE FOOD COURT,3449 BUCKHORN DR,Lexington,KY
LA PETITE ACADEMY,148 MALABU DR,Lexington,KY
"PIE HOLE, THE",210 ROSEMONT GARDEN,Lexington,KY
QUIET PLEASE,269 W MAIN ST 1ST FLR G,Lexington,KY
TAQUERIA SAN MIGUEL,3429 BUCKHORN #120,Lexington,KY
CENTRAL CHRISTIAN CHILD DEVELOPMENT CENTER,105 SPRUCE ST #125,Lexington,KY
JIMMY JOHN'S,105 N MILL ST,Lexington,KY
OSCAR DIGGS,155 N. LIMESTONE,Lexington,KY
UK CHAMPION'S KITCHEN  - STUDENT CENTER,160 AVE OF CHAMPIONS,Lexington,KY
THE FOX CLUB,987 WINCHESTER RD,Lexington,KY
TOWNE PLACE SUITES BY MARRIOTT LEXINGTON KEENELAND,980 MIDNIGHT PASS,Lexington,KY
SURE STAY PLUS BY BEST WESTERN,2241 ELKHORN RD,Lexington,KY
DAILY OFFERINGS COFFEE ROASTERY & CAFE,"124 MALABU DR., STE 110",Lexington,KY
BAHAMAS ISLAND GRILLE,909 WINCHESTER RD,Lexington,KY
GET IN SHAPE KY,"1801 ALEXANDRIA DR, STE 54",Lexington,KY
FREDERICK DOUGLASS HS INDOOR CONCESSION,2000 WINCHESTER RD,Lexington,KY
GOKU,1649 LIBERTY RD,Lexington,KY
TACO TIME DR STATE MOBILE,3852 NIAGRA DR,Lexington,KY
FROM THE HEART CATERING,962 DELWARE AVE,Lexington,KY
LOS HERMANOS LOCOS #2,319 S LIMESTONE ST.   APT. C,Lexington,KY
HOLIDAY INN LEXINGTON HAMBURG,1976 JUSTICE DR,Lexington,KY
LA MARQUESA,3101 CLAYS MILL RD STE 400,Lexington,KY
"COCKTAILS OF LEXINGTON II, LLC",130 W TIVERTON WAY #195,Lexington,KY
MOE'S SOUTHWEST GRILL,1975 HARRODSBURG RD,Lexington,KY
HABIBI SWEETS AND BAKERY,"2417 NICHOLASVILLE RD, STE 100",Lexington,KY
UPPER CRUST FOOD SERVICE,410 ROSE LANE,Lexington,KY
"BICYCLE FACE, LLC",331 E SHORT ST,Lexington,KY
"UK BOOKSTORE, BARNES & NOBLE COLLEGE BOOKSELLERS",160 AVENUE OF CHAMPIONS,Lexington,KY
LITTLE LEXINGTON ACADEMY,4383 OLD HARRODSBURG RD STE 145,Lexington,KY
SEDONA TAPHOUSE,3600 PALOMAR CENTRE DR,Lexington,KY
BLUEGRASS KY NUTRITION,719 ALLENDALE DR,Lexington,KY
WILDCAT COAL LODGE,318 COLLEGE VIEW AVE,Lexington,KY
TOBAGO RIBS STATE MOBILE,1601 HAWTHORNE LANE,Lexington,KY
THE CLUB,509 E NEW CIRCLE RD,Lexington,KY
"ALL ABOUT KIDS, LC",695 VINCENT WAY,Lexington,KY
POPCORN PARADISE,724 NATIONAL AVENUE,Lexington,KY
MAKE A CAKE CUPCAKE BAR,"740 NATIONAL AVE, STE 130",Lexington,KY
MALIBU GRILL & CHILL/THE ORIGINAL BROOKLYN PIZZA,2520 NICHOLASVILLE RD,Lexington,KY
"JERSEY MIKES SUBS/ RR LEX, LLC",2901 RICHMOND RD STE 130,Lexington,KY
RODDY B'S,1060 CHINOE RD STE 108,Lexington,KY
SKYLINE CHILI,2850 RICHMOND RD,Lexington,KY
LAFAYETTE FOOTBALL & SOCCER CONCESSION,401 REED LN,Lexington,KY
ALPHA CHI OMEGA (AXO) SORORITY,411 PENNSYLVANIA CT,Lexington,KY
SPOT-ON NUTRITION,145 BURT RD # 18,Lexington,KY
MACY'S STARBUCKS KIOSK-FAYETTE MALL,3303 NICHOLASVILLE RD,Lexington,KY
CHILL WAGON 2,289 S. LIMESTONE,Lexington,KY
ANGIE B'S LLC STATE MOBILE,3316 BIG BEND CT,Lexington,KY
GRIME'S,4248 SARON DR,Lexington,KY
FUJISAN FRANCHISING CORP.,1063 E NEW CIRCLE RD,Lexington,KY
FAIRFIELD INN & SUITES,2211 ELKHORN RD,Lexington,KY
"J. GUMBO'S, M&M GUMBOS, LLC, DBA,",808 N LIMESTONE #1,Lexington,KY
THRIVE KOMBUCHA (LLC),"810 N LIMESTONE, UNIT 1",Lexington,KY
GUS'S WORLD FAMOUS FRIED CHICKEN,321 EAST VINE ST,Lexington,KY
NAIL BAR & SPA,"2304 SIR BARTON WAY, STE 125",Lexington,KY
KENTUCKY HEALTH,2323 WOODHILL DR,Lexington,KY
RALLY'S,4171 TATES CREEK CENTRE DR,Lexington,KY
"MIRACLES BAKERY, DBA , GLUTEN FREE MIRACLES",161 LEXINGTON GREEN  CIRCLE,Lexington,KY
COCO STATE MOBILE,903 CHRIS DRIVE,Lexington,KY
TACOS Y SALSAS STATE MOBILE,4037 SWEETSPIRE DR,Lexington,KY
ZIM'S CAFE,215 W MAIN ST,Lexington,KY
EIGHT HORSE GLUTEN FREE BAKERY,442 1/2 S ASHLAND AVE,Lexington,KY
