,Name,Street,City,State
0,#1 CHINA BUFFET,"125 E. REYNOLDS ROAD, STE. 120",Lexington,Kentucky
1,1ST.  BASE CONCESSION,207 LEGENDS LANE,Lexington,Kentucky
2,21C LEXINGTON MASTER TENANT,167 W MAIN STREET,Lexington,Kentucky
3,2ND FLOOR CLUB KITCHEN,4201 VERSAILLES RD.,Lexington,Kentucky
4,3RD. BASE CONCESSION,207 LEGENDS LANE,Lexington,Kentucky
5,A CUP OF COMMON WEALTH,105 EASTERN AVE,Lexington,Kentucky
7,A P  SUGGINS,345 ROMANY RD,Lexington,Kentucky
8,"A&W BURGERS, CHICKEN, FLOATS",3401 NICHOLASVILLE RD STE FL-07,Lexington,Kentucky
9,A&W BURGERS-CHICKEN-FLOATS,114 TOWNE CENTER DR,Lexington,Kentucky
10,A&W RESTAURANT,652 E MAIN STREET,Lexington,Kentucky
11,ACE'S PLACE,2192 ICEHOUSE WAY,Lexington,Kentucky
12,AFC SUSHI @ KROGER # 407,3101 RICHMOND ROAD,Lexington,Kentucky
13,AFC SUSHI @ KROGER #347,4101 TATES CREEK RD,Lexington,Kentucky
14,AFC SUSHI @ KROGER #767,3175 BEAUMONT CNTR CIRCLE,Lexington,Kentucky
15,AFC SUSHI @ KROGER #768,"1600 LEESTOWN ROAD, STE 150",Lexington,Kentucky
16,AFC SUSHI @ KROGER #784,704 EUCLID,Lexington,Kentucky
18,AFC SUSHI @ KROGER 371,3650 BOSTON ROAD,Lexington,Kentucky
21,AFC SUSHI @ KROGER L-359,1650 BRYAN STATION ROAD,Lexington,Kentucky
23,AFC SUSHI @ KROGER L-361,1808 ALEXANDRIA DRIVE,Lexington,Kentucky
24,AFC SUSHI @ KROGER L-721,4750 HARTLAND PARKWAY,Lexington,Kentucky
26,AFC SUSHI @ UKY001,800 ROSE STREET,Lexington,Kentucky
27,"AFRICA & CARIBBEAN IMPORTS, LLC",1315 WINCHESTER RD STE 349 / 337 STORAGE,Lexington,Kentucky
31,AIRPORT FOOD MART,5584 VERSAILLES ROAD,Lexington,Kentucky
33,ALFALFA RESTAURANT,141 E. MAIN ST,Lexington,Kentucky
36,ALI BABA GROCERY STORE,412 SOUTHLAND DR,Lexington,Kentucky
44,"ALL ABOUT KIDS, LC",695 VINCENT WAY,Lexington,Kentucky
45,ALLEN'S FOODMART,1918 OXFORD CIRCLE,Lexington,Kentucky
48,ALPHA CHI OMEGA (AXO) SORORITY,411 PENNSYLVANIA CT,Lexington,Kentucky
50,AL'S BAR,601 NORTH LIMESTONE,Lexington,Kentucky
51,AMC CLASSIC LEXINGTON 10,3151 MAPLELEAF DR.,Lexington,Kentucky
52,ANTHONY VINCE NAIL SPA,"122 MARION, SUITE 120",Lexington,Kentucky
53,ANTOJITOS SHALOM,STATE MOBILE,Lexington,Kentucky
55,APIARY CATERING & EVENTS,218 W JEFFERSON ST,Lexington,Kentucky
56,APPLEBEE'S NEIGHBORHOOD GRILL & BAR,1761 SHARKEY WAY,Lexington,Kentucky
57,AQUA SUSHI,400 HILLTOP AVE,Lexington,Kentucky
58,ARAMARK CAFETERIA / BLACKBURN CORR COMPLEX,3111 SPURR ROAD,Lexington,Kentucky
59,ARBOR YOUTH SERVICES,536 W. THIRD STREET,Lexington,Kentucky
60,ARBY'S,410 W. VINE ST.,Lexington,Kentucky
61,ARBY'S - PALOMAR,3745 HARRODSBURG RD,Lexington,Kentucky
62,ARBY'S #1092,2649 RICHMOND RD,Lexington,Kentucky
63,ARBY'S #1128,540 NEW CIRCLE RD S-4,Lexington,Kentucky
65,ARBY'S #1299,3261 NICHOLASVILLE RD,Lexington,Kentucky
68,ARBY'S #1339,507 S LIMESTONE ST,Lexington,Kentucky
69,ARBY'S #159,212 SOUTHLAND DR,Lexington,Kentucky
70,ARBY'S #6911,1949 PLAUDIT PLACE,Lexington,Kentucky
72,ARBY'S #784,1228 S BROADWAY,Lexington,Kentucky
74,ARBY'S RESTAURANT,3391 TATES CREEK RD,Lexington,Kentucky
75,ARCHANINE THAI KITCHEN,"162 TODDS ROAD, SUITE 110",Lexington,Kentucky
76,ARCHITECTURAL KITCHENS & BATHS,345 LAFAYETTE AVE,Lexington,Kentucky
77,ARIRANG GARDEN,109 MT TABOR RD,Lexington,Kentucky
78,ARLINGTON ELEMENTARY SCHOOL,928 N LIMESTONE ST,Lexington,Kentucky
80,ASHLAND AVE. BAPTIST CHURCH,483 W. REYNOLDS RD.,Lexington,Kentucky
81,ASHLAND ELEMENTARY SCHOOL,195 N ASHLAND AVE,Lexington,Kentucky
82,ASHLAND TERRACE,475 S ASHLAND AVE,Lexington,Kentucky
83,ASIAN BISTRO,4224 SARON DR,Lexington,Kentucky
84,ATHENIAN GRILL,313 S ASHLAND AVE,Lexington,Kentucky
87,ATHENIAN GRILL AT FRITZ FARM LLC,119 MARION SUITE 110 & 120,Lexington,Kentucky
93,ATHENS FOOD MART,5522 ATHENS-BOONESBORO ROAD,Lexington,Kentucky
95,ATHENS-CHILESBURG ELEMENTARY,900 CHILESBURG ROAD,Lexington,Kentucky
96,ATOMIC RAMEN,119 MARION SUITE 195,Lexington,Kentucky
98,AUNTIE ANNE'S,160 AVENUE OF CHAMPIONS,Lexington,Kentucky
100,AUNTIE ANNE'S  PRETZELS,3401 NICHOLASVILLE ROAD  PK 55,Lexington,Kentucky
101,AUSTIN CITY SALOON,2350 WOODHILL DR #100,Lexington,Kentucky
102,AVON MART,5693 BRIAR HILL ROAD,Lexington,Kentucky
106,AYAME JAPANESE & GOURMET MARKET,"115 CODELL DRIVE, STE 120",Lexington,Kentucky
108,BABALU TAPAS AND TACOS,4040 FINN WAY SUITE 150,Lexington,Kentucky
110,BABYCAKES CUPCAKES,1616 LIBERTY ROAD,Lexington,Kentucky
111,BACKROADS BAKERY,962 DELAWARE AVE,Lexington,Kentucky
112,BACKSTRETCH BAR & GRILL,1784 BRYAN STATION RD,Lexington,Kentucky
113,BAD WOLF BURGERS,350 FOREMAN AVE,Lexington,Kentucky
114,BANGKOK HOUSE,275 AVENUE OF CHAMPIONS - BASEMENT,Lexington,Kentucky
115,BANNERS,3650 BOSTON RD STE A,Lexington,Kentucky
116,BAPTIST HEALTH LEXINGTON CHILD DEVELOPMENT CENTER,110 SOUTHLAND DR,Lexington,Kentucky
117,"BAPTIST HEALTH LEXINGTON, EDUCATION CENTER",1720 NICHOLASVILLE,Lexington,Kentucky
118,BAR LOUIE,"3565 NICHOLASVILLE RD, SUITE 932",Lexington,Kentucky
120,BAR ONA,108 CHURCH ST,Lexington,Kentucky
121,BARNES & NOBLE BOOKSELLERS,1932 PAVILLION WAY,Lexington,Kentucky
123,BASKIN ROBBINS,3383 TATES CREEK RD,Lexington,Kentucky
124,BASKIN ROBBINS ICE CREAM,115 NORTH LOCUST HILL  # 101,Lexington,Kentucky
125,BAYMONT INN AND SUITES,2221 ELKHORN,Lexington,Kentucky
126,BAYOU BLUEGRASS CATERING@,861 S BROADWAY,Lexington,Kentucky
127,BD'S MONGOLIAN GRILL,2309 SIR BARTON WAY,Lexington,Kentucky
132,BEACH HOUSE COFFEE & TAPAS,109 W SIXTH ST,Lexington,Kentucky
133,BEAR AND THE BUTCHER,815 EUCLID AVE,Lexington,Kentucky
135,BEAUMONT BAR & GRILL,3070 LAKECREST CIRCLE # 625,Lexington,Kentucky
136,BEAUMONT FOODMART,961 MIDNIGHT PASS,Lexington,Kentucky
139,BEAUMONT MIDDLE SCHOOL,2080 GEORGIAN WAY,Lexington,Kentucky
141,BELLA FORNO,2573 RICHMOND RD STE 170,Lexington,Kentucky
142,BELLA NOTTE ITALIAN TRATTORIA,3715 NICHOLASVILLE RD,Lexington,Kentucky
144,BELLE'S BAR,156 MARKET STREET,Lexington,Kentucky
145,BEST FRIENDS BAR,500 EUCLID AVENUE,Lexington,Kentucky
147,"BICYCLE FACE, LLC",331 E SHORT ST,Lexington,Kentucky
148,BIG BLUE BIRD EARLY CHILDHOOD CTR,1945 EASTLAND PKWY,Lexington,Kentucky
149,BIG CITY PIZZA,1060 CHINOE RD #128,Lexington,Kentucky
151,BIG L'S GOURMET DOGS,404 W MAIN STREET,Lexington,Kentucky
152,BIT N BRIDLE CLUBHOUSE,4089 IRON WORKS PIKE,Lexington,Kentucky
153,BJ'S RESTAURANT & BREWHOUSE,3297 NICHOLASVILLE RD,Lexington,Kentucky
154,BLACK PEARL KIOSK,3401 NICHOLASVILLE RD,Lexington,Kentucky
156,BLAZE PIZZA,2305 SIR BARTON WAY,Lexington,Kentucky
158,BLUE 3 STAND,430 WEST VINE STREET,Lexington,Kentucky
159,BLUE CONCOURSE NO. 4,430 WEST VINE STREET,Lexington,Kentucky
160,BLUE DEVILS FOOTBALL BOOSTERS,2100 FONTAINE RD.,Lexington,Kentucky
161,BLUE DOOR SMOKEHOUSE,226 WALTON AVE,Lexington,Kentucky
162,"BLUE HERON, THE",185 JEFFERSON ST.,Lexington,Kentucky
163,BLUE REEF - SUSHI & GRILL,1080 S BROADWAY #201,Lexington,Kentucky
165,BLUE SKILLET,213 E SEVENTH ST,Lexington,Kentucky
166,BLUEFIRE BAR & GRILL,401 W. HIGH STREET,Lexington,Kentucky
168,BLUEGRASS CAFE @ BCTC,470 COOPER DRIVE,Lexington,Kentucky
170,BLUEGRASS CARE AND REHABILITATION CENTER,3576 PIMLICO PARKWAY,Lexington,Kentucky
171,BLUEGRASS CATERING,"903 MANCHESTER ST., SUITE110",Lexington,Kentucky
173,BLUEGRASS COMMUNITY ACTION PARTNERSHIP,650 TOWER PLAZA,Lexington,Kentucky
174,"BLUEGRASS FOODS, INC.",825 LANE ALLEN,Lexington,Kentucky
175,BLUEGRASS MART,464 SQUIRES CIRCLE,Lexington,Kentucky
179,BLUEGRASS SCHWARTZ,3479 BUCKHORN,Lexington,Kentucky
180,BLUEGRASS TAVERN,115 CHEAPSIDE,Lexington,Kentucky
181,BLVD GRILL,844 HAYS BLVD,Lexington,Kentucky
184,"BOB EVANS RESTAURANT, LLC  #107",2341 BUENA VISTA RD,Lexington,Kentucky
186,"BOB EVANS RESTAURANT, LLC #53",2560 RICHMOND RD,Lexington,Kentucky
188,BODEGA BY LEXINGTON PASTA,227 NORTH LIMESTONE,Lexington,Kentucky
191,BOOKER T WASHINGTON ELEMENTARY,707 HOWARD STREET,Lexington,Kentucky
192,BOURBON N'  TOULOUSE,829 EUCLID AVENUE,Lexington,Kentucky
193,BRACKTOWN BAPTIST CHURCH,3016 BRACKTOWN ROAD,Lexington,Kentucky
194,"BREAK ROOM, THE",1178 MANCHESTER STREET,Lexington,Kentucky
195,BRECKINRIDGE ELEMENTARY SCHOOL,2101 ST MATILDA DR,Lexington,Kentucky
196,BRICK OVEN PIZZERIA,4371 OLD HARRODSBURG RD #160,Lexington,Kentucky
197,BRIOCHE DOREE,550 S. LIMESTONE,Lexington,Kentucky
200,BROOMWAGON,800/802 N LIMESTONE,Lexington,Kentucky
201,BROTHERS BAR & GRILL,909 WINCHESTER RD,Lexington,Kentucky
203,BRU BURGER BAR,3010 LAKECREST CIRCLE,Lexington,Kentucky
204,BRYAN STATION BASEBALL BOOSTER CONCESSION,201 EASTIN DR,Lexington,Kentucky
206,BRYAN STATION FOOTBALL CONCESSION,201 EASTIN RD.,Lexington,Kentucky
209,BRYAN STATION HIGH - SOFTBALL,1866 EDGEWORTH DR,Lexington,Kentucky
210,BRYAN STATION HIGH SCHOOL,1866 EDGEWORTH DR,Lexington,Kentucky
211,BRYAN STATION MIDDLE SCHOOL,1865 WICKLAND DR,Lexington,Kentucky
212,BUDDHA LOUNGE,109 N MILL ST. #150,Lexington,Kentucky
213,BUDWEISER STABLES,207 LEGENDS LANE,Lexington,Kentucky
214,BUFFALO WILD WINGS #15,1080 S BROADWAY,Lexington,Kentucky
217,BURGER & SHAKE,219 E NEW CIRCLE RD,Lexington,Kentucky
218,BURGER KING #1007,2217 NICHOLASVILLE RD,Lexington,Kentucky
219,BURGER KING #17304,2548 RICHMOND ROAD,Lexington,Kentucky
220,BURGER KING #1923,451 NEW CIRCLE RD,Lexington,Kentucky
223,BURGER KING #20867,730 LANE ALLEN RD.,Lexington,Kentucky
224,BURGER KING #8249,4200 SARON DR,Lexington,Kentucky
226,BURGER KING #8725,3348 CLAYS MILL RD,Lexington,Kentucky
227,BURGERFI,391 ROSE ST,Lexington,Kentucky
230,BURRITOS EL REY,3330 PARTNER PLACE STE 114,Lexington,Kentucky
231,C & J FOOD BAR,1230 EASTLAND PARKWAY,Lexington,Kentucky
234,C & P RESTAURANT,1000 MANCHESTER ST,Lexington,Kentucky
236,CABELA'S,1510 CONSERVATION WAY,Lexington,Kentucky
240,CAFE 1101,1101 WINBAK WAY,Lexington,Kentucky
241,CAFE CENTRAL @ BAPTIST HEALTH HOSPITAL,1740 S LIMESTONE ST,Lexington,Kentucky
242,CAFE PADDOCK / KY HORSE PARK,4089 IRONWORKS PKWY,Lexington,Kentucky
243,CAFE SOUTH @ BAPTIST HEALTH HOSPITAL,1740 NICHOLASVILLE RD,Lexington,Kentucky
244,CALVARY BAPTIST CHURCH,130 E. HIGH STREET,Lexington,Kentucky
245,CAMBRIDGE PLACE,2020 CAMBRIDGE DRIVE,Lexington,Kentucky
246,"CAMPBELL HOUSE, THE",1375 S BROADWAY,Lexington,Kentucky
247,CAMPUS CATERING 1,160 AVENUE OF CHAMPIONS,Lexington,Kentucky
250,CAMPUS CATERING 2,160 AVENUE OF CHAMPIONS,Lexington,Kentucky
252,CAMPUS KIDS,1165 CENTRE PARKWAY #225,Lexington,Kentucky
253,CAMPUS PUB LLC,393 WALLER AVE,Lexington,Kentucky
255,CAPTAIN D'S,245 NEW CIRCLE ROAD,Lexington,Kentucky
259,CARAMANDA'S BAKE SHOP,332 SOUTHLAND DRIVE,Lexington,Kentucky
261,CARAMANDA'S BAKE SHOPPE,2901 RICHMOND RD #110,Lexington,Kentucky
263,CARDINAL HILL REHABILITATION HOSPITAL,2050 VERSAILLES RD,Lexington,Kentucky
264,CARDINAL VALLEY ELEM. SCHOOL,218 MANDALEY ROAD,Lexington,Kentucky
266,CARINO'S #901,2333 SIR BARTON WAY,Lexington,Kentucky
270,CARRABBA'S ITALIAN GRILL #6802,1881 PLAUDIT PLACE,Lexington,Kentucky
272,CARSON'S FOOD & DRINK,362 E MAIN STREET,Lexington,Kentucky
274,CASSIDY ELEMENTARY SCHOOL,1125 TATES CREEK RD,Lexington,Kentucky
275,CASUAL PINT,233 E MAIN STREET,Lexington,Kentucky
276,CATERING BY DONNA,1054 W HIGH ST,Lexington,Kentucky
277,CATHEDRAL KITCHEN- CHRIST THE KING,299 COLONY BLVD,Lexington,Kentucky
278,CATHOLIC ACTION CENTER,1055 INDUSTRY RD,Lexington,Kentucky
281,"CELLAR BAR & GRILL, THE",3256 LANSDOWNE DR #50,Lexington,Kentucky
282,CENTENARY UNITED METHODIST,2800 TATES CREEK RD,Lexington,Kentucky
283,CENTER FOR CLINICAL & TRANSLATIONAL SCIENCE,800 ROSE ST. ROOM C-300,Lexington,Kentucky
284,CENTERED CAFE,309 N ASHLAND AVE SUITE 180,Lexington,Kentucky
286,CENTRAL BAPTIST CHURCH,110 WILSON DOWNING RD.,Lexington,Kentucky
287,CENTRAL CHRISTIAN CHILD DEVELOPMENT CENTER,105 SPRUCE ST #125,Lexington,Kentucky
288,CENTRAL KY RECOVERY CNTR -  #2,1366 BULL LEA LANE,Lexington,Kentucky
289,CENTRAL KY RECOVERY CNTR BLDG #1,1358 BULL LEA LANE,Lexington,Kentucky
290,CENTRO AMERICANA,1426 VILLAGE DR,Lexington,Kentucky
292,"CENTRO, LOLA II LLC DBA",113 CHEAPSIDE PARK,Lexington,Kentucky
293,CHAMPS SKATE CENTER,297 RUCCIO WAY,Lexington,Kentucky
294,CHAO CAJUN #F-22,3473 NICHOLASVILLE RD,Lexington,Kentucky
296,CHARLIE BROWN'S,816 EUCLID AVE,Lexington,Kentucky
297,CHASE TAP ROOM,266 JEFFERSON ST,Lexington,Kentucky
299,CHEDDAR'S #2125,3604 WALDEN DRIVE,Lexington,Kentucky
301,CHEDDAR'S #2137,3094 HELMSDALE PL,Lexington,Kentucky
302,"CHEESECAKE FACTORY, THE",3545 NICHOLASVILLE RD,Lexington,Kentucky
304,"CHEN OSAKA , INC","3805 DYLAN PLACE, STE 130",Lexington,Kentucky
306,CHENGS RESTAURANT,3101 CLAYS MILL RD #302,Lexington,Kentucky
309,CHERISH THE CHILD,102 DENNIS DR,Lexington,Kentucky
310,CHERRY SEED COFFEE HOUSE,472 SOUTHLAND DR,Lexington,Kentucky
312,CHEVY CHASE INN,833 E. EUCLID AVENUE,Lexington,Kentucky
313,CHICK-FIL-A,1863 PLAUDIT PLACE,Lexington,Kentucky
318,CHICK-FIL-A  - FAYETTE MALL,3401 NICHOLASVILLE RD STE FC-5A,Lexington,Kentucky
320,CHICK-FIL-A @ TURFLAND MALL,2025 HARRODSBURG ROAD,Lexington,Kentucky
321,CHICK-FIL-A AT RICHMOND RD & NEW CIRCLE,2299 RICHMOND ROAD,Lexington,Kentucky
322,CHILD DEVELOPMENT CENTER OF THE BLUEGRASS,290 ALUMNI DR.,Lexington,Kentucky
324,CHILDREN'S HAVEN,736 W MAIN ST,Lexington,Kentucky
326,CHILDREN'S TREEHOUSE OF KNOWLEDGE,309 OHIO STREET,Lexington,Kentucky
327,CHILI'S #600,108 MARKETPLACE DR,Lexington,Kentucky
329,CHILI'S SOUTHWEST GRILL & BAR,2851 RICHMOND RD,Lexington,Kentucky
330,"CHILL SPOT LOUNGE, THE","680 LIMA DR, STE 150-160",Lexington,Kentucky
331,CHINA HUT,850 LANE ALLEN RD,Lexington,Kentucky
333,CHINA KING,1497 ALEXANDRIA DR.,Lexington,Kentucky
334,CHINA KITCHEN,"3094 RICHMOND ROAD, SUITE 180",Lexington,Kentucky
335,CHINA STAR,196 N. MARTIN LUTHER KING,Lexington,Kentucky
336,CHINOE PUB,1050 -C  E CHINOE RD,Lexington,Kentucky
338,CHIPOTLE MEXICAN GRILL #2429,"3565 NICHOLASVILLE RD, STE 935",Lexington,Kentucky
339,CHIPOTLE MEXICAN GRILL #572,2905 RICHMOND ROAD,Lexington,Kentucky
340,CHIPOTLE MEXICAN GRILL OF CO,345 SOUTH LIMESTONE,Lexington,Kentucky
344,CHOCOLATE HOLLER,"400 OLD VINE STREET, SUITE 104",Lexington,Kentucky
347,CHOP HOUSE,2640 RICHMOND RD,Lexington,Kentucky
349,CHRIST CHURCH CATHEDRAL,166 MARKET ST,Lexington,Kentucky
350,CHRIST THE KING SCHOOL,412 COCHRAN RD,Lexington,Kentucky
351,CHRYSALIS COMMUNITY CENTER,1589 HILL  RISE DRIVE,Lexington,Kentucky
352,CHRYSALIS HOUSE,251 E MAXWELL ST,Lexington,Kentucky
354,CHRYSALIS HOUSE FAMILY PROGRAM,1588 HILL RISE DR,Lexington,Kentucky
355,"CHRYSALIS HOUSE, INC",1374 BULL LEA LANE,Lexington,Kentucky
356,CHRYSALIS HOUSE/FAMILY PROGRAM,120 CHRYSALIS CT,Lexington,Kentucky
357,CHUCK E CHEESE,1555 NEW CIRCLE RD,Lexington,Kentucky
359,CHURCH OF THE GOOD SHEPHERD,533 E MAIN ST,Lexington,Kentucky
361,CHURRERIA LA CONEJA & ANTOJITOS MEXICANOS,895 N.  BROADWAY,Lexington,Kentucky
363,CHUY'S LEXINGTON,3841 NICHOLASVILLE CENTER ROAD,Lexington,Kentucky
365,CINCO DE MAYO,122 W. MAXWELL ST.,Lexington,Kentucky
367,"CINCO DE MAYO OF LEXINGTON 2, INC","3031 RICHMOND RD., STE 120",Lexington,Kentucky
369,"CINEMARK USA, INC. (FAYETTE MALL)",3800 MALL ROAD,Lexington,Kentucky
370,CIRCLE K #3211,3470 RICHMOND ROAD,Lexington,Kentucky
372,CIRCLE K #3212,1396 LEESTOWN ROAD,Lexington,Kentucky
376,CIRCLE K #3214,3469 BUCKHORN DR,Lexington,Kentucky
378,CIRCLE K #3302,3130 PIMLICO PARKWAY,Lexington,Kentucky
380,CITGO FOOD MART,705 LOUDON AVENUE,Lexington,Kentucky
386,CITY BARBEQUE,2187 HARRODSBURG RD,Lexington,Kentucky
387,CITY BBQ,3292 RICHMOND RD.,Lexington,Kentucky
388,CITY CENTER STARBUCKS,101 S. LIMESTONE ST.,Lexington,Kentucky
389,CLAMATO'S,2304 VERSAILLES RD,Lexington,Kentucky
391,CLARION HOTEL,1950 NEWTOWN PIKE,Lexington,Kentucky
393,CLARKS PUMP & SHOP #36/CHEVRON,1971 N BROADWAY,Lexington,Kentucky
395,CLARK'S PUMP N SHOP #44,313 NW NEW CIRCLE RD,Lexington,Kentucky
403,CLARK'S PUMP-A-SHOP,922 DETROIT AVE,Lexington,Kentucky
405,CLARK'S PUMP-N-SHOP,1419 VERSAILLES RD,Lexington,Kentucky
407,CLAYS MILL ELEMENTARY SCHOOL,2319 CLAYS MILL RD,Lexington,Kentucky
408,COCINA EL SABOR JAROCHO,1416 VILLAGE DR.,Lexington,Kentucky
409,COCKTAILS BAR & GRILL,3090 TODDS RD #150,Lexington,Kentucky
410,"COCKTAILS OF LEXINGTON II, LLC",130 W TIVERTON WAY #195,Lexington,Kentucky
412,COFFEA,383 ROSE STREET,Lexington,Kentucky
414,COFFEE HOUSE DBA MINTON'S CAFE,760 N. LIMESTONE,Lexington,Kentucky
416,"COFFEE TIMES, INC",2571 REGENCY RD,Lexington,Kentucky
418,COLD STONE CREAMERY,3801 MALL RD SUITE 110,Lexington,Kentucky
422,COLD STONE CREAMERY #1869,2337 SIR BARTON WAY,Lexington,Kentucky
423,COLES 735 MAIN,735 EAST MAIN ST,Lexington,Kentucky
424,COLUMBIA STEAK HOUSE,201 NORTH LIMESTONE,Lexington,Kentucky
426,COLUMBIA STEAKHOUSE GRILLE,2750 RICHMOND RD,Lexington,Kentucky
427,COMEDY OFF BROADWAY,161 LEXINGTON GRN CIRCLE #C-4,Lexington,Kentucky
428,COMFORT SUITES,3060 FIELDSTONE WAY,Lexington,Kentucky
429,COMMON GROUNDS,4772 HARTLAND PARKWAY #128,Lexington,Kentucky
433,COMMON GROUNDS COFFEE HOUSE & CAFE',343 EAST HIGH STREET,Lexington,Kentucky
434,COMMONWEALTH BAPTIST COLLEGE,3440 VERSAILLES ROAD,Lexington,Kentucky
435,COMMUNITY ACTION COUNCIL,913 GEORGETOWN RD,Lexington,Kentucky
437,"COMMUNITY MONTESSORI SCHOOL, INC.",725 STONE ROAD,Lexington,Kentucky
438,CONSOLIDATED BAPTIST CHURCH,1625 RUSSELL CAVE RD.,Lexington,Kentucky
439,COOKOUT,855 S BROADWAY,Lexington,Kentucky
440,COOL NATE'S,333 NEWTOWN PIKE,Lexington,Kentucky
441,CORELIFE EATERY,"4040 FINN WAY, STE 110",Lexington,Kentucky
443,CORPORATE BOX,4201 VERSAILLES RD,Lexington,Kentucky
444,CORTO LIMA,101 W SHORT ST.,Lexington,Kentucky
446,COSMIC CHARLIE'S,105 W. LOUDON AVE,Lexington,Kentucky
447,COSTCO WHOLESALE #1156,1500 FITZGERALD CT.,Lexington,Kentucky
449,"COUNTRY BOY BREWING, LLC",436 CHAIR AVE,Lexington,Kentucky
450,COUNTRY COOKIN' BY GEORGE,1801 ALEXANDRIA DR #192,Lexington,Kentucky
452,COUNTRY INN & SUITES,2297 EXECUTIVE DRIVE,Lexington,Kentucky
454,"COURTYARD CAFE, THE",800 ROSE STREET,Lexington,Kentucky
455,"COURTYARD DELI, THE",351 CHURCH ST,Lexington,Kentucky
456,COURTYARD LEXINGTON NORTH,775 NEWTOWN CT,Lexington,Kentucky
458,COURTYARD LEXINGTON SOUTH/HAMBURG PL,1951 PLEASANT RIDGE DRIVE,Lexington,Kentucky
464,COVENTRY OAK ELEMENTARY,2441 HUNTLY,Lexington,Kentucky
465,COVERED ARENA DINER,4089 IRON WORKS PIKE,Lexington,Kentucky
466,COWBOY BRAZILIAN STEAK HOUSE,2041 RICHMOND RD,Lexington,Kentucky
468,COWBOY'S,1515 RUSSELL CAVE RD,Lexington,Kentucky
469,CP FOOD MART,1161 CENTRE PARKWAY,Lexington,Kentucky
471,CRACKER BARREL OLD COUNTRY STORE #19,1927 STANTON WAY,Lexington,Kentucky
474,CRACKER BARREL OLD COUNTRY STORE #77,2220 ELKHORN RD,Lexington,Kentucky
478,CRANK & BOOM,119 MARION SUITE 150,Lexington,Kentucky
480,CRAWFORD MIDDLE SCHOOL,1813 CHARLESTON DR,Lexington,Kentucky
481,CREATION KINGDOM,2935 TRAILWOOD LANE,Lexington,Kentucky
483,CREATIVE BEGINNINGS,2050 VERSAILLES RD. PEDS BLDG.,Lexington,Kentucky
484,"CREATIVE KIDS CHILD CARE, INC.",2385 HUGUENARD DRIVE,Lexington,Kentucky
485,CREAUX,310 W SHORT ST,Lexington,Kentucky
486,CRESTWOOD CHRISTIAN CHILDCARE CENTER,1882 BELLEFONTE DR,Lexington,Kentucky
487,CRITCHFIELD MEATS,2220 NICHOLASVILLE RD STE. 166,Lexington,Kentucky
489,CROSSINGS LEXINGTON,117 N LIMESTONE ST,Lexington,Kentucky
491,CROSSROADS IGA - STORE # 761,2656 ABIGAIL WAY,Lexington,Kentucky
493,CRU A WINE BAR AND RESTAURANT,107 SUMMIT AT FRITZ FARMS #120,Lexington,Kentucky
494,CRUMZZ BAR AND GRILL,"395 SOUTH LIMESTONE, STE. 110",Lexington,Kentucky
496,CULVER'S RESTAURANT,360 MEIJER WAY,Lexington,Kentucky
499,CURRY HOUSE,2220 NICHOLASVILLE RD,Lexington,Kentucky
501,DAD'S FAVORITES,"820 LANE ALLEN, STE 148",Lexington,Kentucky
503,DAD'S FAVORITES LLC @ BLUE STALLION,610 W THIRD ST,Lexington,Kentucky
504,DAIRY QUEEN,3509 LANSDOWNE DRIVE,Lexington,Kentucky
509,DAIRY QUEEN #309,350 VIRGINIA AVE,Lexington,Kentucky
510,DARAE & FRIENDS,"3459 BUCKHORN DR., #140",Lexington,Kentucky
512,DEEP SPRINGS SCHOOL,1919 BRYNELL DR,Lexington,Kentucky
513,DEJA VU,"485 NEW CIRCLE RD, NW",Lexington,Kentucky
514,"DELI MART, INC., THE",1009 GEORGETOWN ROAD,Lexington,Kentucky
516,DENNY'S #8766,1880 NEWTOWN PIKE,Lexington,Kentucky
518,DENNY'S #8770,1949 NICHOLASVILLE RD,Lexington,Kentucky
522,DEPOT DELICATESSEN,"5751 BRIAR HILL ROAD, BLD 226",Lexington,Kentucky
526,DICKEY'S BBQ PIT,"1315 WINCHESTER RD., SUITE 325",Lexington,Kentucky
529,DISMAS CHARITIES LEXINGTON,909 GEORGETOWN ROAD,Lexington,Kentucky
530,DIVA'S,1318 RUSSELL CAVE RD.,Lexington,Kentucky
531,DIXIE ELEMENTARY SCHOOL,1940 EASTLAND PKWY,Lexington,Kentucky
533,DOMINO'S,3090 HELMSDALE #300,Lexington,Kentucky
534,DOMINO'S 1359,"125 TOWNE CENTER DR, STE 127",Lexington,Kentucky
535,DOMINO'S PIZZA,3101 CLAYS MILL RD,Lexington,Kentucky
539,DOMINO'S PIZZA  #  1406,130 TIVERTON WAY-WEST,Lexington,Kentucky
541,DOMINO'S PIZZA  #180,524 WEST NEW CIRCLE RD,Lexington,Kentucky
542,DOMINO'S PIZZA #1405,3120 PIMLICO PARKWAY #116,Lexington,Kentucky
544,DONATO'S,728 E. MAIN STREET,Lexington,Kentucky
546,DONATO'S PIZZA,265 NEW CIRCLE ROAD,Lexington,Kentucky
547,DONATO'S PIZZA - BEAUMONT CTR.,3070 LAKECREST CIRCLE,Lexington,Kentucky
548,DONG YANG MARKET,"3101 CLAYS MILL RD., STE 102",Lexington,Kentucky
550,DONUT DAYS,185 SOUTHLAND DRIVE,Lexington,Kentucky
551,DOODLES,262 NORTH LIMESTONE,Lexington,Kentucky
552,DOODLES BREAKFAST AND LUNCH STATE MOBILE,262 N LIMESTONE,Lexington,Kentucky
553,DOUBLE DOGS,"1916 JUSTICE DRIVE, STE 130",Lexington,Kentucky
554,DOUBLE H BBQ,1244 VERSAILLES RD,Lexington,Kentucky
555,DOUBLE TREE GUEST SUITES,2601 RICHMOND ROAD,Lexington,Kentucky
557,DRAGON BALL ICE CREAM,3401 NICHOLASVILLE RD. SUITE 311,Lexington,Kentucky
558,D'S CAFE,1818 BRYAN STATION RD,Lexington,Kentucky
560,DUDLEY'S RESTAURANT,259 W SHORT ST,Lexington,Kentucky
562,DUNBAR BASEBALL CONCESSION,1600 MAN-0-WAR,Lexington,Kentucky
563,DUNBAR FOOTBALL CONCESSION,1600 MAN O'WAR BLVD.,Lexington,Kentucky
564,DUNBAR HIGH SCHOOL SOFTBALL,1600 MAN-O-WAR BLVD.,Lexington,Kentucky
565,DUNKIN DONUTS,316 E NEW CIRCLE RD,Lexington,Kentucky
573,DURANGO'S MEXICAN RESTAURANT,"2121 RICHMOND ROAD, SUITE 150",Lexington,Kentucky
574,DV8,"867 S BROADWAY, SUITE #140",Lexington,Kentucky
577,EASTERN STATE HOSPITAL - KITCHEN,1350 BULL LEA LANE,Lexington,Kentucky
578,EASTLAND PARK CHURCH OF THE NAZARENE,1605 JENNIFER RD,Lexington,Kentucky
580,EDIBLE ARRANGEMENTS,"3101 RICHMOND ROAD, STE. 304",Lexington,Kentucky
582,EDLEY'S BBQ,114 SUMMIT @ FRITZ FARM SUITE 110,Lexington,Kentucky
585,EDUCARE LEARNING CENTER,2832 SNOW ROAD,Lexington,Kentucky
586,EDYTHE J HAYES MIDDLE SCHOOL,260 RICHARDSON PLACE,Lexington,Kentucky
587,EIFFEL PIZZA,3449 BUCKHORN DR STE B,Lexington,Kentucky
588,EIGHT HORSE GLUTEN FREE BAKERY,442 1/2 S ASHLAND AVE,Lexington,Kentucky
589,EINSTEIN'S BAGELS,505 ROSE ST,Lexington,Kentucky
590,EL ANTOJITO,565 E NEW CIRCLE RD. STE #5,Lexington,Kentucky
592,EL CAMPESINO,1340 ALEXANDRA DR APT 6102,Lexington,Kentucky
593,EL CHARRO AUTHENTIC MEXICAN CUISINE,4371 OLD HARRODSBURG RD STE 180/190,Lexington,Kentucky
595,EL COSTENO JR,1144 WINBURN DR,Lexington,Kentucky
596,EL COSTENO JR 2,1144 WINBURN DR,Lexington,Kentucky
597,EL ESPALON MEXICAN RESTAUANT,"191 JEFFERSON STREET, 1ST FLOOR",Lexington,Kentucky
598,EL GRAN TAKO,340 E. NEW CIRCLE ROAD STE.100,Lexington,Kentucky
601,EL GRAN TAKO #2,1801 ALEXANDRIA DR. # 156,Lexington,Kentucky
603,EL HUARACHE,1316 RUSSELL CAVE RD.,Lexington,Kentucky
608,EL MALECON RESTAURANT,481 W NEW CIRCLE RD STE 170,Lexington,Kentucky
609,EL MANGO NIEVERIA & SNACKS,1414 VILLAGE DR,Lexington,Kentucky
610,EL MARIACHI MEXICAN RESTAURANT,125 TOWNE CENTER DR STE 115,Lexington,Kentucky
611,EL MILAGRO DOS,1545 ALEXANDRIA DRIVE # 1,Lexington,Kentucky
613,EL PATRON MEXICAN RESTAURANT,1765 ALEXANDRIA DR,Lexington,Kentucky
614,EL RANCHO TAPATIO TAQUERIA &,144 BURT ROAD,Lexington,Kentucky
616,EL REY DE-LOS POLLOS & EL REY DE MARISCOS,1485-1 ALEXANDRIA DR.,Lexington,Kentucky
618,EL SABOR DE MEXICO RESTAURANT & TAYUENA,1505 RUSSELL CAVE RD.,Lexington,Kentucky
619,EL SABROSO,1445 VILLAGE DR,Lexington,Kentucky
622,EL TORO RESTAURANT,1917 NICHOLASVILLE ROAD,Lexington,Kentucky
624,EMBASSY SUITES BY HILTON LEXINGTON GREEN,245 LEXINGTON GREEN CIRCLE,Lexington,Kentucky
625,EMBASSY SUITES LEXINGTON,1801 NEWTOWN PIKE,Lexington,Kentucky
626,EMERSON CENTER,2050 GARDEN SPRINGS DR,Lexington,Kentucky
627,EMPYREAL ARTISAN ALES,1224 MANCHESTER ST,Lexington,Kentucky
628,ENTERTAINMENT CENTER,4201 VERSAILLES RD,Lexington,Kentucky
629,EPPINGS ON EAST SIDE,264 WALTON AVE.,Lexington,Kentucky
630,EQUESTRIAN ROOM,4201 VERSAILLES RD,Lexington,Kentucky
631,EXPRESS 11,430 WEST VINE STREET,Lexington,Kentucky
633,EXPRESS 34,430 W VINE ST.,Lexington,Kentucky
634,F & D MARKET,573 ELM TREE LANE,Lexington,Kentucky
640,FAILTE IRISH IMPORTS,113 S UPPER ST,Lexington,Kentucky
642,FAIRFIELD INN & SUITES,2100 HACKNEY PLACE,Lexington,Kentucky
649,FAITH LUTHERAN CHILD CARE MINISTRIES,1000 TATES CREEK RD,Lexington,Kentucky
651,FAR OUT ESPRESSO,962 DELAWARE AVE,Lexington,Kentucky
652,FARM MARKET,1079 E NEW CIRCLE RD,Lexington,Kentucky
654,FAYETTE CO. CO-OP EXT. SERVICE,1140 RED MILE PLACE,Lexington,Kentucky
655,FAYETTE COUNTY PRESCHOOL,465 SPRINGHILL DRIVE,Lexington,Kentucky
656,FAYETTE REG. JUV. DET. CTR.,3475 SPURR ROAD,Lexington,Kentucky
657,FAZOLI'S - #1607,3775 HARRODSBURG ROAD,Lexington,Kentucky
659,FAZOLI'S #1605,2195 -A RICHMOND ROAD,Lexington,Kentucky
660,FAZOLI'S #1624,2200 NICHOLASVILLE RD.,Lexington,Kentucky
661,FAZOLI'S #1658,4204 SARON DR.,Lexington,Kentucky
663,FAZOLI'S #1785,1840 ALYSHEBA WAY,Lexington,Kentucky
668,FEED THE HUNGRY,811 BRYAN AVENUE,Lexington,Kentucky
670,FIDAS CARIBBEAN CAFE,601 NORTH LIMESTONE,Lexington,Kentucky
671,FIREHOUSE SUBS,1781 SHARKEY WAY,Lexington,Kentucky
673,FIRST CHOICE CHILD CARE CENTER,505 KINGSTON RD,Lexington,Kentucky
674,FIRST PRESBYTERIAN CHURCH,171 MARKET ST,Lexington,Kentucky
677,FIRST UNITED METHODIST CHURCH,200 WEST HIGH STREET,Lexington,Kentucky
679,FIRST WATCH,3071 RICHMOND RD.,Lexington,Kentucky
682,FIRST WATCH - NICHOLASVILLE RD,119 W. REYNOLDS RD,Lexington,Kentucky
683,FIRST WATCH RESTAURANT,2251 WAR ADMIRAL WAY STE 130,Lexington,Kentucky
684,FIRST WATCH SIMPSON CENTER,"1080 S BROADWAY, STE 301",Lexington,Kentucky
685,FITZ'S SPORTS BAR,209 OLD GEORGETOWN STREET,Lexington,Kentucky
686,FIVE GUYS,2467 NICHOLASVILLE RD STE 120,Lexington,Kentucky
687,FIVE GUYS BURGERS & FRIES,3090 HELMSDALE PLACE STE. 370,Lexington,Kentucky
688,FOLIAGE CHINESE RESTAURANT,3650 BOSTON RD  STE H,Lexington,Kentucky
691,FOOD CHAIN INC,501 W 6TH ST,Lexington,Kentucky
692,FREDDY'S FROZEN CUSTARD,2500 POLO CLUB BLVD,Lexington,Kentucky
695,FREDERICK DOUGLASS HIGH SCHOOL,2800 WINCHESTER RD,Lexington,Kentucky
696,FREDERICK DOUGLASS HS INDOOR CONCESSION,2000 WINCHESTER RD,Lexington,Kentucky
697,FREDERICK DOUGLASS HS OUTSIDE CONCESSION,2000 WINCHESTER RD,Lexington,Kentucky
698,FRESH FOOD COMPANY,400 HILLTOP AVE,Lexington,Kentucky
700,"FRESH MARKET, THE",3387 TATES CREEK ROAD,Lexington,Kentucky
704,FRESHII,680 ROSE ST,Lexington,Kentucky
705,FRIENDSHIP TOWERS @ SAYRE CHRISTIAN VILLAGE,580 GREENFIELD,Lexington,Kentucky
706,FRISCH'S RESTAURANT,1849 ALYSHEBA WAY,Lexington,Kentucky
710,FRUTERIA LAS VEVACRUZANAS,"133 VENTURE CT, STE 170",Lexington,Kentucky
712,FUJISAN FRANCHISING CORP.,1063 E NEW CIRCLE RD,Lexington,Kentucky
713,FUSION @ ERICKSON HALL,135 GRAHAM AVE,Lexington,Kentucky
714,"FUSION BREWING, LLC","1170 MANCHESTER ST, STE 150",Lexington,Kentucky
715,GALLOPS INC,5355 ATHENS BOONESBORO RD,Lexington,Kentucky
717,GARDEN SPRINGS CHILD DEVELOPMENT CENTER,2033 GARDEN SPRINGS DRIVE,Lexington,Kentucky
718,GARDEN SPRINGS ELEMENTARY SCHOOL,2151 GARDEN SPRINGS DR,Lexington,Kentucky
719,GARRETT MORGAN ELEMENTARY,1150 PASSAGE MOUND WAY,Lexington,Kentucky
720,GATTI TOWN,2524 NICHOLASVILLE RD,Lexington,Kentucky
721,GAY BREWER JR CRS @ PICADOME,469 PARKWAY DR,Lexington,Kentucky
722,"GENJI, LLC - SUSHI BAR",2059 FINN WAY,Lexington,Kentucky
723,GEORGE PRIVETT RECOVERY CENTER,250 LOUDON AVENUE,Lexington,Kentucky
724,GEORGE'S DELI AND GROCERY,161 NORTH LIMESTONE,Lexington,Kentucky
726,GEORGETOWN CAFE,891 GEORGETOWN ST.,Lexington,Kentucky
727,GET IN SHAPE KY,"1801 ALEXANDRIA DR, STE 54",Lexington,Kentucky
728,"GIFT BOX &  TEA ROOM, THE",3330 PARTNER PLACE,Lexington,Kentucky
729,GIGI'S CUPCAKES,2703 RICHMOND RD STE 120,Lexington,Kentucky
730,GINGER WASABI SUSHI & GRILL,103 W MAXWELL ST,Lexington,Kentucky
732,GIOVANNI'S OF LEXINGTON,128 E. NEW CIRCLE RD,Lexington,Kentucky
735,GIOVANNI'S PIZZA,4214 SARON DR,Lexington,Kentucky
736,GIRLSGIRLSGIRLS BURRITOS,395 S LIMESTONE,Lexington,Kentucky
737,GIUSEPPE'S,4456 NICHOLASVILLE ROAD,Lexington,Kentucky
739,GLENDOVER ELEMENTARY SCHOOL,710 GLENDOVER RD,Lexington,Kentucky
740,GLO LEXINGTON NORTH,1935 STANTON WAY,Lexington,Kentucky
744,GO GO BURGER (STATE MOBILE),3805 BROOKDALE CIRCLE,Lexington,Kentucky
745,GOKU 2,1649 LIBERTY RD,Lexington,Kentucky
746,GOLD STAR,1900 PLAUDIT PLACE,Lexington,Kentucky
747,GOLD STAR CHILI,430 W. VINE ST.,Lexington,Kentucky
751,GOLDEN BUFFET,2907 RICHMOND RD,Lexington,Kentucky
752,GOLDEN CORRAL,185 E NEW CIRCLE RD,Lexington,Kentucky
757,GOLDEN WOK,3101 RICHMOND ROAD  # 302,Lexington,Kentucky
759,GOOD FOODS MARKET & CAFE,455 D  SOUTHLAND DRIVE,Lexington,Kentucky
761,GOODFELLA'S PIZZA,110 N MILL STREET,Lexington,Kentucky
762,GOODFELLAS PIZZERIA,1228 MANCHESTER STREET #110,Lexington,Kentucky
764,GORDON FOOD SERVICE STORE,1856 PLAUDIT PLACE,Lexington,Kentucky
768,GRAETER'S ICE CREAM,836 EUCLID AVE,Lexington,Kentucky
771,GRAND RESERVE,903 MANCHESTER ST #190,Lexington,Kentucky
772,"GRASSROOTS PHARMACY, PLLC",2304 SIR BARTON WAY SUITE 195,Lexington,Kentucky
774,GREAT BAGEL,396 WOODLAND AVENUE,Lexington,Kentucky
776,GREEK ORTHODOX CHURCH,3001 TATES CREEK RD,Lexington,Kentucky
777,GREEN CORNER STAND,430 W VINE STREET,Lexington,Kentucky
778,GREEN CUSTARD A,430 W. VINE ST.,Lexington,Kentucky
780,GREENBRIER COUNTRY CLUB,2179 BAHAMA ROAD,Lexington,Kentucky
781,GREEN'S CAFE,630 E NEW CIRCLE RD,Lexington,Kentucky
782,GREENTREE RESTAURANT,521 W  SHORT ST,Lexington,Kentucky
784,"GREY GOOSE, THE",170 JEFFERSON ST,Lexington,Kentucky
785,GRIFFIN GATE MARRIOTT RESORT AND SPA,1800 NEWTOWN PIKE,Lexington,Kentucky
786,"GRILLFISH LEXINGTON, LLC",265 N LIMESTONE ST,Lexington,Kentucky
787,GRIMALDI'S PIZZERIA,"118 MARION, STE 110",Lexington,Kentucky
789,GRIME'S,4248 SARON DR,Lexington,Kentucky
790,GRIME'S RESTAURANT,325 ROOSEVELT BLVD.,Lexington,Kentucky
794,GROWING TOGETHER PRE-SCHOOL,599 LIMA DRIVE,Lexington,Kentucky
795,GUCKENHEIMER TEMPURPEDIC,1000 TEMPUR WAY,Lexington,Kentucky
796,GUESTHOUSE INN & SUITES,2261 ELKHORN ROAD,Lexington,Kentucky
798,GUMBO YA YA,1080 SOUTH BROADWAY # 107,Lexington,Kentucky
799,GUS'S WORLD FAMOUS FRIED CHICKEN,321 EAST VINE ST,Lexington,Kentucky
800,GYROZ MEDITERRANEAN,393 WALLER AVE #16,Lexington,Kentucky
802,H & M MARKET,1220 N LIMESTONE ST,Lexington,Kentucky
806,HABIBI SWEETS AND BAKERY,"2417 NICHOLASVILLE RD, STE 100",Lexington,Kentucky
807,HALLIS SCHOOL,915 MURRAY DR. SUITE 342-351,Lexington,Kentucky
809,HAMBURG PAVILION STADIUM 16,1949 STARSHOOT ROAD,Lexington,Kentucky
811,HAMPTON INN,2251 ELKHORN RD.,Lexington,Kentucky
814,HAMPTON INN - LEXINGTON,3060 LAKECREST CIRCLE,Lexington,Kentucky
815,HANNA'S ON LIME,214 SOUTH LIMESTONE STREET,Lexington,Kentucky
816,HANNEH'S GROCERY & DELI,561 BRECKINRIDGE,Lexington,Kentucky
820,HAPPY CHINA,1301 WINCHESTER RD. #109,Lexington,Kentucky
824,HAPPY DRAGON,1510 NEWTOWN PIKE,Lexington,Kentucky
826,HAPPY PANDA,117 TOWN CENTER DR,Lexington,Kentucky
828,HARDEE'S,2990 RICHMOND RD,Lexington,Kentucky
832,HARRISON ELEMENTARY SCHOOL,161 BRUCE ST,Lexington,Kentucky
833,HARTLAND HILLS,1005 TANBARK ROAD,Lexington,Kentucky
834,HARVEY'S,200 W MAIN ST,Lexington,Kentucky
835,HAYDEN'S STOCKYARD EATERY,4561 IRON WORKS PIKE,Lexington,Kentucky
836,HEALTHY WAY LEX,460 SOUTHLAND DR,Lexington,Kentucky
838,HEAVENLY HAM,"171 W LOWRY LANE, SUITE 180",Lexington,Kentucky
839,HENRY CLAY BASEBALL BOOSTER'S,2100 FONTAINE RD.,Lexington,Kentucky
840,HENRY CLAY HIGH SCHOOL,2100 FONTAINE RD,Lexington,Kentucky
841,HENRY CLAY SOFTBALL BOOSTERS,2100 FONTAINE RD,Lexington,Kentucky
842,"HIBACHI BUFFET, INC",180 EAST NEW CIRCLE RD,Lexington,Kentucky
843,HIBACHI EXPRESS,565 S LIMESTONE,Lexington,Kentucky
845,"HIGH ON ART & COFFEE, LLC",523 E. HIGH ST,Lexington,Kentucky
846,HIGH STREET NEIGHBORHOOD CENTER,228 S LIMESTONE,Lexington,Kentucky
847,HIGHGROVE AT TATES CREEK,4251 SARON DR,Lexington,Kentucky
848,HILARY J. BOONE FACULTY CLUB,500 ROSE ST,Lexington,Kentucky
849,HILTON GARDEN INN,1973 PLAUDIT PLACE,Lexington,Kentucky
850,HILTON LEXINGTON DOWNTOWN,369 W. VINE STREET,Lexington,Kentucky
851,HOLIDAY INN EXPRESS,1000 EXPORT ST.,Lexington,Kentucky
856,HOLIDAY INN EXPRESS & SUITES,2255 BUENA VISTA RD,Lexington,Kentucky
860,HOLIDAY INN LEXINGTON HAMBURG,1976 JUSTICE DR,Lexington,Kentucky
862,HOME 2 SUITES,126 EAST LOWRY LANE,Lexington,Kentucky
863,HOMEWOOD SUITES,2033 BRYANT RD,Lexington,Kentucky
865,HOMEWOOD SUITES-FOOD,249 RUCCIO WAY,Lexington,Kentucky
867,"HONEY BAKED HAM COMPANY, THE",2600 NICHOLASVILLE RD,Lexington,Kentucky
869,HONEYWOOD RESTAURANT,"110 SUMMIT @ FRITZ FARM AVE, SUITE 140",Lexington,Kentucky
870,HONNAH-LEE BUBBLE TEA,1983 HARRODSBURG,Lexington,Kentucky
871,HOOTER'S,3101 RICHMOND ROAD STE 15,Lexington,Kentucky
872,HOP CAT,410 W SHORT STREET,Lexington,Kentucky
873,HOPE CENTER FOR WOMEN,1524 VERSAILLES ROAD,Lexington,Kentucky
874,HORSEPARK BP,4538 GEORGETOWN RD,Lexington,Kentucky
878,HORSESHOES SALOON & STEAKHOUSE,1987 NORTH BROADWAY,Lexington,Kentucky
881,HYATT PREP KITCHEN,410 W VINE ST.,Lexington,Kentucky
882,HYATT REGENCY/MAIN KITCHEN,401 W  HIGH ST,Lexington,Kentucky
884,IDLE HOUR COUNTRY CLUB,1815 RICHMOND RD,Lexington,Kentucky
886,IHOP #3596,2380 NORMON LANE SUITE 110,Lexington,Kentucky
887,IHOP RESTAURANT,1505 E NEW CIRCLE ROAD,Lexington,Kentucky
888,IMMANUEL BAPTIST CHURCH,3100 TATES CREEK ROAD,Lexington,Kentucky
889,INDI'S FAST FOOD,670 NORTH BROADWAY,Lexington,Kentucky
890,INSOMNIA COOKIES,433 JERSEY ST,Lexington,Kentucky
892,INTERMEZZO CAFE,120 PATTERSON DRIVE,Lexington,Kentucky
893,IPALAPA'S,102 W VINE ST,Lexington,Kentucky
894,IRON CHEF,"3090 OLD TODDS ROAD, STE. #130",Lexington,Kentucky
895,IROQUOIS HUNT CLUB,7496 GRIMES MILL ROAD,Lexington,Kentucky
896,J. ALEXANDERS @ LEXINGTON,4081 FINN WAY,Lexington,Kentucky
897,"J. GUMBO'S, M&M GUMBOS, LLC, DBA,",808 N LIMESTONE #1,Lexington,Kentucky
899,J. RENDER'S BBQ STATE MOBILE,1141 HAVERFORD WAY,Lexington,Kentucky
901,J. RENDER'S SOUTHERN TABLE & BAR,3191 BEAUMONT CTR CIR STE 110,Lexington,Kentucky
902,J2C ASIAN BISTRO,561 S BROADWAY SUITE #140,Lexington,Kentucky
903,JACKED - NUTRITION LLC,962 DELAWARE AVE,Lexington,Kentucky
904,JACOBS CAFETERIA (HOPE CENTER),299 W LOUDON AVE,Lexington,Kentucky
905,JALAPENO'S RESTAURANT,"1030 S. BROADWAY, SUITE 200",Lexington,Kentucky
908,JAMBA JUICE,"535 S. UPPER ST., STE. 125",Lexington,Kentucky
909,JAMES LANE ALLEN ELEM SCHOOL,1901 APPOMATTOX RD,Lexington,Kentucky
911,JASMINE RICE STATE MOBILE,911 WINCHESTER RD,Lexington,Kentucky
913,JASON'S DELI,134 MALABU DR,Lexington,Kentucky
914,JAX,161 LEXINGTON GREEN CIRCLE,Lexington,Kentucky
915,JEAN FARRIS WINERY,6825 OLD RICHMOND ROAD,Lexington,Kentucky
916,JEFF RUBY STEAKHOUSE,101 WEST VINE STREET,Lexington,Kentucky
917,JERSEY MIKES SUBS,"867 S BROADWAY, SUITE 120",Lexington,Kentucky
918,"JERSEY MIKES SUBS/ RR LEX, LLC",2901 RICHMOND RD STE 130,Lexington,Kentucky
919,JESS' BEST,944 DEPORRES AVE,Lexington,Kentucky
920,JESSIE CLARK MIDDLE SCHOOL,3341 CLAYS MILL RD,Lexington,Kentucky
922,JETS PIZZA,3735 HARRODSBURG RD UNIT 70,Lexington,Kentucky
923,JET'S PIZZA,4222 SARON DRIVE,Lexington,Kentucky
926,JET'S PIZZA KY 10,"1030 S BROADWAY, #8",Lexington,Kentucky
929,JIMMY JOHN'S,1397 W MAIN STREET,Lexington,Kentucky
941,JIN JIN CHINESE RESTAURANT,1060 CHINOE RD PLAZA #148,Lexington,Kentucky
942,JOE BOLOGNA RESTAURANT,120 W MAXWELL ST,Lexington,Kentucky
943,JOELLA'S HOT CHICKEN,101 COCHRAN RD,Lexington,Kentucky
945,JOSANNE'S,3449 BUCKHORN DR,Lexington,Kentucky
946,JOSEPH BETH BOOKSELLERS INC.,161 LEXINGTON GREEN CIRCLE,Lexington,Kentucky
948,JOSIE'S GRAB N GO,821 CHEVY CHASE PLACE,Lexington,Kentucky
949,JULIUS MARKS ELEMENTARY SCHOOL,3277 PEPPERHILL RD,Lexington,Kentucky
950,"JUMP START CAFE, LLC DBA JUMP START",2681 OLD ROSEBUD RD,Lexington,Kentucky
951,JUMP START ENRICHMENT PROGRAM,435 RACE STREET,Lexington,Kentucky
953,JY KITCHEN,1006 DELAWARE AVE,Lexington,Kentucky
954,KARE BEARS,"3155 CUSTER DRIVE, SUITE A",Lexington,Kentucky
957,KEARNEY HILLS GOLF CONCESSION STAND,3403 KEARNEY ROAD,Lexington,Kentucky
958,KENTUCKY ALE TAP ROOM,207 LEGENDS LANE,Lexington,Kentucky
961,KENTUCKY BASKETBALL ACADEMY,273 RUCCIO WAY,Lexington,Kentucky
962,KENTUCKY BLENDED NUTRITION,128 BURT RD,Lexington,Kentucky
963,KENTUCKY BLENDED NUTRITION EAST,170 N EAGLE CREEK,Lexington,Kentucky
964,KENTUCKY CATTLEMEN,430 W VINE STREET,Lexington,Kentucky
966,KENTUCKY FRIED CHICKEN,1494 BOARDWALK,Lexington,Kentucky
974,KENTUCKY HEALTH,2323 WOODHILL DR,Lexington,Kentucky
975,KENTUCKY INDOOR SOCCER & SPORTS,404 SPORTING CT,Lexington,Kentucky
976,KENTUCKY NATIVE CAFE,417 E MAXWELL STREET,Lexington,Kentucky
977,"KETCH, THE",2012 REGENCY RD,Lexington,Kentucky
978,KID'S CAFE, SHILOH BAPTIST CHURCH,Lexington,Kentucky
979,KIDS EMPOWERMENT LEARNING ACADEMY,1527 N LIMESTONE ST,Lexington,Kentucky
980,KIDS HOUSE CHILDCARE,1891 AUGUSTA DR,Lexington,Kentucky
982,"KIDS KARE, INC.",2094 HARRODSBURG ROAD,Lexington,Kentucky
983,KID'S PLACE SNACK SHACK,3992 W. TIVERTON COURT,Lexington,Kentucky
984,KIDS R KIDS,3271 BEAUMONT CENTRE CIRCLE,Lexington,Kentucky
985,KIDS 'R' KIDS,131 N. EAGLE CREEK,Lexington,Kentucky
986,KIDS UNLIMITED,1365 DEVONPORT DRIVE,Lexington,Kentucky
987,KIDS-N-KAPERS NURSERY,1896 COURTLAND,Lexington,Kentucky
988,"KIDZ CLUB, THE",2200 REGENCY RD,Lexington,Kentucky
989,KIDZ KONNECTION CHILD CARE,"1020 INDUSTRY RD., STE. 26",Lexington,Kentucky
991,KINDER CARE LEARNING CTR #936,2611 WILHITE DR,Lexington,Kentucky
992,KINDER CARE LEARNING CTR #963,3199 CUSTER DRIVE,Lexington,Kentucky
993,KINDERCARE NURSERY,628 WELLINGTON WAY,Lexington,Kentucky
994,KING OF FOOD,"208 LEGENDS LANE, STE 105",Lexington,Kentucky
998,KITCHEN ON HIGH,1226 VERSAILLES RD,Lexington,Kentucky
1000,KLAIR II,318 HILLTOP AVENUE,Lexington,Kentucky
1001,KLAIR II COMMISSARY,318 HILLTOP AVE,Lexington,Kentucky
1002,KOREANA RESTAURANT,2360 WOODHILL DR  #120,Lexington,Kentucky
1003,KROGER L-347,4014 TATES CREEK RD,Lexington,Kentucky
1005,KROGER L-359,1650 BRYAN STATION RD,Lexington,Kentucky
1009,KROGER L-361,1808 ALEXANDRIA DR,Lexington,Kentucky
1011,KROGER L-371,3650 BOSTON ROAD,Lexington,Kentucky
1019,KROGER L-407,3101 RICHMOND ROAD,Lexington,Kentucky
1021,KROGER L-721,4750 HARTLAND PARKWAY,Lexington,Kentucky
1023,KROGER L-737,1051 CHINOE RD,Lexington,Kentucky
1026,KROGER L-767,3175 BEAUMONT CENTRE CIRCLE,Lexington,Kentucky
1030,KROGER L-768,1600 LEESTOWN RD.  SUITE 150,Lexington,Kentucky
1033,KROGER L-784,704 EUCLID AVE,Lexington,Kentucky
1037,KULA EATS,2020 ARMSTRONG MILL RD APT 1234,Lexington,Kentucky
1038,KY FRIED CHICKEN-PIZZA HUT,1907 PLAUDIT PLACE #30,Lexington,Kentucky
1039,KY HORSE PARK ALLTECH #1,4089 IRONWORKS PIKE,Lexington,Kentucky
1040,KY HORSE PARK ALLTECH #2,4089 IRONWORKS PIKE,Lexington,Kentucky
1042,KY HORSE PARK ALLTECH #4,4089 IRON WORKS PIKE,Lexington,Kentucky
1043,KY HORSE PARK ALLTECH #5,4089 IRONWORKS PIKE,Lexington,Kentucky
1044,KY HORSE PARK ALLTECH COMMISSARY,4089 IRON WORKS PIKE,Lexington,Kentucky
1045,LA BONNE VIE PERSONAL CHEF SERVICES,962 DELAWARE AVE,Lexington,Kentucky
1046,LA CABANA,1414 BRYAN AVE,Lexington,Kentucky
1050,LA GUADALUPANA,1533 EASTLAND PKWY. #8,Lexington,Kentucky
1060,LA MADALEINE,400 HILLTOP,Lexington,Kentucky
1062,LA MARQUESA,3101 CLAYS MILL RD STE 400,Lexington,Kentucky
1066,LA MICHOACANA DE LEXINGTON,1801 ALEXANDRIA DR STE 164,Lexington,Kentucky
1068,LA PATRONA,1424 VERSAILLES RD,Lexington,Kentucky
1072,LA PETITE ACADEMY,148 MALABU DR,Lexington,Kentucky
1073,LA PRINCESA SUPER MARCADO,1430 VILLAGE DR,Lexington,Kentucky
1077,"LA REINA MICHOACANA, LLC","185 PASADENA DRIVE, SUITE 150",Lexington,Kentucky
1079,LA TAQUISA,"130 W. TIVERTON WAY, #190",Lexington,Kentucky
1081,LA UNICA,1429 VILLAGE DR,Lexington,Kentucky
1084,LAFAYETTE AT COUNTRY PLACE,690 MASON HEADLEY ROAD,Lexington,Kentucky
1087,LAFAYETTE CHILD CARE,1836 CLAYS MILL ROAD,Lexington,Kentucky
1089,LAFAYETTE HIGH SCHOOL,400 REED LN,Lexington,Kentucky
1090,LAFAYETTE HS BASEBALL BOOSTERS CONCESSION,401 REED LANE,Lexington,Kentucky
1091,LAFAYETTE HS SOFTBALL CONCESSION,401 REED LANE,Lexington,Kentucky
1092,LAKESIDE GOLF COURSE SNACK BAR,3725 RICHMOND ROAD,Lexington,Kentucky
1093,LANSDOWNE ELEMENTARY SCHOOL,336 REDDING RD,Lexington,Kentucky
1094,"LANTERN AT MORNING POINTE OF LEXINGTON, THE",225 RUCCIO WAY,Lexington,Kentucky
1097,LAS PRINCESAS,STATE MOBILE,Lexington,Kentucky
1099,LATIN LEX LOUNGE,1439 ALEXANDRIA DR,Lexington,Kentucky
1100,LE DEAUVILLE,199 NORTH LIMESTONE,Lexington,Kentucky
1101,LE MATIN BAKERY & ZUNI CAFE,890 E HIGH ST,Lexington,Kentucky
1102,"LEARNING CENTER, THE",475 PRICE ROAD,Lexington,Kentucky
1103,"LEARNING EXPERIENCE, THE",2501 SANDERSVILLE ROAD,Lexington,Kentucky
1104,LEE'S FAM. RECI. CHICKEN #7470,1487 BOARDWALK DRIVE,Lexington,Kentucky
1106,LEE'S FAM. RECI. CHICKEN #7472,3014 RICHMOND ROAD,Lexington,Kentucky
1108,LEE'S GARDEN,"680 LIMA DRIVE, #110",Lexington,Kentucky
1110,LEESTOWN MIDDLE SCHOOL,2010 LEESTOWN RD,Lexington,Kentucky
1111,LEGACY RESERVE AT FRITZ FARM,2700 MAN O WAR BLVD,Lexington,Kentucky
1112,LEGENDS 3RD BASE FROZEN,207 LEGENDS LANE,Lexington,Kentucky
1113,"LEMON TREE, THE",135 GRAHAM AVENUE,Lexington,Kentucky
1114,LEWIS HALL CAFE,1120 UNIVERSITY DRIVE #U-138,Lexington,Kentucky
1115,LEX CNTR CORP - MAIN COMMISSARY,430 W VINE ST,Lexington,Kentucky
1116,LEX CNTR CORP MAIN EXPOSITION CENTER,430 WEST VINE STREET,Lexington,Kentucky
1117,LEX EXPRESS,176 NEW CIRCLE RD,Lexington,Kentucky
1119,LEX KY ROOM,4201 VERSAILLES RD.,Lexington,Kentucky
1120,LEX-AVI FOODSYSTEMS BLDG 32,740 NEW CIRCLE RD  BLDGS 32-35,Lexington,Kentucky
1121,LEXHANWOORI RESTAURANT,371 S. LIMESTONE,Lexington,Kentucky
1122,"LEXINGTON BLUE SUSHI,  LLC",105 SUMMIT AT FRITZ PARK STE 130,Lexington,Kentucky
1123,LEXINGTON CATHOLIC HIGH SCHOOL,2250 CLAYS MILL RD,Lexington,Kentucky
1124,LEXINGTON CATHOLIC SR HIGH,2250 CLAYS MILL RD,Lexington,Kentucky
1125,LEXINGTON COUNTRY CLUB,2550 PARIS PIKE,Lexington,Kentucky
1126,LEXINGTON COUNTRY PLACE,700 MASON HEADLEY ROAD,Lexington,Kentucky
1127,LEXINGTON COURTYARD,3100 WALL STREET,Lexington,Kentucky
1129,LEXINGTON FAIRFIELD INN & SUITES,3050 LAKECREST CIRCLE,Lexington,Kentucky
1131,LEXINGTON ICE CENTER,560 EUREKA SPRINGS DRIVE,Lexington,Kentucky
1132,LEXINGTON JUNIOR ACADEMY,968 LANE ALLEN RD,Lexington,Kentucky
1133,LEXINGTON RESCUE MISSION,444 GLEN ARVIN AVE,Lexington,Kentucky
1134,LEXINGTON RESIDENCE INN,3110 WALL STREET,Lexington,Kentucky
1135,"LEXINGTON ROOSTERS, LLC",124 MARKETPLACE DRIVE,Lexington,Kentucky
1137,"LEXINGTON SCHOOL, THE",1050 LANE ALLEN RD,Lexington,Kentucky
1138,LEXINGTON SEAFOOD MARKET,867 E. HIGH STREET,Lexington,Kentucky
1140,LEXINGTON SENIOR CITIZENS CENTER,795 LIFE LANE,Lexington,Kentucky
1141,LEXINGTON TENNIS CLUB SNACKBAR,410 REDDING ROAD,Lexington,Kentucky
1142,LEXINGTON TRADITIONAL MAGNET SCHOOL,350 N LIMESTONE ST,Lexington,Kentucky
1144,LEXMARK CENTER FOR CHILDREN,500 PARK PLACE,Lexington,Kentucky
1145,"LEXMARK-AVI FOODSYSTEMS, BLDG #3",740 NEW CIRCLE RD,Lexington,Kentucky
1146,LEXUS DEALERSHOP,1264 E. NEW CIRCLE RD,Lexington,Kentucky
1147,LIBERTY ELEMENTARY SCHOOL,2585 LIBERTY ROAD,Lexington,Kentucky
1148,LIBERTY RIDGE SENIOR LIVING,701 LIBERTY RIDGE LN,Lexington,Kentucky
1150,"LIGHTHOUSE MINISTRIES, THE",190 SPRUCE ST,Lexington,Kentucky
1153,LINKBELT,2651 PALUMBO DRIVE,Lexington,Kentucky
1154,LINLEE,2420 SPURR ROAD,Lexington,Kentucky
1155,LIQUOR BARN,1837 PLAUDIT PLACE,Lexington,Kentucky
1157,LIQUOR BARN @ CORNER DELI,921 BEAUMONT CENTRE PKWY,Lexington,Kentucky
1159,LITTLE BEGINNERS CHILD DEVELOPMENT CENTER,474 STONE RD,Lexington,Kentucky
1160,LITTLE CAESAR'S,3031 RICHMOND RD #110,Lexington,Kentucky
1162,LITTLE CAESAR'S PIZZA,2003 VERSAILLES ROAD,Lexington,Kentucky
1169,LITTLE LEXINGTON ACADEMY,4383 OLD HARRODSBURG RD STE 145,Lexington,Kentucky
1170,"LITTLE TOT'S LEARNING CTR, LLC",3580 CAULDER RD,Lexington,Kentucky
1171,LOCALS,701 NATIONAL AVE.,Lexington,Kentucky
1172,LOGAN'S ROADHOUSE,1908 PAVILLION WAY,Lexington,Kentucky
1175,LOGAN'S ROADHOUSE RESTAURANT,140 ROJAY DRIVE,Lexington,Kentucky
1177,LONG JOHN SILVER'S #12,2197 VERSAILLES ROAD,Lexington,Kentucky
1178,LONGHORN STEAK HOUSE #5187,2217 HARRODSBURG RD,Lexington,Kentucky
1179,LORADALE MARKET,6888 RUSSELL CAVE RD.,Lexington,Kentucky
1183,LOS TRES LOCOS,572 E LOUDON AVE,Lexington,Kentucky
1184,LOUDON SQUARE BUFFET,801 NORTH BROADWAY,Lexington,Kentucky
1187,LUCY'S KITCHEN,1812 AUGUSTA CT APT 8,Lexington,Kentucky
1188,LUNDY'S OF LEXINGTON,1389 PRIDEMORE COURT,Lexington,Kentucky
1190,LUSSI BROWN COFFEE BAR,114 CHURCH STREET,Lexington,Kentucky
1191,LYLES BBQ COMPANY,3101 CLAYS MILL RD STE 301,Lexington,Kentucky
1194,LYNAGH'S,384 WOODLAND AVENUE,Lexington,Kentucky
1196,LYNAGH'S SHAMROCK BAR & GRILL,154 PATCHEN DRIVE #87A,Lexington,Kentucky
1197,MAD MUSHROOM OF UK,561 S BROADWAY STE 135,Lexington,Kentucky
1199,MAGEE'S BAKERY,724 -726 E MAIN ST,Lexington,Kentucky
1203,MAGNOLIA SPRINGS LEXINGTON,2701 MAGNOLIA SPRINGS DRIVE,Lexington,Kentucky
1204,MAI THAI RESTAURANT,304 SOUTHLAND DR,Lexington,Kentucky
1206,MAIN EXPOSITION (EAST),430 W. VINE STREET,Lexington,Kentucky
1207,MAIN KITCHEN/ GRANDSTAND,4201 VERSAILLES RD.,Lexington,Kentucky
1208,MAIN PANTRY,4201 VERSAILLES RD,Lexington,Kentucky
1209,MAIN STREET DELI,380 WEST MAIN,Lexington,Kentucky
1210,MAKE A CAKE CUPCAKE BAR,"740 NATIONAL AVE, STE 130",Lexington,Kentucky
1211,MALABU PUB AND GRILLE,239 SURFSIDE DR,Lexington,Kentucky
1212,MALIBU GRILL & CHILL/THE ORIGINAL BROOKLYN PIZZA,2520 NICHOLASVILLE RD,Lexington,Kentucky
1213,MALONE'S,1920 PLEASANT RIDGE DR,Lexington,Kentucky
1217,MALONE'S - DRAKE'S,3347 TATES CREEK RD,Lexington,Kentucky
1221,MALONE'S PRIME/OBC,3373 TATES CREEK ROAD,Lexington,Kentucky
1223,MANCHESTER COFFE CO.,903 MANCHESTER ST #180,Lexington,Kentucky
1225,MANCINO'S,1590 -A LEESTOWN RD,Lexington,Kentucky
1226,MANDARIN,"2220 NICHOLASVILLE, STE. 120",Lexington,Kentucky
1230,MARATHON FOOD MART,1840 BRYAN STATION ROAD,Lexington,Kentucky
1236,MARATHON MART,300 N. MARTIN LUTHER KING BLVD,Lexington,Kentucky
1240,"MARATHON, SPEAKS",1900 NEWTOWN PIKE,Lexington,Kentucky
1242,MARCO'S PIZZA #1172,115 N LOCUST HILL DR. #117,Lexington,Kentucky
1243,MARCO'S PIZZA #1226,2348 NICHOLASVILLE RD STE. 120,Lexington,Kentucky
1244,MARIA'S KITCHEN,805 N BROADWAY,Lexington,Kentucky
1245,MARIKKA'S RESTAURANT,411 SOUTHLAND DRIVE,Lexington,Kentucky
1247,MARINO'S DAY CARE CENTER,130 WEST FIFTH STREET,Lexington,Kentucky
1248,MARRIOTT 19TH HOLE @ GRIFFIN GATE,1800 NEWTOWN PIKE,Lexington,Kentucky
1249,MARRIOTT GRIFFIN GATE- STARBUCKS/GIFT SHOP,1800 NEWTOWN PIKE,Lexington,Kentucky
1253,MARRIOTT RESIDENCE INN -FOOD,2688 PINK PIGEON WAY,Lexington,Kentucky
1255,MARTIN LUTHER KING ACADEMY,2200 LIBERTY RD,Lexington,Kentucky
1256,MARTINE'S PASTRIES,400 E. THIRD ST,Lexington,Kentucky
1258,MARY QUEEN HOLY ROSARY SCHOOL,605 HILL N DALE,Lexington,Kentucky
1259,MARY TODD ELEMENTARY SCHOOL,551 PARKSIDE DR,Lexington,Kentucky
1260,MAXWELL ELEMENTARY SCHOOL,333 WOODLAND AVE,Lexington,Kentucky
1261,MAXWELL ST. PRESBYTERIAN CHUR.,180 E. MAXWELL STREET,Lexington,Kentucky
1262,MAYFAIR MANOR,3300 TATES CREEK ROAD,Lexington,Kentucky
1263,MAYFAIR VILLAGE,3310 TATES CREEK ROAD,Lexington,Kentucky
1265,MC ALISTER'S DELI,836 EUCLID AVE #105,Lexington,Kentucky
1267,MCCARTHY'S IRISH BAR,117 S UPPER ST,Lexington,Kentucky
1268,MCDONALD'S,357 SOUTH LIMESTONE,Lexington,Kentucky
1284,MCDONALD'S #6111,1114 E NEW CIRCLE RD,Lexington,Kentucky
1285,MCDONALD'S RESTAURANT,3765 PALOMAR CENTRE,Lexington,Kentucky
1286,MCDONALD'S RESTAURANT #1231,2483 NICHOLASVILLE ROAD,Lexington,Kentucky
1287,MCDONALD'S RESTAURANT #23458,1620 LEESTOWN ROAD,Lexington,Kentucky
1288,MCDONALD'S RESTAURANT #36629,2359 RICHMOND RD,Lexington,Kentucky
1289,MCDONALD'S RESTAURANT #989,2321 VERSAILLES RD,Lexington,Kentucky
1291,MEADOWTHORPE ASSISTED LIVING,171 LEESTOWN CENTER WAY,Lexington,Kentucky
1292,MEADOWTHORPE ELEM SCHOOL,1710 FORBES RD,Lexington,Kentucky
1293,MEALS ON WHEELS,460 EAST MAIN STREET,Lexington,Kentucky
1296,MEGAMINDS EDUCARE,679 LIMA DRIVE,Lexington,Kentucky
1298,MEIJER #184,351 WEST REYNOLDS RD,Lexington,Kentucky
1302,MEIJER GAS STATION #184,391 WEST REYNOLDS RD,Lexington,Kentucky
1304,MEIJER GREAT LAKES #161 - GAS,2145 SIR BARTON WAY,Lexington,Kentucky
1308,MEIJER GREAT LAKES LP #161,2155 SIR BARTON WAY,Lexington,Kentucky
1310,MEMORIAL COLISEUM EAST,201 AVENUE OF CHAMPIONS,Lexington,Kentucky
1311,MEMORIAL COLISEUM WEST,201 AVENUE OF CHAMPIONS,Lexington,Kentucky
1312,MERRICK INN,1074 MERRICK DRIVE,Lexington,Kentucky
1314,METROPOLITAN DONUTS & COFFEE,3070 LAKECREST CIRCLE #600,Lexington,Kentucky
1315,MI MEXICO RESTAURANT,818 E NEW CIRCLE RD.,Lexington,Kentucky
1317,MI PEQUENA HACIENDA,3501 LANSDOWNE DR,Lexington,Kentucky
1318,MICROTEL INN,2240 BUENA VISTA DR,Lexington,Kentucky
1320,MIDDLE FORK KITCHEN BAR,1224 MANCHESTER ST SUITE 110,Lexington,Kentucky
1321,MIDWAY FOOD MART,3895 WINCHESTER ROAD,Lexington,Kentucky
1327,MILK AND HONEY PRESCHOOL,2700 TODDS ROAD,Lexington,Kentucky
1328,MILLCREEK ELEMENTARY SCHOOL,3660 APPIAN WAY,Lexington,Kentucky
1329,MIMI'S SOUTHERN STYLE COOKING,126 E NEW CIRCLE ROAD,Lexington,Kentucky
1332,MINGLEWOOD,159 NORTH LIMESTONE,Lexington,Kentucky
1333,MINI MOVERS LEARNING CENTER,338 BLACKBURN AVE.,Lexington,Kentucky
1334,MINIT MART #653,5521 ATHENS-BOONESBORO ROAD,Lexington,Kentucky
1336,MINIT MART #662,1998 HARRODSBURG ROAD,Lexington,Kentucky
1343,MINIT MART #663,4560 IRON WORKS PIKE,Lexington,Kentucky
1347,MINIT MART #664,109 TOWN CENTER DRIVE,Lexington,Kentucky
1349,MINIT MART #667,4096 NICHOLS PARK DR,Lexington,Kentucky
1353,MINIT MART #668,3110 RICHMOND ROAD,Lexington,Kentucky
1357,MINIT MART #670,1070 NEWTOWN PIKE,Lexington,Kentucky
1359,MINIT MART #671,3790 PALOMAR CENTRE DRIVE,Lexington,Kentucky
1361,MINIT MART #672,1949 NORTH BROADWAY,Lexington,Kentucky
1363,MINIT MART #673,2420 RICHMOND ROAD,Lexington,Kentucky
1367,MINIT MART #674,435 W NEW CIRCLE ROAD,Lexington,Kentucky
1369,MINIT MART #676,905 S LIMESTONE ST,Lexington,Kentucky
1370,MINIT MART #677,1975 NICHOLASVILLE RD,Lexington,Kentucky
1372,MINIT MART #678,4201 SARON DRIVE,Lexington,Kentucky
1382,MINIT MART #679,2300 VERSAILLES RD,Lexington,Kentucky
1384,MINIT MART #680,930 SOUTH BROADWAY,Lexington,Kentucky
1388,MIRACLES & WONDERS PLAY & LEARN CNTR,1183 DEVONPORT DRIVE,Lexington,Kentucky
1390,MIRROR TWIN BREWING,723 NATIONAL AVENUE,Lexington,Kentucky
1392,MIRROR TWIN BREWING CO,725 NATIONAL AVE,Lexington,Kentucky
1394,MISSY'S PIE SHOP,502 EAST HIGH ST,Lexington,Kentucky
1396,MISTER SOFTEE STATE MOBILE,1063 REDWOOD DRIVE,Lexington,Kentucky
1397,MIYAKO POKE BOWL,867 S BROADWAY STE 110,Lexington,Kentucky
1398,"MIYAKO, LLC",2547 RICHMOND ROAD,Lexington,Kentucky
1400,MOD PIZZA,"4101 TATES CREEK CENTRE , STE 140",Lexington,Kentucky
1401,MOD SUPERFAST PIZZA,2217 WAR ADMIRAL WAY,Lexington,Kentucky
1403,MOE'S SOUTHWEST GRILL,"3401 NICHOLASVILLE RD, FC-6",Lexington,Kentucky
1406,MOE'S SOUTHWESTERN GRILL,"141 ROJAY DRIVE, STE. 120",Lexington,Kentucky
1408,MOLLY BROOKES IRISH BAR,109 N LIMESTONE ST,Lexington,Kentucky
1409,MONKEY JOE'S,1850 BRYANT ROAD,Lexington,Kentucky
1411,MORNING POINTE,150 SHORE SIDE DR,Lexington,Kentucky
1412,MORNING POINTE OF LEXINGTON,233 RUCCIO WAY,Lexington,Kentucky
1414,MORTON MIDDLE SCHOOL,1225 TATES CREEK RD,Lexington,Kentucky
1415,"MOUSE TRAP, THE",3323 TATES CREEK ROAD,Lexington,Kentucky
1417,MOVEABLE FEAST,474 SILVER MAPLE WAY,Lexington,Kentucky
1418,MR. BREWS TAPHOUSE,220 RUCCIO WAY SUITE 110,Lexington,Kentucky
1419,MR. ED'S DELI,937 WINCHESTER RD,Lexington,Kentucky
1421,MR. GYROS (STATE MOBILE),442 RETRAC ROAD,Lexington,Kentucky
1422,MR. KRABS & BEAN'S B.B.Q.,417 GEORGETOWN ST. STE 130,Lexington,Kentucky
1424,NAIL BAR & SPA,"2304 SIR BARTON WAY, STE 125",Lexington,Kentucky
1426,"NATHANIEL MISSIONARY SOCIETY,INC",1109 VERSAILLES ROAD,Lexington,Kentucky
1428,NATHANS FOODS,2548 LANGSTANE LN,Lexington,Kentucky
1432,NAZ THREE BP,781 E NEW CIRCLE RD,Lexington,Kentucky
1436,NEFERTITI,"1301 WINCHESTER RD, SUITE 81",Lexington,Kentucky
1438,NEIGHBORHOOD GROCERY,215 E. SEVENTH STREET,Lexington,Kentucky
1446,NEPMART GROCERY,2350 WOODHILL DR STE  172,Lexington,Kentucky
1447,"NEST, THE",530 NORTH LIMESTONE,Lexington,Kentucky
1449,NEW BEGINNINGS EARLY LEARNING CENTER,585 W. MAIN ST.,Lexington,Kentucky
1450,"NEW CREATION CHILDCARE, LLC",1037 INDUSTRY ROAD,Lexington,Kentucky
1451,NEW GREAT WALL,393 WALLER AVE. #14,Lexington,Kentucky
1454,"NEW SHANGHAI BISTRO, THE",4101 TATES CREEK CTRE #118,Lexington,Kentucky
1455,NEW SUSHI EXPRESS,455-D SOUTHLAND DR.,Lexington,Kentucky
1456,NEWK'S EATERY,"2369 RICHMOND RD, #110",Lexington,Kentucky
1458,NEWTOWN PIKE FOODMART,771 NEWTOWN PIKE,Lexington,Kentucky
1460,NICK RYAN'S,157 JEFFERSON STREET,Lexington,Kentucky
1462,"NO BAKED LOUISVILLE, LLC",3735 PALOMAR CENTRE DR. STE 220,Lexington,Kentucky
1463,NOODLES AND COMPANY,2468 NICHOLASVILLE ROAD,Lexington,Kentucky
1464,NORTH LIME COFFEE & DONUTS,3101 CLAYS MILL ROAD 300A,Lexington,Kentucky
1466,NORTH LIME COFFEE AND DONUTS,575 N LIMESTONE,Lexington,Kentucky
1468,NORTH STAR ACADEMY,1816 BRYAN STATION ROAD,Lexington,Kentucky
1470,NORTHERN CAL RIPKIN,612 BRYANWOOD PKWY,Lexington,Kentucky
1471,NORTHERN ELEMENTARY SCHOOL,340 ROOKWOOD PKWY,Lexington,Kentucky
1473,NORTHPOINT HEALTHCARE CENTER,1500 TRENT BLVD.,Lexington,Kentucky
1474,NOTHING BUNDT CAKES,2358 NICHOLASVILLE RD STE 145,Lexington,Kentucky
1475,NUHEALTH SUPPLEMENTS,3001 BLAKE JAMES DR.,Lexington,Kentucky
1478,NUTTER TRAINING CENTER,1540 UNIVERSITY DR,Lexington,Kentucky
1479,OASIS MEDITERRANIAN  CAFE,868 -B E HIGH ST,Lexington,Kentucky
1480,O'CHARLEY'S #209,2895 RICHMOND ROAD,Lexington,Kentucky
1481,O'CHARLEY'S #212,2270 NICHOLASVILLE ROAD,Lexington,Kentucky
1482,OFF THE HOOKAH,504 EUCLID AVENUE,Lexington,Kentucky
1483,OFFICE LOUNGE,1533 EASTLAND PARKWAY,Lexington,Kentucky
1486,OLD CHICAGO,1924 PAVILLION WAY,Lexington,Kentucky
1487,"OLD SAN JUAN, CUBAN CUISINE",247 SURFSIDE DR.,Lexington,Kentucky
1491,OLE' HOOKERS BAR,205 S LIMESTONE ST.,Lexington,Kentucky
1492,OLEIKA SHRINE TEMPLE,326 SOUTHLAND DRIVE,Lexington,Kentucky
1493,OLIVE GARDEN ITAL. REST. #1320,3385 NICHOLASVILLE ROAD,Lexington,Kentucky
1494,ONE WORLD ICE CREAM,399 WALLER AVENUE STE. 130,Lexington,Kentucky
1495,O'NEILL'S,2051 RICHMOND ROAD,Lexington,Kentucky
1496,ORANGE LEAF - SELF SERVE FROZE,"152 WEST TIVERTON WAY, STE 170",Lexington,Kentucky
1497,ORIENTAL SUPER MART INC.,2220 NICHOLASVILLE RD STE 118,Lexington,Kentucky
1499,ORIGINAL GREAT AMERICAN COOKIES,3401 NICHOLASVILLE ROAD #134,Lexington,Kentucky
1500,OSCAR DIGGS,155 N. LIMESTONE,Lexington,Kentucky
1501,O'SHIMI SUSHI,"1093 S BROADWAY, STE 1150",Lexington,Kentucky
1504,OUR HOUSE @ THE PINNACLE CHILDCARE,4269 SARON DR.,Lexington,Kentucky
1505,OUR MAGIC YEARS CHILDCARE,1016-1020 N LIMESTONE ST,Lexington,Kentucky
1507,OUTBACK STEAKHOUSE #1812,"127 W. TIVERTON DR., STE 184",Lexington,Kentucky
1508,OUTBACK STEAKHOUSE #1895,1957 BRYANT ROAD,Lexington,Kentucky
1510,OWL HOOT SHOP,650 KENNEDY RD,Lexington,Kentucky
1514,P L DUNBAR HIGH SCHOOL,1600 MAN-O-WAR BLVD,Lexington,Kentucky
1515,P.F. CHANG'S CHINA BISTRO,3405 NICHOLASVILLE ROAD,Lexington,Kentucky
1517,PAISANO'S RESTAURANT,2417 NICHOLASVILLE ROAD,Lexington,Kentucky
1519,PALMER'S FRESH GRILL,161 LEXINGTON GREEN CIRCLE #C8,Lexington,Kentucky
1520,PANADERIA AGUASCALIENTES (BAKERY),1400 ALEXANDRIA DR,Lexington,Kentucky
1521,PANADERIA TORREON,1930 OXFORD CIRCLE,Lexington,Kentucky
1523,PANCHITOS ICE CREAM #2,481 W NEW CIRCLE RD STE 155,Lexington,Kentucky
1524,PANCHITOS TACO EXPRESS,2729 TRAILWOOD LANE,Lexington,Kentucky
1525,PANDA CUISINE,2358 NICHOLASVILLE ROAD #115,Lexington,Kentucky
1527,PANDA EXPRESS,160 AVENUE OF CHAMPIONS,Lexington,Kentucky
1528,PANDA EXPRESS #2113,2433 NICHOLASVILLE RD,Lexington,Kentucky
1530,PANDA EXPRESS #2625,2399 RICHMOND RD,Lexington,Kentucky
1531,PANERA BREAD #1018,2230 NICHOLASVILLE RD,Lexington,Kentucky
1532,PANERA BREAD #1176,3705 PALOMAR CENTRE DRIVE,Lexington,Kentucky
1533,PANERA BREAD #7015,"120 E MAIN STREET, SUITE 105",Lexington,Kentucky
1534,PANERA BREAD #825,2573 RICHMOND RD STE 100,Lexington,Kentucky
1535,PAPA JOHNS  # 18,265 AVENUE OF CHAMPIONS,Lexington,Kentucky
1537,PAPA JOHN'S #29,4250 SARON DR,Lexington,Kentucky
1539,PAPA JOHN'S #4861,400 HILLTOP AVE,Lexington,Kentucky
1540,PAPA JOHN'S PIZZA #1449,"1610 LEESTOWN ROAD, SUITE 11",Lexington,Kentucky
1542,PAPA JOHN'S PIZZA #32,1650 BRYAN STATION RD #105,Lexington,Kentucky
1544,PAPA JOHN'S PIZZA #40,2937 RICHMOND RD,Lexington,Kentucky
1545,PAPA JOHN'S PIZZA #54,3735 HARRODSBURG RD #240,Lexington,Kentucky
1546,PAPA JOHN'S PIZZA #88,2467 NICHOLASVILLE RD.,Lexington,Kentucky
1547,PAPA MURPHY'S,"3165 BEAUMONT CENTER CIRLE, SUITE 160",Lexington,Kentucky
1548,PAPI'S MEXICAN RESTAURANT & BAR,818 EUCLID AVE,Lexington,Kentucky
1549,PAQUITOS ICE CREAM,1388 ALEXANDERIA DR STE 5,Lexington,Kentucky
1550,PARADIES SHOPS #9370,"4000 TERMINAL DR., STE 122",Lexington,Kentucky
1552,PARKETTE,1230 NEW CIRCLE RD NE,Lexington,Kentucky
1555,PARKHILL SUBWAY,3120 PIMLICO PKWY    # 144,Lexington,Kentucky
1556,PARLAY SOCIAL,249 W SHORT ST. #101,Lexington,Kentucky
1557,PASTA GARAGE,962 DELAWARE AVE,Lexington,Kentucky
1558,PASTURE BY MARKSBURY FARM,"119 MARION, STE 180",Lexington,Kentucky
1559,PATCHEN PUB,153 PATCHEN DR #29,Lexington,Kentucky
1560,PAZZO'S,385 S LIMESTONE,Lexington,Kentucky
1564,PEARL'S,133 N LIMESTONE,Lexington,Kentucky
1565,PEKING CAFE,3181 BEAUMONT CTR.CIR. #104,Lexington,Kentucky
1566,PENN STATION,2121 RICHMOND RD STE. 100 - IDLE HR CTR,Lexington,Kentucky
1574,PEPE'S MEXICAN RESTAURANT,3280 EAGLE VIEW LANE,Lexington,Kentucky
1576,PEPPERS MEXICAN GRILL,4000 TERMINAL DR,Lexington,Kentucky
1577,PETE'S WOK,537 A WALLER AVENUE,Lexington,Kentucky
1578,PHILLIP'S GROCERY & DELI,553 SOUTH LIMESTONE,Lexington,Kentucky
1580,PHO BC,171 WEST LOWRY LANE STE 176,Lexington,Kentucky
1582,PHO SAIGON,1555 E NEW CIRCLE RD #162,Lexington,Kentucky
1583,PICADOME ELEMENTARY SCHOOL,1642 HARRODSBURG RD,Lexington,Kentucky
1584,PIES AND PINTS,401 W MAIN ST. SUITE 106,Lexington,Kentucky
1585,PIETANA,210 ROSEMONT GARDEN,Lexington,Kentucky
1587,PINE MEADOWS HEALTH CARE,1608 HILL RISE DRIVE,Lexington,Kentucky
1588,PINOT'S PALETTE,3851 MALL RD #110,Lexington,Kentucky
1589,PIVOT BREWING COMPANY,1400 DELAWARE AVE,Lexington,Kentucky
1590,PIZZA HUT # 2969,"3094 RICHMOND ROAD, SUITE D-1",Lexington,Kentucky
1591,PIZZA HUT #2966,393 WALLER AVE,Lexington,Kentucky
1592,PIZZA HUT #2967,1650 BRYAN STATION RD #118,Lexington,Kentucky
1593,PIZZA HUT #2970,3630 BOSTON ROAD,Lexington,Kentucky
1594,PIZZA HUT #2972,4240 SARON DR. #B,Lexington,Kentucky
1595,PLANET THAI,2417 NICHOLASVILLE ROAD,Lexington,Kentucky
1597,PLATINUM PLUS,1101 EAST NEW CIRCLE ROAD,Lexington,Kentucky
1598,POPCORN PARADISE,724 NATIONAL AVENUE,Lexington,Kentucky
1599,POPEYE'S LOUISIANA KITCHEN,115 E NEW CIRCLE RD,Lexington,Kentucky
1600,PORTER HOUSE BBQ,4135 WINNEPEG CT,Lexington,Kentucky
1601,PORTOFINO,"249 E MAIN ST, STE 102",Lexington,Kentucky
1603,PREFERIDA SUPERMARKET,1801 ALEXANDRIA DR. # 172,Lexington,Kentucky
1605,"PRESS JUICE BAR & CAFE, THE",191 KENTUCKY AVE.,Lexington,Kentucky
1607,PRINCE HOOKAH,555 S LIMESTONE,Lexington,Kentucky
1609,PRO SHAKES NUTRITION,340 E. NEW CIRCLE RD #130,Lexington,Kentucky
1610,PROUD MARY,9079 OLD RICHMOND ROAD,Lexington,Kentucky
1612,PROVISION LIVING AT BEAUMONT CENTRE,1165 MONARCH STREET,Lexington,Kentucky
1614,PUCCINI'S,3801 DYLAN PL. STE 150,Lexington,Kentucky
1618,PUCCINI'S PIZZA,833 CHEVY CHASE PLACE,Lexington,Kentucky
1620,PUDDLE JUMPERS LEARNING CENTER,1940 CAMBRIDGE DR.,Lexington,Kentucky
1622,PURPLE CONCOURSE #3,430 WEST VINE STREET,Lexington,Kentucky
1623,PURPLE CONCOURSE #4,430 W VINE STREET,Lexington,Kentucky
1624,QDOBA MEXICAN GRILL #2080,2630 RICHMOND ROAD,Lexington,Kentucky
1626,QDOBA MEXICAN GRILL #2086,265 EUCLID AVENUE,Lexington,Kentucky
1627,QDOBA MEXICAN GRILL #2294,2337 SIR BARTON WAY,Lexington,Kentucky
1630,QDOBA MEXICAN GRILL #2521,101 E. TIVERTON WAY,Lexington,Kentucky
1631,QDOBA MEXICAN GRILL #2524,3735 PALOMAR DR #65,Lexington,Kentucky
1632,QUALITY INN,2381 BUENA VISTA RD,Lexington,Kentucky
1634,QUEST COMMUNITY CHURCH COFFEE SHOP,410 SPORTING CT.,Lexington,Kentucky
1635,QUIET PLEASE,269 W MAIN ST 1ST FLR G,Lexington,Kentucky
1636,QUINN CHAPEL CHILD CARE CENTER,744 CHARLES AVENUE,Lexington,Kentucky
1638,R & R ENTERTAINMENT DBA SQUIRES TAVERN,3429 BUCKHORN DR #3,Lexington,Kentucky
1639,RAFFERTY'S,1865 ALYSHEBA WAY,Lexington,Kentucky
1641,RAFSKELLER @ TRANSYLVANIA UNIVERSITY,300 N BROADWAY,Lexington,Kentucky
1643,RAISING CANE'S,2030 HARRODSBURG RD,Lexington,Kentucky
1644,RAISING CANE'S CHICKEN FINGERS,2555 NICHOLASVILLE ROAD,Lexington,Kentucky
1648,RALLY'S,4171 TATES CREEK CENTRE DR,Lexington,Kentucky
1649,RALLY'S # 25,410 GEORGETOWN ROAD,Lexington,Kentucky
1651,RALLY'S #23,2975 RICHMOND ROAD,Lexington,Kentucky
1653,RALLY'S #27,125 NEW CIRCLE RD NE,Lexington,Kentucky
1657,RAMSEY'S,3090 HELMSDALE PLACE,Lexington,Kentucky
1660,RAMSEY'S COMMISSARY,938 WINCHESTER ROAD,Lexington,Kentucky
1662,RAMSEY'S RESTAURANT,151 W ZANDALE DR STE 100,Lexington,Kentucky
1664,RAMSEY'S TC,4053 S #35 TATES CREEK ROAD,Lexington,Kentucky
1665,RANADA'S BISTRO & BAR,400 OLD VINE ST #108,Lexington,Kentucky
1666,RED CORNER STAND,430 WEST VINE STREET,Lexington,Kentucky
1667,RED CUSTARD A,430 W. VINE ST.,Lexington,Kentucky
1668,RED CUSTARD B,430 W. VINE ST.,Lexington,Kentucky
1669,"RED LIGHT, THE",780 N LIMESTONE STREET,Lexington,Kentucky
1671,RED LOBSTER #0188,2550 NICHOLASVILLE RD,Lexington,Kentucky
1672,RED MILE - WAGERS,1101 WINBAK WAY,Lexington,Kentucky
1673,RED MILE FINISH LINE,1101 WINBAK WAY,Lexington,Kentucky
1674,"RED STATE BARBECUE, RED PHOENIX LLC, DBA",4020 GEORGETOWN RD,Lexington,Kentucky
1676,REDI-MART/MARATHON,1970 PLEASANT RIDGE,Lexington,Kentucky
1680,RESIDENCE INN,1080 NEWTOWN PIKE,Lexington,Kentucky
1682,RESTAURANT AGUASCALIENTES,1400 ALEXANDRIA DRIVE # A,Lexington,Kentucky
1683,REVIVE LIFE HOUSE,185 ELM TREE LANE,Lexington,Kentucky
1684,RICHMOND PLACE,3051 RIO DOSA DRIVE,Lexington,Kentucky
1686,RICHMOND PLACE REHAB & HEALTH,2770 PALUMBO DR,Lexington,Kentucky
1687,RIDGE BEHAVIORAL HEALTH,3050 RIO DOSA DR,Lexington,Kentucky
1688,RISE UP! PIZZA,175 E. LOUDON AVE #2,Lexington,Kentucky
1689,RISING ROLL,506 ADMINISTRATION DR,Lexington,Kentucky
1690,"ROASTERY, THE",529 W MAIN ST.,Lexington,Kentucky
1692,RODDY B'S,1060 CHINOE RD STE 108,Lexington,Kentucky
1694,RONALD MCDONALD HOUSE,550 COOPER DRIVE,Lexington,Kentucky
1695,ROSA ANTOJITOS STATE MOBILE,STATE MOBILE,Lexington,Kentucky
1696,ROSA PARKS ELEMENTARY,1251 BEAUMONT CTR LN,Lexington,Kentucky
1697,ROSE & JIM'S,2461 GEORGETOWN RD,Lexington,Kentucky
1699,"ROSE BUD, THE",121 NORTH MILL STREET,Lexington,Kentucky
1700,ROSE MANOR,3057 N. CLEVELAND ROAD,Lexington,Kentucky
1701,"RUDDY DUCK GRILLE, THE",131 CHEAPSIDE,Lexington,Kentucky
1703,RUNOOSH CAFE & PANTRY,547 SOUTH LIMESTONE,Lexington,Kentucky
1706,RUSSELL CAVE ELEMENTARY,3375 RUSSELL CAVE RD,Lexington,Kentucky
1707,"SAGE RABBIT, THE",438 S ASHLAND AVE,Lexington,Kentucky
1708,"SAHARA MEDITERRANEAN GROUP, INC","3061 FIELDSTONE WAY, STE. 1200",Lexington,Kentucky
1710,SAKURA JAPANESE,"3695 NICHOLASVILLE RD, STE 120",Lexington,Kentucky
1711,SAKURA JAPANESE RESTAURANT,1015 WINCHESTER ROAD,Lexington,Kentucky
1712,SALES PAVILION,4201 VERSAILLES RD,Lexington,Kentucky
1713,SALSARITA'S LEXINGTON,"2380 NORMAN LANE, STE K10",Lexington,Kentucky
1714,SALVATION ARMY SHELTER,736 W MAIN ST,Lexington,Kentucky
1715,SAM SUSHI,"3090 HELMSDALE PLACE, STE. 265",Lexington,Kentucky
1716,SAM'S CLUB #8188,1063 NEW CIRCLE RD,Lexington,Kentucky
1718,SAM'S HOT DOGS STAND,105 N. LIMESTONE,Lexington,Kentucky
1719,SAND BAR,2520 NICHOLASVILLE RD,Lexington,Kentucky
1720,SANDERSVILLE ELEMENTARY SCHOOL,3025 SANDERSVILLE RD,Lexington,Kentucky
1721,SANTA FE TAQUERIA LLC,2350 WOODHILL DR. #168,Lexington,Kentucky
1722,SARKU JAPAN,"3401 NICHOLASVILLE RD, SP#FC-5",Lexington,Kentucky
1724,SAUL GOOD RESTAURANT & PUB,1808 ALYSHEBA WAY,Lexington,Kentucky
1726,SAUL GOOD RESTAURANT AND PUB,"3801 MALL ROAD, SUITE 120",Lexington,Kentucky
1727,SAVE A LOT - SOUTHLAND,398 SOUTHLAND DR,Lexington,Kentucky
1736,SAV'S CHILL,289 S LIMESTONE ST,Lexington,Kentucky
1737,SAV'S CHILL STATE MOBILE,289 S LIMESTONE ST,Lexington,Kentucky
1738,SAV'S GRILL,304 S LIMESTONE,Lexington,Kentucky
1740,SAWYER'S BAR & GRILL,325 W MAIN ST,Lexington,Kentucky
1741,SAYRE CHRISTIAN VILLAGE,3816 CAMELOT DR,Lexington,Kentucky
1742,SAYRE HEALTHCARE CENTER,3775 BELLEAU WOOD DR.,Lexington,Kentucky
1743,SAYRE SCHOOL CAFETERIA,194 N LIMESTONE ST,Lexington,Kentucky
1744,SBARRO'S ITALIAN EATERY, FAYETTE MALL,Lexington,Kentucky
1745,SCAPA AT LAFAYETTE,400 LAFAYETTE AVE,Lexington,Kentucky
1746,SCHLOTZSKY'S DELI,117 W TIVERTON WAY,Lexington,Kentucky
1747,SCHOOL RESTAURANT,163 W SHORT STREET,Lexington,Kentucky
1748,SEASON'S CATERING & SPECIAL OCCASIONS,333 N ASHLAND AVE,Lexington,Kentucky
1749,SECOND FLOOR CLUB SERVICE BAR,4201 VERSAILLES RD,Lexington,Kentucky
1750,SECOND PRESBYTERIAN CHURCH,460 E. MAIN STREET,Lexington,Kentucky
1752,SEDONA TAPHOUSE,3600 PALOMAR CENTRE DR,Lexington,Kentucky
1753,SELMA'S CATERING,720 HENRY CLAY BLVD.,Lexington,Kentucky
1755,SELTZER,119 W MAIN STREET,Lexington,Kentucky
1756,SHAKE SHACK,115 SUMMIT @ FRITZ FARM SUITE 110,Lexington,Kentucky
1757,SHAKESPEARE AND CO DOWNTOWN LEX LLC,367 W SHORT ST,Lexington,Kentucky
1758,SHAKING SEAFOOD & WINGS,3110 MAPLELEAF DRIVE,Lexington,Kentucky
1759,SHAMROCK BAR & GRILL,4750 HARTLAND PARKWAY #128,Lexington,Kentucky
1760,SHARKY'S,616 CARVER ROAD,Lexington,Kentucky
1761,SHAW'S CHILD CARE,2813 SNOW ROAD,Lexington,Kentucky
1762,SHELL-ESTEPP'S FOOD MART DELI,1951 STANTON WAY,Lexington,Kentucky
1768,"SHEPHERD'S HOUSE, INC",635 MAXWELTON CT,Lexington,Kentucky
1769,SHERATON FOUR POINTS CAFE,1938 STANTON WAY,Lexington,Kentucky
1770,SHIRAZ PERSIAN AND MEDITERRANEAN CATERING,962 DELWARE AVE,Lexington,Kentucky
1771,SIDEBAR GRILL,147 NORTH LIMESTONE STREET,Lexington,Kentucky
1772,SIGNATURE GRILLE,3256 LANSDOWNE DRIVE,Lexington,Kentucky
1773,"SIMPLE GREEK, THE",4101 TATES CREEK CENTER DR #136,Lexington,Kentucky
1774,SIR PIZZA,131 EAST REYNOLDS ROAD,Lexington,Kentucky
1783,SIR PIZZA COMMISSARY,2604 RICHMOND ROAD,Lexington,Kentucky
1785,SKY 22/AUNTIE ANN'S,"2350 GREY LAG WAY, #160",Lexington,Kentucky
1787,SKYBAR - LEXINGTON,269 W MAIN ST.,Lexington,Kentucky
1788,"SKYLINE BP, LLC",1065 NEWTOWN PIKE,Lexington,Kentucky
1790,SKYLINE CHILI,2850 RICHMOND RD,Lexington,Kentucky
1791,SMART BEEZ LEARNING CENTER,435 SOUTHLAND,Lexington,Kentucky
1793,SMASHING TOMATO RESTAURANT,3801 MALL ROAD,Lexington,Kentucky
1795,SMITHTOWN SEAFOOD,501 W SIXTH ST SUITE 110,Lexington,Kentucky
1796,SMITHTOWN SEAFOOD AT THE SUMMIT,119 MARION SUITE 160,Lexington,Kentucky
1798,SMOKERS BBQ,524 DABNEY DR,Lexington,Kentucky
1799,SOCIAL NUTRITION LLC,828 LANE ALLEN RD STE 130,Lexington,Kentucky
1800,SOLID ROC CAFE,3100 TATES CREEK RD.,Lexington,Kentucky
1801,SONIC 3209,1026 S BROADWAY,Lexington,Kentucky
1803,SONIC 5852,2633 RICHMOND ROAD,Lexington,Kentucky
1805,SORELLA GELATERIA,219 N LIMESTONE,Lexington,Kentucky
1806,SOUNDBAR,208 S LIMESTONE ST.,Lexington,Kentucky
1807,SOUTH LEXINGTON YOUTH BASEBALL (4-12),3500 SHILLITO PARK DRIVE,Lexington,Kentucky
1809,SOUTHEASTERN  BABE RUTH(13-15), VETERANS PARK - SARON DR,Lexington,Kentucky
1811,SOUTHEASTERN CAL RIPKIN (-12) @VETERAN PARK,650 SOUTHPOINT DR,Lexington,Kentucky
1812,SOUTHERN ELEMENTARY SCHOOL,340 WILSON DOWNING RD,Lexington,Kentucky
1813,SOUTHERN HILLS UNITED METH.,2356 HARRODSBURG ROAD,Lexington,Kentucky
1815,SOUTHERN MIDDLE SCHOOL,400 WILSON DOWNING RD,Lexington,Kentucky
1816,SOUTHLAND BAGEL,962 DELAWARE AVE,Lexington,Kentucky
1817,SPALDINGS BAKERY,760 WINCHESTER ROAD,Lexington,Kentucky
1818,SPEARMINT RHINO,5539 ATHENS-BOONESBORO ROAD,Lexington,Kentucky
1820,SPEEDWAY #9332,911 BEAUMONT CENTRE PRKY,Lexington,Kentucky
1824,SPEEDWAY #9334,2910 TATES CREEK RD,Lexington,Kentucky
1826,SPEEDWAY #9393,2290 ELKHORN ROAD,Lexington,Kentucky
1828,SPEEDWAY #9394,1001 GEORGETOWN RD,Lexington,Kentucky
1832,SPEEDWAY #9395,2301 PARIS PIKE,Lexington,Kentucky
1834,SPEEDWAY #9397,1281 E NEW CIRCLE RD,Lexington,Kentucky
1838,SPEEDWAY #9398,3393 TATES CREEK RD,Lexington,Kentucky
1840,SPEEDWAY #9402,3151 TODDS RD,Lexington,Kentucky
1842,SPEEDWAY #9512,515 EUCLID AVE,Lexington,Kentucky
1845,SPEEDWAY #9591,2301 VERSAILLES RD,Lexington,Kentucky
1847,SPEEDWAY #9593,2900 RICHMOND RD,Lexington,Kentucky
1849,SPEEDWAY #9596,246 SOUTHLAND DR,Lexington,Kentucky
1855,SPEEDWAY #9621,2490 NICHOLASVILLE RD,Lexington,Kentucky
1857,SPEEDWAY #9651,5360 ATHENS-BOONESBORO ROAD,Lexington,Kentucky
1861,SPEEDWAY #9658,900 WINCHESTER RD,Lexington,Kentucky
1864,SPEEDWAY #9667,716 NORTH BROADWAY,Lexington,Kentucky
1867,SPEEDWAY #9675,819 S LIMESTONE ST,Lexington,Kentucky
1869,SPEEDWAY #9677,1401 LEESTOWN RD,Lexington,Kentucky
1871,SPEEDWAY #9699,803 SOUTH BROADWAY,Lexington,Kentucky
1873,SPEEDWAY #9704,447 NEW CIRCLE ROAD,Lexington,Kentucky
1882,SPEEDWAY #9728,3660 BOSTON RD,Lexington,Kentucky
1884,SPINDLETOP RESTAURANT,3414 IRON WORKS PIKE,Lexington,Kentucky
1885,SPINDLETOP SNACK BAR,3414 IRON WORKS PIKE,Lexington,Kentucky
1886,SPRING VALLEY GOLF CLUB,2300 SANDERSVILLE ROAD,Lexington,Kentucky
1887,SPRINGHILL SUITES LEXINGTON NEAR THE UNIVERSITY,863 S BROADWAY ST,Lexington,Kentucky
1889,SPUDS TAVERN,"3130 PIMLICO PARKWAY, STE. 101",Lexington,Kentucky
1894,SQUIRES ELEMENTARY SCHOOL,3337 SQUIRES OAK DR,Lexington,Kentucky
1896,ST. JOSEPH EAST-DIETARY DEPT.,150 NORTH EAGLE CREEK,Lexington,Kentucky
1897,ST. JOSEPH HOSPITAL,1 ST. JOSEPH DRIVE,Lexington,Kentucky
1898,ST. JOSEPH HOSPITAL JAVA JOE'S,1 ST. JOSEPH DR.,Lexington,Kentucky
1900,ST. PETER & PAUL SCHOOL,423 W  SHORT ST,Lexington,Kentucky
1901,ST. PETER AND PAUL SCHOOL,133 BARR ST,Lexington,Kentucky
1902,STAGGER INN,269 W MAIN ST,Lexington,Kentucky
1903,STAND 111,4201 VERSAILLES RD.,Lexington,Kentucky
1904,STAND 112,4201 VERSAILLES RD,Lexington,Kentucky
1905,STAND 114,4201 VERSAILLES RD.,Lexington,Kentucky
1907,STAND 120,4201 VERSAILLES RD,Lexington,Kentucky
1909,STAND 122,4201 VERSAILLES RD.,Lexington,Kentucky
1910,STAND 209,4201 VERSAILLES RD.,Lexington,Kentucky
1911,STAND 211,4201 VERSAILLES RD,Lexington,Kentucky
1912,STAND 213,4201 VERSAILLES RD,Lexington,Kentucky
1914,STAND 214,4201 VERSAILLES RD,Lexington,Kentucky
1916,STAND 310,4201 VERSAILLES RD.,Lexington,Kentucky
1917,STAND 311,4201 VERSAILLES RD.,Lexington,Kentucky
1918,STAND 312,4201 VERSAILLES RD,Lexington,Kentucky
1919,STAND 314 & BLUEGRASS ROOM,4201 VERSAILLES RD,Lexington,Kentucky
1920,STARBUCKS,4049 FINN WAY,Lexington,Kentucky
1922,STARBUCKS #10829,"3401 NICHOLASVILLE RD., PK11",Lexington,Kentucky
1924,STARBUCKS #14259,2320 ELKHORN ROAD,Lexington,Kentucky
1925,STARBUCKS #2687,808 E HIGH ST,Lexington,Kentucky
1926,STARBUCKS #9983,870 S. BROADWAY,Lexington,Kentucky
1927,STARBUCKS @ KY CLINIC,745 ROSE ST,Lexington,Kentucky
1928,STARBUCKS @ TARGET,1940 PAVILLION WAY,Lexington,Kentucky
1929,STARBUCKS @ WT YOUNG LIBRARY,401 HILLTOP AVE,Lexington,Kentucky
1930,STARBUCKS COFFEE # 2608,325 W. MAIN STREET #130,Lexington,Kentucky
1931,STARBUCKS COFFEE #10075,3809 DYLAN PLACE,Lexington,Kentucky
1932,STARBUCKS COFFEE #27458,685 WILSON DOWNING RD,Lexington,Kentucky
1933,STARBUCKS COFFEE #7931,2703 RICHMOND RD,Lexington,Kentucky
1934,STARBUCKS COFFEE #8734,1869 PLAUDIT PLACE STE 110,Lexington,Kentucky
1935,STAYBRIDGE SUITES LEXINGTON,125 LOUIE PLACE,Lexington,Kentucky
1937,STEAK EXPRESS,125 SOUTHLAND DRIVE,Lexington,Kentucky
1938,STEAK N SHAKE,111 AVE OF CHAMPIONS,Lexington,Kentucky
1939,STEAM ACADEMY,123 E SIXTH ST,Lexington,Kentucky
1941,STEEL CITY POPS,"111 SUMMIT AT FRITZ FARM, STE 110",Lexington,Kentucky
1943,STEIN'S,450 SOUTHLAND DRIVE STE B,Lexington,Kentucky
1944,STELLA'S KY DELI,143 JEFFERSON STREET,Lexington,Kentucky
1946,STIR KRAZY,"373 VIRGINIA AVE., #130",Lexington,Kentucky
1947,STONEWALL ELEMENTARY SCHOOL,3251 CORNWALL DR,Lexington,Kentucky
1949,STORMING CRAB,4009 NICHOLASVILLE RD,Lexington,Kentucky
1950,SUBWAY,386 WOODLAND AVENUE,Lexington,Kentucky
1974,SUBWAY - MI KING,179 FUNKHOUSER DR,Lexington,Kentucky
1975,SUBWAY - SOUTH PAVILION,"3851 MALL RD, STE 140",Lexington,Kentucky
1977,SUBWAY #18997,3061 FIELDSTONE WAY,Lexington,Kentucky
1982,SUBWAY #36137 @WAL-MART,4051 NICHOLASVILLE RD. STE 125,Lexington,Kentucky
1983,SUBWAY #7507,"4218 SARON DR., SUITE 2",Lexington,Kentucky
1984,SUBWAY 52863,4101 TATES CREEK CENTER DR. #160,Lexington,Kentucky
1986,SUBWAY DELI,2358 NICHOLASVILLE ROAD,Lexington,Kentucky
1987,SUBWAY SOUTHLAND,360 SOUTHLAND DRIVE,Lexington,Kentucky
1988,SUBWAY STORE #27479,3851 KENESAW DRIVE-SUITE 120,Lexington,Kentucky
1989,SULLIVAN UNIVERSITY-LEX CAMPUS,2355 HARRODSBURG RD,Lexington,Kentucky
1990,SUNSET STRIPS,410 W. VINE STREET,Lexington,Kentucky
1991,SUPER MARIO'S ICE CREAM,340 E NEW CIRCLE RD #180,Lexington,Kentucky
1992,SUPER MERCADA AQUASCALIENTES-4,2341 WOODHILL DRIVE,Lexington,Kentucky
1994,SUPER MERCADO AGUASCALIENTES,459 W. NEW CIRCLE RD,Lexington,Kentucky
2002,SUPER MERCADO AGUASCALIENTES #5,2220 NICHOLASVILLE RD. STE 156,Lexington,Kentucky
2005,SUPER MERCADO AGUASCALIENTES 1,1424 ALEXANDRIA,Lexington,Kentucky
2011,SUPERMERCADO LAS NORTENAS,158 E NEW CIRCLE RD,Lexington,Kentucky
2015,SURE STAY PLUS BY BEST WESTERN,2241 ELKHORN RD,Lexington,Kentucky
2017,SUSHI BLUE,"185 PASADENA DRIVE, #130",Lexington,Kentucky
2019,SUSHI WITH GUSTO,3387 TATES CREEK RD.,Lexington,Kentucky
2020,SUTTON'S RESTAURANT,110 N. LOCUST HILL,Lexington,Kentucky
2021,T.G.I. FRIDAYS,1916 PAVILION WAY,Lexington,Kentucky
2023,TACHIBANA  RESTAURANT,785 NEWTOWN COURT,Lexington,Kentucky
2025,TACK HOUSE PUB,4401 OLD HARRODSBURG ROAD,Lexington,Kentucky
2027,TACO BELL,400 HILLTOP,Lexington,Kentucky
2028,TACO BELL #16531,4121 TATES CREEK ROAD,Lexington,Kentucky
2029,TACO BELL #20363,1935 PLAUDIT PLACE,Lexington,Kentucky
2030,TACO BELL #22283,2275 NICHOLASVILLE RD,Lexington,Kentucky
2031,TACO BELL #23279,2917 RICHMOND RD,Lexington,Kentucky
2032,TACO BELL #29739,2323 VERSAILLES RD,Lexington,Kentucky
2033,TACO BELL #31595,1962 HARRODSBURG RD,Lexington,Kentucky
2034,TACO BELL #32414,320 NW NEW CIRCLE RD,Lexington,Kentucky
2036,TACO BELL #4653,1063 NEW CIRCLE RD  NE,Lexington,Kentucky
2037,TACO TICO,1483 BOARDWALK,Lexington,Kentucky
2040,TACO TIME DR STATE MOBILE,3490 RIVER PARK,Lexington,Kentucky
2041,TACOS EL POTRILLO,1040 CROSS KEYS #19,Lexington,Kentucky
2042,TACOS EL REY,413 N.W NEW CIRCLE RD,Lexington,Kentucky
2044,TALLEY'S BBQ,1479 BOARDWALK,Lexington,Kentucky
2046,TALON WINERY PAVILLION,7086 TATES CREEK ROAD,Lexington,Kentucky
2047,"TANBARK, THE",1121 TANBARK ROAD,Lexington,Kentucky
2048,TANDOOR EXPRESS LLC,630 EUCLID AVE STE 150,Lexington,Kentucky
2050,TANDOOR INDIAN,"3146 MAPLE LEAF DR, STE 110",Lexington,Kentucky
2051,TAPROOM @ WEST SIXTH BREWING,"501 W SIXTH STREET, STE 100",Lexington,Kentucky
2052,TAQUERIA EL BUEN SABOR STATE MOBILE,909 SUMMERVILLE DR,Lexington,Kentucky
2054,TAQUERIA SAN MIGUEL,3429 BUCKHORN #120,Lexington,Kentucky
2055,TARGET STORE 1094,1940 PAVILLION WAY,Lexington,Kentucky
2059,TARGET STORES T-366,131 WEST REYNOLDS ROAD,Lexington,Kentucky
2061,TASTE OF INDIA,2467 NICHOLASVILLE RD,Lexington,Kentucky
2064,TASTE OF THAI,101 - 105 WEST MAIN ST.,Lexington,Kentucky
2065,TATES CREEK ELEMENTARY SCHOOL,1300 CENTRE PKWY,Lexington,Kentucky
2066,TATES CREEK GOLF CLUB,1400 GAINESWAY DRIVE,Lexington,Kentucky
2067,TATES CREEK HIGH SCHOOL,1301 CENTRE PKWY,Lexington,Kentucky
2068,TATES CREEK HIGH SCHOOL (FTBALL),1111 CENTRE PARKWAY,Lexington,Kentucky
2069,TATES CREEK MIDDLE SCHOOL,1301 CENTRE PKWY,Lexington,Kentucky
2070,TATES CREEK SOFTBALL BOOSTERS,1111 CENTRE PKWY,Lexington,Kentucky
2071,TAZIKIS MEDITERRANEAN CAFE,117 SOUTHLAND DR,Lexington,Kentucky
2074,TED'S MONTANA GRILL,2304 SIR BARTON WAY STE #170,Lexington,Kentucky
2076,TEKKA GRILL & SUSHI,2300 SIR BARTON WAY  #110,Lexington,Kentucky
2077,TEXAS DE BRAZIL,"151 LARUE, STE 150",Lexington,Kentucky
2079,TEXAS ROADHOUSE,3030 LAKECREST CIRCLE,Lexington,Kentucky
2080,TEXAS ROADHOUSE RESTAURANT,3029 RICHMOND ROAD,Lexington,Kentucky
2081,THAI STREET FOOD KITCHEN,"3340 CLAYS MILL RD., STE. 110",Lexington,Kentucky
2084,THE AMERICAN LEGION POST # 8,1230 MAN-0-WAR PLACE,Lexington,Kentucky
2085,THE BACKDOOR,6270 ATHENS WALNUT HILL RD.,Lexington,Kentucky
2087,THE BAR @ BLUE STALLION,610 W THIRD ST,Lexington,Kentucky
2088,THE BAR INC,224 E MAIN ST,Lexington,Kentucky
2089,THE BRECKINRIDGE,2109 CORNERSTONE DR,Lexington,Kentucky
2090,THE BRIDGE,342 ROMANY ROAD,Lexington,Kentucky
2093,THE BURL,375 THOMPSON RD,Lexington,Kentucky
2094,THE CAFE,800 ROSE ST RM 130,Lexington,Kentucky
2095,THE GINGKO TREE,1305 FINCASTLE RD,Lexington,Kentucky
2096,THE KEENE PLACE,4201 VERSAILLES RD,Lexington,Kentucky
2097,THE KITCHEN @ A. S. EATS,"312 S ASHLAND AVE, STE 100",Lexington,Kentucky
2098,THE MILL BAKERY,341 SOUTHLAND DR,Lexington,Kentucky
2100,THE NUTRITION ZONE,509 E NEW CIRCLE RD,Lexington,Kentucky
2102,THE PIZZA STAND,207 LEGENDS LANE,Lexington,Kentucky
2103,THE PRETZEL TWISTER,3401 NICHOLASVILLE RD K-2,Lexington,Kentucky
2104,THE SIRE,120 WEST SECOND STREET,Lexington,Kentucky
2105,THE TULIP BISTRO & BAR,355 ROMANY RD,Lexington,Kentucky
2106,THIRD FLOOR CLUB KITCHEN,4201 VERSAILLES RD.,Lexington,Kentucky
2107,THIRD FLOOR CLUB SERVICE BAR,4201 VERSAILLES RD,Lexington,Kentucky
2108,THIRD STREET STUFF COFFEE,257 N LIMESTONE ST,Lexington,Kentucky
2109,THORNTON FOOD STOP #38,802 N BROADWAY ST,Lexington,Kentucky
2111,THORNTON FOOD STOP #51,2300 WOODHILL DRIVE,Lexington,Kentucky
2113,THORNTON FOOD STOP #52,1040 GEORGETOWN RD,Lexington,Kentucky
2116,THORNTON FOOD STOP #53,2291 ELKHORN ROAD,Lexington,Kentucky
2122,THORNTON'S #90,1120 WINCHESTER RD,Lexington,Kentucky
2130,THORNTON'S FOOD MART #89,441 REDDING ROAD,Lexington,Kentucky
2132,THORNTON'S FOOD STOP #48,1311 VERSAILLES ROAD,Lexington,Kentucky
2134,THOROUGHBRED CLUB OF AMERICA,3555 RICE ROAD,Lexington,Kentucky
2135,THOROUGHBRED RESTAURANT,1483 LEESTOWN RD,Lexington,Kentucky
2136,THRIVE KOMBUCHA (LLC),"810 N LIMESTONE, UNIT 1",Lexington,Kentucky
2138,TILTED KILT PUB EATERY,"1030 S BROADWAY, STE 1",Lexington,Kentucky
2140,"TIN ROOF, THE",303 SOUTH LIMESTONE,Lexington,Kentucky
2141,TINKER'S CAKE SHOP,317 WEST MAXWELL STREET,Lexington,Kentucky
2142,TOLLY HO RESTAURANT,606 S BROADWAY,Lexington,Kentucky
2148,TOMO'S RESTAURANT,848 E. HIGH STREET,Lexington,Kentucky
2149,TONY'S STEAKS AND SEAFOOD OF LEXINGTON,401 WEST MAIN ST. #102,Lexington,Kentucky
2150,TORTILLERIA RAMIREZ,1429 ALEXANDRIA DRIVE,Lexington,Kentucky
2152,TOT 'N' TODDLERS,445 ASBURY LANE,Lexington,Kentucky
2153,TOTAL WINE,161 LEXINGTON GREEN CIRCLE  #A-2,Lexington,Kentucky
2154,TOT'S LANDING,2245 GULFSTREAM DRIVE,Lexington,Kentucky
2156,"TOT'S LANDING LEARNING CTR,INC",3501 BEAVER PLACE RD,Lexington,Kentucky
2157,TOWER HILL SPORTS,3025 BLAKE JAMES DR.,Lexington,Kentucky
2158,TOWNE PLACE SUITES BY MARRIOTT LEXINGTON,1790 VENDOR WAY,Lexington,Kentucky
2160,TOWNE PLACE SUITES BY MARRIOTT LEXINGTON KEENELAND,980 MIDNIGHT PASS,Lexington,Kentucky
2162,TRACK KITCHEN,4201 VERSAILLES RD,Lexington,Kentucky
2163,TRADER JOE'S - STORE 627,2326 NICHOLASVILLE RD.,Lexington,Kentucky
2165,TRANSYLVANIA UNIVERSITY CAFE,300 NORTH BROADWAY,Lexington,Kentucky
2166,TRINITY BAPTIST CHURCH,1675 STRADER DR,Lexington,Kentucky
2167,TRINITY HILL CHILD CARE CENTER,210 E. REYNOLDS ROAD,Lexington,Kentucky
2168,TRINITY HILLS FOOD SERVICE,3600 TATES CREEK RD,Lexington,Kentucky
2169,TROPICAL SMOOTHIE CAFE',3181 BEAUMONT CTR. STE 112,Lexington,Kentucky
2171,TWO KEYS TAVERN,333 S. LIMESTONE,Lexington,Kentucky
2173,UK - EARLY CHILDHOOD LABORATORY,621 SOUTH LIMESTONE,Lexington,Kentucky
2175,UK / UK SAMARITAN HOSPITAL,310 S LIMESTONE ST,Lexington,Kentucky
2176,"UK BOOKSTORE, BARNES & NOBLE COLLEGE BOOKSELLERS",160 AVENUE OF CHAMPIONS,Lexington,Kentucky
2178,UK CHAMPION'S KITCHEN  - STUDENT CENTER,160 AVE OF CHAMPIONS,Lexington,Kentucky
2180,UK HEALTHCARE FACILITY CAFETERIA,1000 S LIMESTONE,Lexington,Kentucky
2181,UK HEALTHCARE FACILITY KITCHEN,1000 SOUTH LIMESTONE,Lexington,Kentucky
2183,UNCLE'S SEVENS,628 DELZAN,Lexington,Kentucky
2184,UNIVERSITY CLUB OF KY,4850 LEESTOWN RD,Lexington,Kentucky
2185,VALVOLINE - AVI,3499 BLAZER PARKWAY,Lexington,Kentucky
2187,VETERANS PARK ELEMENTARY SCHOOL,4351 CLEARWATER WAY,Lexington,Kentucky
2188,VFW POST - 680,1494 LEESTOWN ROAD,Lexington,Kentucky
2190,VIBURNUM VALLEY FARM CONFECTIONS,2150 GEORGETOWN RD,Lexington,Kentucky
2192,"VILLAGE IDIOT, THE",307 W SHORT STREET,Lexington,Kentucky
2193,VINAIGRETTE SALAD KITCHEN,1781 SHARKEY WAY #130,Lexington,Kentucky
2195,VIP EARLY LEARNING CENTER,"1392 TRENT BLVD., STE. 3 & 4",Lexington,Kentucky
2196,VIRGINIA PLACE DAY CARE,1156 HORSEMAN'S LANE,Lexington,Kentucky
2197,WAFFLE HOUSE # 1099,1000 GEORGETOWN ROAD,Lexington,Kentucky
2199,WAFFLE HOUSE # 1375,3601 -A WALDEN DRIVE,Lexington,Kentucky
2200,WAFFLE HOUSE # 1408,2740 RICHMOND RD,Lexington,Kentucky
2204,WAFFLE HOUSE # 1565,859 SOUTH BROADWAY,Lexington,Kentucky
2205,WAFFLE HOUSE # 2299,1134 WINCHESTER ROAD,Lexington,Kentucky
2207,WAFFLE HOUSE #1055,3040 LAKECREST CIRCLE,Lexington,Kentucky
2208,WAFFLE HOUSE #1334,1912 PLAUDIT PLACE,Lexington,Kentucky
2210,WAGON BONES GRILL,591 W SHORT ST,Lexington,Kentucky
2211,WAH MEI,"4750 HARTLAND PKWY, STE 110",Lexington,Kentucky
2212,WALMART  #3894,2350 GREY LAG WAY,Lexington,Kentucky
2214,WALMART #2628,4051 NICHOLASVILLE RD,Lexington,Kentucky
2216,WALMART #4607,3735 PALOMAR CENTER,Lexington,Kentucky
2218,WALMART MARKET #4413,4230 SARON DRIVE,Lexington,Kentucky
2220,WEE CARE DAYCARE,455 E MAXWELL ST,Lexington,Kentucky
2221,"WEEKLY JUICERY, THE",436 OLD VINE STREET,Lexington,Kentucky
2223,WELLINGTON ELEMENTARY SCHOOL,3280 KEITHSHIRE DRIVE,Lexington,Kentucky
2224,WENDY'S,1792 ALEXANDRIA,Lexington,Kentucky
2235,WENDY'S RESTAURANT,2296 THUNDERSTICK DRIVE,Lexington,Kentucky
2236,WEST COAST GOURMET PIZZA,325 W MAIN ST. #140,Lexington,Kentucky
2237,WEST SIXTH BREWING,109 W MAIN ST,Lexington,Kentucky
2238,WHEELER'S PHARMACY,336 ROMANY RD,Lexington,Kentucky
2242,WHISKEY BEAR,"119 MARION, STE 170",Lexington,Kentucky
2243,WHITE CASTLE #22,179 EAST REYNOLDS RD.,Lexington,Kentucky
2244,WHOLE FOOD MARKET,4055 FINN WAY,Lexington,Kentucky
2246,WILD EGGS,3537 PALOMAR CENTRE DR,Lexington,Kentucky
2249,WILD FIG BOOKS & COFFEE,726 N LIMESTONE,Lexington,Kentucky
2250,"WILD THYME, LLC",1060 CHINOE RD. SUITE 108,Lexington,Kentucky
2254,WILDCAT CAFE @ UK MEDICAL CENTER,800 ROSE STREET,Lexington,Kentucky
2255,WILDCAT COAL LODGE,318 COLLEGE VIEW AVE,Lexington,Kentucky
2256,WILDCAT MARKET,552  COLUMBIA AVENUE,Lexington,Kentucky
2258,WILLIAM W BROWN ELEMENTARY,555 E. 5TH STREET,Lexington,Kentucky
2259,WILLIAMS-SONOMA #310, @ FAYETTE MALL,Lexington,Kentucky
2260,WILLOWS AT CITATION,1376 SILVER SPRINGS DR,Lexington,Kentucky
2261,"WILLOWS AT HAMBURG, THE",2531 OLD ROSE BUD RD.,Lexington,Kentucky
2262,"WILLOWS AT HAMBURG, THE (LEGACY)",2531 OLD ROSEBUD RD.,Lexington,Kentucky
2263,"WILLOWS, THE @ FRITZ FARM",2710 MAN O WAR BLVD,Lexington,Kentucky
2264,"WILSON'S GROCERY, MEAT & PROD.",1010 CRAMER AVENUE,Lexington,Kentucky
2268,WINBURN MIDDLE SCHOOL,1060 WINBURN DR,Lexington,Kentucky
2269,WINCHELL'S REST. & SPORTS BAR,348 SOUTHLAND DRIVE,Lexington,Kentucky
2270,WINDY CORNER MARKET,4595 BRYAN STATION ROAD,Lexington,Kentucky
2280,WINE & MARKET,486 W. 2ND ST.,Lexington,Kentucky
2282,WING ZONE,580 EUREKA SPRINGS DR. #A,Lexington,Kentucky
2283,WISE BIRD CIDER,"1170 MANCHESTER ST, STE #140",Lexington,Kentucky
2284,WONG WONG RESTAURANT,458 SOUTHLAND DR,Lexington,Kentucky
2289,WOODLAND EARLY LEARNING CENTER,575 WOODLAND AVENUE,Lexington,Kentucky
2290,WORLD OF BEER,"122 MARION ST, STE 150",Lexington,Kentucky
2292,YATES ELEMENTARY SCHOOL,703 E NEW CIRCLE RD,Lexington,Kentucky
2294,YESTERDAYS,410 W VINE ST,Lexington,Kentucky
2295,YUMMY YUMMY,1395 WEST MAIN ST,Lexington,Kentucky
2297,Z MARKET #1,1150 VERSAILLES RD,Lexington,Kentucky
2299,ZAXBY'S,1772 SHARKEY WAY,Lexington,Kentucky
2306,ZEN SUSHI,3070 LAKECREST CIRCLE #500,Lexington,Kentucky
2308,ZENITH PETROLEUM,1875 AUGUSTA DR,Lexington,Kentucky
2316,ZIM'S CAFE,215 W MAIN ST,Lexington,Kentucky
